,longitude,latitude,name,pointName,material,dpwt,tide,address,fish,category
0,124.729472199961,37.8317777808872,대청도·소청도,선진포항 앞바다,가는 모래,13~20,조금 전후,인천광역시 옹진군,"넙치,노래미,농어,삼치,쏨뱅이,우럭",0
1,124.780222199965,37.7772777808896,대청도·소청도,곽암 부근,"자갈, 조개껍질",23~29,조금 전후,인천광역시 옹진군,"넙치,노래미,농어,삼치,쏨뱅이,우럭",0
2,124.733749999962,37.7515000008869,대청도·소청도,가두암 부근,가는 모래,26~30,조금 전후,인천광역시 옹진군,"넙치,노래미,농어,삼치,쏨뱅이,우럭",0
3,124.664083299956,37.8012777808829,대청도·소청도,갑죽도 부근,"모래, 조개껍질",22~27,조금 전후,인천광역시 옹진군,"넙치,노래미,농어,삼치,쏨뱅이,우럭",0
4,126.3179722,37.5228333309115,장봉도,비가지(날가지도) 부근,"모래, 펄",6~11,"조금 전·후, 3물~5물",인천광역시 옹진군,"넙치,노래미,망둑어,숭어,우럭",0
5,126.3976667,37.5381111109117,장봉도,부도 부근,모래,10~15,"조금 전·후, 3물~5물",인천광역시 옹진군,"넙치,노래미,망둑어,숭어,우럭",0
6,126.2794167,37.2778611109093,자월도,묵통도 부근,모래,12.5~14,"들물, 날물",인천광역시 옹진군,"농어,우럭",0
7,126.3135556,37.2695277809094,자월도,입암두 앞바다,모래,8~10,"들물, 날물",인천광역시 옹진군,"농어,우럭",0
8,126.3533056,37.2584722209093,자월도,굴뿌리 앞바다,모래,27~30,"들물, 날물",인천광역시 옹진군,"농어,우럭",0
9,126.31875,37.2396111109091,자월도,월암두(부근여) 부근,"조개껍질, 펄",13~17,"들물, 날물",인천광역시 옹진군,"농어,우럭",0
10,126.073222199999,37.2783888909091,덕적도·소야도,선미도 부근,모래,10~15,조금 전·후,인천광역시 옹진군,"넙치,노래미,농어,붕장어,우럭",0
11,126.086888899999,37.259305560909,덕적도·소야도,단탄 부근,모래,12~17,조금 전·후,인천광역시 옹진군,"넙치,노래미,농어,붕장어,우럭",0
12,126.080888899999,37.2161111109086,덕적도·소야도,용담갑 앞바다,가는모래,30~35,조금 전·후,인천광역시 옹진군,"넙치,노래미,농어,붕장어,우럭",0
13,126.099888899999,37.205638890908496,덕적도·소야도,감증탄 부근,바위,6~10,조금 전·후,인천광역시 옹진군,"넙치,노래미,농어,붕장어,우럭",0
14,126.210611099999,37.1945277809086,이작도·승봉도,벌도와 동백도 사이,가는 모래,20~27,,인천광역시 옹진군,"노래미,숭어,농어,넙치,우럭",0
15,126.220083299999,37.1988055609087,이작도·승봉도,동백도 동측 앞바다,가는 모래,47~50,,인천광역시 옹진군,"노래미,숭어,농어,넙치,우럭",0
16,126.2604167,37.1855000009086,이작도·승봉도,오형제바위 앞바다,펄,13~22,,인천광역시 옹진군,"넙치,노래미,농어,숭어,우럭",0
17,126.2879444,37.1613888909084,이작도·승봉도,송곳부리 앞바다,"모래, 펄, 조개껍질",8.4~10,,인천광역시 옹진군,"넙치,노래미,농어,숭어,우럭",0
18,126.2559722,37.1651944409084,이작도·승봉도,작은풀안해수욕장 앞바다,"모래, 펄",17~20,,인천광역시 옹진군,"넙치,노래미,농어,숭어,우럭",0
19,126.2463333,37.1802222209084,이작도·승봉도,선착장 앞바다,"모래, 펄",10~17,,인천광역시 옹진군,"넙치,노래미,농어,숭어,우럭",0
20,126.089333299999,37.2036388909084,문갑도·선갑도,문갑도 감증탄 부근,가는 모래,14.5~18,조금 전·후,인천광역시 옹진군,"넙치,노래미,농어,우럭",0
21,126.121249999999,37.1867222209084,문갑도·선갑도,문갑도 할미취 부근,가는 모래,7.8~10,조금 전·후,인천광역시 옹진군,"넙치,노래미,농어,우럭",0
22,126.043694399999,37.0923611109074,문갑도·선갑도,선갑도 서측 바다,가는 모래,35~40,조금 전·후,인천광역시 옹진군,"넙치,노래미,농어,우럭",0
23,126.080972199999,37.0587222209072,문갑도·선갑도,선갑도 우두암 부근,"펄, 모래",36~39,조금 전·후,인천광역시 옹진군,"넙치,노래미,농어,우럭",0
24,125.946138899998,37.064666670906895,백아도·굴업도,백아도 오도 부근,펄,6.2~10,"1~3물, 조금 전·후",인천광역시 옹진군,"넙치,노래미,농어,붕장어,우럭",0
25,125.968722199999,37.056861110906894,백아도·굴업도,백아도 광대도 부근,"모래, 펄",3.8~5.2,"1~3물, 조금 전·후",인천광역시 옹진군,"넙치,노래미,농어,붕장어,우럭",0
26,125.999194399999,37.1988333309083,백아도·굴업도,굴업도 동뿌리 앞바다,가는 모래,40~43,"1~3물, 조금 전·후",인천광역시 옹진군,"넙치,노래미,농어,붕장어,우럭",0
27,125.980499999999,37.180138890908,백아도·굴업도,굴업도 항도 부근,펄,5~6.2,"1~3물, 조금 전·후",인천광역시 옹진군,"넙치,노래미,농어,붕장어,우럭",0
28,126.5273056,37.1224444409082,입파도·국화도,입파도 학산서 부근,"펄, 모래",15~18,조금 전·후,경기도 화성시,"넙치,노래미,도다리,붕장어,우럭",0
29,126.5227778,37.0929166709079,입파도·국화도,입파도 남서측 바다,"펄, 모래",31~34,조금 전·후,경기도 화성시,"넙치,노래미,도다리,붕장어,우럭",0
30,126.5634444,37.0807222209078,입파도·국화도,국화도 북동측 바다,모래,24.5~30,조금 전·후,경기도 화성시,"넙치,노래미,도다리,붕장어,우럭",0
31,126.5455556,37.0492222209075,입파도·국화도,국화도 등표 부근,펄,24~28,조금 전·후,경기도 화성시,"넙치,노래미,도다리,붕장어,우럭",0
32,126.4002778,37.1211388909081,풍도·난지도,풍도 북동측 바다,"자갈, 조개껍질",25~27,사리 전·후,경기도 안산시,"넙치,노래미,농어,붕장어,우럭",0
33,126.4128611,37.0841944409077,풍도·난지도,풍도 남동측 바다,모래,26~28,사리 전·후,경기도 안산시,"넙치,노래미,농어,붕장어,우럭",0
34,126.3785556,37.0853055609078,풍도·난지도,풍도 남서측 바다,모래,18~20,사리 전·후,경기도 안산시,"넙치,노래미,농어,붕장어,우럭",0
35,126.4113056,37.0571944409076,풍도·난지도,대난지도 철도 부근,모래,12~16,"만조, 간조 전·후",경기도 안산시,"넙치,농어,도다리,우럭,붕장어",0
36,126.4495833,37.028222220907296,풍도·난지도,소난지도 우모도 부근,모래,23~24,"만조, 간조 전·후",경기도 안산시,"넙치,농어,도다리,우럭,붕장어",0
37,126.4298889,37.0282500009072,풍도·난지도,소난지도 비경도 부근,모래,25~28,"만조, 간조 전·후",경기도 안산시,"넙치,농어,도다리,우럭,붕장어",0
38,126.4218889,36.3904444409013,원산도·삽시도,증도 부근,모래,3.8~5.6,들물 전·후,충청남도 보령시,"감성돔,갑오징어,넙치,농어,우럭,주꾸미",0
39,126.3892222,36.3406944409008,원산도·삽시도,납작도 부근,"펄, 모래",6.3~8.3,들물 전·후,충청남도 보령시,"감성돔,갑오징어,넙치,농어,우럭,주꾸미",0
40,126.3311389,36.3439722209008,원산도·삽시도,면삽지 앞바다,"모래, 조개껍질",5.2~6.1,조금 전·후,충청남도 보령시,"감성돔,갑오징어,넙치,농어,우럭,주꾸미",0
41,126.3168333,36.361638890901,원산도·삽시도,물건서 부근,"모래, 펄",15~19,조금 전·후,충청남도 보령시,"감성돔,갑오징어,넙치,농어,우럭,주꾸미",0
42,126.2502222,36.3132222209004,호도·녹도·외연도,명덕도 부근,모래,17~22,초들물,충청남도 보령시,"감성돔,갑오징어,넙치,농어,노래미,우럭",0
43,126.2794722,36.2658333309001,호도·녹도·외연도,석도 부근,모래,6.8~9,초들물,충청남도 보령시,"감성돔,갑오징어,넙치,농어,노래미,우럭",0
44,126.2771111,36.2563611108999,호도·녹도·외연도,소화사도 부근,"펄, 모래",11~15,조금 전·후,충청남도 보령시,"감성돔,갑오징어,넙치,농어,노래미,우럭",0
45,126.2473333,36.2717777809,호도·녹도·외연도,모도 부근,모래,13.7~16,초들물,충청남도 보령시,"감성돔,갑오징어,넙치,농어,노래미,우럭",0
46,126.064555599999,36.2316111108994,호도·녹도·외연도,흑서 부근,펄,14~16,조금 전·후,충청남도 보령시,"감성돔,갑오징어,넙치,노래미,농어,우럭,참돔",0
47,126.087222199999,36.2020833308992,호도·녹도·외연도,초망서 부근,"펄, 조개껍질",21.5~27.5,조금 전·후,충청남도 보령시,"감성돔,갑오징어,넙치,노래미,농어,우럭,참돔",0
48,125.972972199999,36.1322222208982,어청도·연도,어청도 등대 북쪽 부근,펄,44~50,"들물, 날물",전라북도 군산시,"농어,노래미,돌돔,우럭",0
49,126.001666699999,36.1210000008981,어청도·연도,어청도 한우담 앞바다,모래,41~47,"들물, 날물",전라북도 군산시,"농어,노래미,돌돔,우럭",0
50,125.994722199999,36.105833330898,어청도·연도,어청도 가진서 부근,모래,22~30,"들물, 날물",전라북도 군산시,"넙치,농어,돌돔,방어",0
51,126.4265556,36.0905277808984,어청도·연도,연도 북서쪽 부근,모래,10~14,"들물, 날물",전라북도 군산시,"감성돔,넙치,농어,보구치,우럭,장대",0
52,126.217583299999,36.0022777808973,십이동파도·비안도,십이동파도 북도 북서측 바다,"펄, 모래",51~53,조금 전·후,전라북도 군산시,"감성돔,갑오징어,넙치,노래미,농어,우럭,참돔",0
53,126.227916699999,35.9788333308971,십이동파도·비안도,십이동파도 소금도 남서측 바다,"펄, 조개껍질",27~29.3,들물 전·후,전라북도 군산시,"감성돔,갑오징어,넙치,노래미,농어,우럭,참돔",0
54,126.4658611,35.7450277808949,십이동파도·비안도,비안도 두리도 부근,가는 모래,4.3~5.1,들물 전·후,전라북도 군산시,"넙치,노래미,농어,붕장어,우럭",0
55,126.4573056,35.7281944408947,십이동파도·비안도,비안도 치두도 부근,"모래, 펄",8.3~9.2,들물 전·후,전라북도 군산시,"넙치,노래미,농어,붕장어,우럭",0
56,126.3025278,35.8581944408959,말도·방축도,말도 서쪽 바다,"모래, 조개껍질",8.6~30,"들물, 썰물 전·후",전라북도 군산시,"넙치,노래미,도다리,우럭,참돔",0
57,126.3160556,35.862750000896,말도·방축도,말도 등대 앞바다,"모래, 조개껍질",26~30.5,"들물, 썰물 전·후",전라북도 군산시,"넙치,노래미,농어,도다리,우럭",0
58,126.32825,35.8557222208959,말도·방축도,말도와 보농도 사이 바다,"모래, 조개껍질",7~10,"들물, 썰물 전·후",전라북도 군산시,"감성돔,노래미,넙치,도다리,우럭",0
59,126.3460833,35.860555560896,말도·방축도,솔푼서 부근,바위,15.2~18,"들물, 썰물 전·후",전라북도 군산시,"감성돔,도다리,노래미,우럭",0
60,126.3903889,35.855194440896,말도·방축도,방축도 동쪽 바다,펄,33~37,중들물~만조시,전라북도 군산시,"넙치,노래미,농어,도다리,우럭",0
61,126.3771667,35.8279722208956,말도·방축도,흑도와 골서 부근,"자갈, 조개껍질",12~15,중들물~만조시,전라북도 군산시,"감성돔,노래미,넙치,도다리,우럭",0
62,126.3836944,35.8110000008955,선유도·무녀도·장자도·신시도,1. 증서 부근,가는 모래,13.6~15,조금 전·후,전라북도 군산시,"넙치,노래미,농어,양태,붕장어,우럭",0
63,126.3955833,35.8272777808956,선유도·무녀도·장자도·신시도,2. 광서 부근,"자갈, 조개껍질",6~8,조금 전·후,전라북도 군산시,"넙치,노래미,농어,붕장어,삼치,우럭,양태",0
64,126.44,35.8345277808957,선유도·무녀도·장자도·신시도,3. 도토머리도 부근,"모래, 펄",13~15,조금 전·후,전라북도 군산시,"넙치,노래미,농어,붕장어,삼치,우럭,양태",0
65,126.4436389,35.7971666708953,선유도·무녀도·장자도·신시도,"만서, 만자서 부근","모래, 펄",9~12,조금 전·후,전라북도 군산시,"넙치,노래미,농어,붕장어,삼치,우럭,양태",0
66,126.4521111,35.7880833308952,선유도·무녀도·장자도·신시도,"만서, 만자서 앞바다","모래, 펄",18~21,조금 전·후,전라북도 군산시,"넙치,노래미,농어,붕장어,삼치,우럭,양태",0
67,126.4004167,35.7924722208953,선유도·무녀도·장자도·신시도,장구도 앞바다,가는 모래,8~12,조금 전·후,전라북도 군산시,"넙치,노래미,농어,붕장어,삼치,우럭,양태",0
68,126.101166699999,35.6378888908934,왕등도·위도,하왕등도 서쪽 바다,펄,28~34,조금 전·후,전라북도 부안군,"감성돔,넙치,농어,돌돔,붕장어,우럭,참돔",0
69,126.118861099999,35.6613055608937,왕등도·위도,상왕등도 대구섬 부근,"가는 모래, 펄",17~23,조금 전·후,전라북도 부안군,"감성돔,넙치,농어,돌돔,붕장어,우럭,참돔",0
70,126.137444399999,35.6586944408937,왕등도·위도,상왕등도 열도 부근,"가는 모래, 펄",24~30,조금 전·후,전라북도 부안군,"감성돔,넙치,농어,돌돔,붕장어,우럭,참돔",0
71,126.215833299999,35.6369166708935,왕등도·위도,식도 북쪽 바다,펄,28~30,중썰물~끝썰물,전라북도 부안군,"감성돔,넙치,노래미,농어,숭어,우럭",0
72,126.25775,35.6113888908933,왕등도·위도,위도 달루도 부근,펄,11~13,중썰물~끝썰물,전라북도 부안군,"감성돔,넙치,노래미,농어,숭어,우럭",0
73,126.227444399999,35.583333330893,왕등도·위도,위도 외조도 부근,바위,16~19,중썰물~끝썰물,전라북도 부안군,"감성돔,넙치,노래미,농어,숭어,우럭",0
74,125.923944399998,34.7942500008838,비금도·도초도,우세도 부근,펄,7~10,날물,전라남도 신안군,"감성돔,농어,돌돔,볼락,붕장어,우럭,참돔",0
75,125.954166699998,34.8243888908842,비금도·도초도,토막도 부근,펄,12~18,날물,전라남도 신안군,"감성돔,농어,돌돔,볼락,붕장어,우럭,참돔",0
76,125.968749999999,34.6520000008823,비금도·도초도,가도 부근,펄,14~19,초들물~중들물,전라남도 신안군,"감성돔,농어,돌돔,볼락,붕장어,우럭,참돔",0
77,125.921555599998,34.646777780882,비금도·도초도,종달암 부근,펄,28~32,초들물~중들물,전라남도 신안군,"감성돔,농어,돌돔,볼락,붕장어,우럭,참돔",0
78,125.370749999991,34.6847500008788,흑산도·삼태도,"대장도, 소장도 부근","펄, 모래",30~45,조금 전·후,전라남도 신안군,"감성돔,넙치,농어,돌돔,붕장어,우럭,참돔",0
79,125.411277799992,34.7109722208796,흑산도·삼태도,대흑산도 호장도 부근,"펄, 모래",26.5~30,조금 전·후,전라남도 신안군,"감성돔,넙치,농어,돌돔,붕장어,우럭,참돔",0
80,125.444083299993,34.6181111108789,흑산도·삼태도,대흑산도 서산말 남동쪽 바다,"모래, 펄",25.5~40,조금 전·후,전라남도 신안군,"감성돔,넙치,농어,돌돔,붕장어,우럭,참돔",0
81,125.248222199988,34.3937500008737,흑산도·삼태도,삼태도 넓은여 부근,모래,35~50,조금 전·후,전라남도 신안군,"감성돔,넙치,농어,돌돔,붕장어,우럭,참돔",0
82,126.5414167,34.2171111108777,노화도·보길도·소안도,송도 부근,펄,6~8.5,사리 전·후,전라남도 완도군,"감성돔,돌돔,벵에돔,우럭,볼락,참돔",0
83,126.6577222,34.2179444408777,노화도·보길도·소안도,각씨여 부근,"펄, 조개껍질",38~42,사리 전·후,전라남도 완도군,"감성돔,돌돔,벵에돔,우럭,볼락,참돔",0
84,126.6601389,34.0982222208763,노화도·보길도·소안도,소안도 거망치각 앞바다,"펄, 조개껍질",40~42,사리 전·후,전라남도 완도군,"감성돔,돌돔,벵에돔,우럭,볼락,참돔",0
85,126.5830833,34.1270277808767,노화도·보길도·소안도,예작도 부근,"펄, 모래",9.1~12,사리 전·후,전라남도 완도군,"감성돔,돌돔,벵에돔,우럭,볼락,참돔",0
86,126.5038611,34.1105833308764,노화도·보길도·소안도,보길도 보죽각 앞바다,조개껍질,37~40,사리 전·후,전라남도 완도군,"감성돔,돌돔,벵에돔,우럭,볼락,참돔",0
87,126.4652778,34.162444440877,노화도·보길도·소안도,토금도 부근,"펄, 조개껍질",30~33,사리 전·후,전라남도 완도군,"감성돔,돌돔,벵에돔,우럭,볼락,참돔",0
88,126.7825278,34.2748611108785,신지도,완도 대구두 앞바다,"모래, 조개껍질",24.5~26,사리 전·후,전라남도 완도군,"감성돔,돌돔,볼락,붕장어,우럭,참돔,학공치",0
89,126.8490278,34.2950833308787,신지도,신지도 최남단 앞바다,"펄, 조개껍질",13.5~18,사리 전·후,전라남도 완도군,"감성돔,돌돔,볼락,붕장어,우럭,참돔,학공치",0
90,126.89825,34.3044444408788,신지도,제도 부근,펄,11~15,사리 전·후,전라남도 완도군,"감성돔,돌돔,볼락,붕장어,우럭,참돔,학공치",0
91,126.9143611,34.2893333308786,신지도,모황도 부근,"펄, 조개껍질",25.5~33,사리 전·후,전라남도 완도군,"감성돔,돌돔,볼락,붕장어,우럭,참돔,학공치",0
92,126.7284722,34.1843611108774,청산도·대모도,대모도 마도말 앞바다,펄,31~35,4물~사리,전라남도 완도군,"감성돔,농어,노래미,우럭,볼락,참돔",0
93,126.8381389,34.2058888908776,청산도·대모도,장도 부근,"조개껍질, 펄",19~20,4물~사리,전라남도 완도군,"감성돔,농어,돌돔,볼락,우럭,참돔",0
94,126.9550833,34.1842500008773,청산도·대모도,항도 서측 바다,"펄, 모래",24~27,4물~사리,전라남도 완도군,"감성돔,농어,돌돔,볼락,우럭,참돔",0
95,126.7651667,34.1492777808769,청산도·대모도,불근도 부근,펄,24~30,4물~사리,전라남도 완도군,"감성돔,농어,노래미,우럭,볼락,참돔",0
96,127.0956111,34.4596388908806,거금도,연흥도 부근,펄,5~8,날물,전라남도 고흥군,"감성돔,농어,도다리,돌돔,붕장어,숭어,우럭",0
97,127.2398611,34.5020277808811,거금도,감등서 부근,펄,18~23,초들물,전라남도 고흥군,"감성돔,농어,도다리,돌돔,붕장어,숭어,우럭",0
98,127.2193611,34.4258888908803,거금도,소독도 부근,펄,13~16,초들물,전라남도 고흥군,"감성돔,농어,도다리,돌돔,붕장어,숭어,우럭",0
99,127.1208611,34.4253055608802,거금도,형제도 부근,펄,7~11,날물,전라남도 고흥군,"감성돔,농어,도다리,돌돔,붕장어,숭어,우럭",0
100,127.3091944,34.072166670876,여서도·거문도,거문도 반여 부근,"침니, 모래",35~50,"들물, 날물 전·후",전라남도 완도군,"감성돔,돌돔,농어,벵에돔,볼락,참돔",0
101,127.3411389,34.0304166708754,여서도·거문도,거문도 오지여 앞바다,"자갈, 조개껍질",31~48,"들물, 날물 전·후",전라남도 완도군,"감성돔,돌돔,농어,벵에돔,볼락,참돔",0
102,127.3186944,34.0013055608752,여서도·거문도,거문도 배치바위 앞바다,"펄, 모래, 자갈",65~70,"들물, 날물 전·후",전라남도 완도군,"감성돔,돌돔,농어,벵에돔,볼락,참돔",0
103,127.2790556,34.0185277808754,여서도·거문도,만수용단 앞바다,펄,58~63,"들물, 날물 전·후",전라남도 완도군,"감성돔,돌돔,농어,벵에돔,볼락,참돔",0
104,127.5345278,34.5276388908814,나로도,보돌서 부근,펄,11~15,간조~초들물,전라남도 고흥군,"감성돔,농어,도다리,볼락,숭어,학공치",0
105,127.5189167,34.4920555608811,나로도,내나로도 등대 앞바다,펄,7~10,초들물~만조,전라남도 고흥군,"감성돔,농어,도다리,볼락,숭어,학공치",0
106,127.492,34.40475000088,나로도,외나로도 노랑바위 앞바다,펄,24~28,간조~초들물,전라남도 고흥군,"감성돔,농어,도다리,볼락,숭어,학공치",0
107,127.4345278,34.4928611108811,나로도,숨은여 부근,모래,5~7,초들물~만조,전라남도 고흥군,"감성돔,농어,도다리,볼락,숭어,학공치",0
108,127.6919167,34.5498888908817,금오도·안도,용두 앞바다,펄,30~45,조금 전·후,전라남도 여수시,"감성돔,돌돔,벵에돔,볼락,우럭,참돔,학공치",0
109,127.77125,34.5519444408817,금오도·안도,문서 부근,"펄, 모래",25~30,조금 전·후,전라남도 여수시,"감성돔,돌돔,벵에돔,볼락,우럭,참돔,학공치",0
110,127.80325,34.5270555608814,금오도·안도,배다서 부근,펄,27~32,조금 전·후,전라남도 여수시,"감성돔,돌돔,벵에돔,볼락,우럭,참돔,학공치",0
111,127.7662778,34.4750000008808,금오도·안도,구몽암 부근,펄,30~35,조금 전·후,전라남도 여수시,"감성돔,돌돔,벵에돔,볼락,우럭,참돔,학공치",0
112,128.1632778,34.839444440885,사량도,농개도 부근,"펄, 모래",24~29,조금 전·후,경상남도 통영시,"감성돔,농어,벵에돔,우럭,볼락,참돔",0
113,128.1732778,34.8244166708849,사량도,죽도 부근,"펄, 모래",25~29,조금 전·후,경상남도 통영시,"감성돔,농어,벵에돔,우럭,볼락,참돔",0
114,128.2603889,34.8063333308847,사량도,화도 부근,펄,15~18,조금 전·후,경상남도 통영시,"감성돔,농어,벵에돔,우럭,볼락,참돔",0
115,128.2218611,34.7704444408842,사량도,남무도 부근,"펄, 모래, 조개껍질",27~30,조금 전·후,경상남도 통영시,"감성돔,농어,벵에돔,우럭,볼락,참돔",0
116,128.25275,34.658833330883,욕지도,모도 부근,"펄, 모래, 조개껍질",37~46,5 물~11물,경상남도 통영시,"감성돔,농어,무늬오징어,볼락,벵에돔,참돔",0
117,128.2987222,34.6270277808825,욕지도,초도 부근,"펄, 조개껍질",18~20,5 물~11물,경상남도 통영시,"감성돔,농어,무늬오징어,볼락,벵에돔,참돔",0
118,128.2756667,34.6123333308824,욕지도,가동서 부근,펄,27~31,5 물~11물,경상남도 통영시,"감성돔,농어,무늬오징어,볼락,벵에돔,참돔",0
119,128.2594167,34.6101388908824,욕지도,흑초 부근,펄,36~40,5 물~11물,경상남도 통영시,"감성돔,농어,무늬오징어,볼락,벵에돔,참돔",0
120,128.3169278,34.839722220885,미륵도,태도 부근,펄,12~17,조금 전·후,경상남도 통영시,"감성돔,농어,벵에돔,우럭,볼락,참돔",0
121,128.3630833,34.7873611108845,미륵도,곤리도 부근,펄,14~16,조금 전·후,경상남도 통영시,"감성돔,농어,벵에돔,우럭,볼락,참돔",0
122,128.3654722,34.7657222208842,미륵도,가마도 부근,펄,40~48,조금 전·후,경상남도 통영시,"감성돔,농어,벵에돔,우럭,볼락,참돔",0
123,128.4196944,34.7582500008841,미륵도,학림도 부근,펄,23~30,조금 전·후,경상남도 통영시,"감성돔,농어,벵에돔,우럭,볼락,참돔",0
124,128.4555278,34.7208888908836,비진도·매물도,비진도 춘복도 부근,"펄, 모래",13~17,조금 전·후,경상남도 통영시,"감성돔,농어,노래미,우럭,볼락,참돔",0
125,128.4551389,34.7002777808834,비진도·매물도,비진도 소장서(노루여) 부근,펄,39~52,조금 전·후,경상남도 통영시,"감성돔,농어,돌돔,볼락,우럭,참돔",0
126,128.5451111,34.6454166708828,비진도·매물도,대매물도 가익도 부근,"펄, 모래, 조개껍질",43~47,조금 전·후,경상남도 통영시,"감성돔,돌돔,볼락,우럭,벵에돔,참돔",0
127,128.5969444,34.6127777808823,비진도·매물도,소매물도 등가도 부근,"펄, 모래",38~42,조금 전·후,경상남도 통영시,"감성돔,돌돔,볼락,우럭,벵에돔,참돔",0
128,128.4962778,34.9486388908862,거제도 북서부,만금여 부근,펄,16~19,조금 전·후,경상남도 거제시,"감성돔,고등어,돌돔,보리멸,살오징어,볼락,참돔",0
129,128.4820278,34.927361110886,거제도 북서부,수도 부근,펄,15~17,조금 전·후,경상남도 거제시,"감성돔,고등어,돌돔,보리멸,살오징어,볼락,참돔",0
130,128.4835278,34.9059444408858,거제도 북서부,지도 부근,펄,15~18,조금 전·후,경상남도 거제시,"감성돔,고등어,돌돔,보리멸,살오징어,볼락,참돔",0
131,128.4655556,34.8193055608848,거제도 북서부,화도 부근,펄,16~18,조금 전·후,경상남도 거제시,"감성돔,고등어,돌돔,보리멸,살오징어,볼락,참돔",0
132,128.724583300001,35.0412500008872,거제도 북동부,망와도 부근,펄,32~46,조금 전·후,경상남도 거제시,"감성돔,농어,벵에돔,우럭,볼락,참돔",0
133,128.734472200001,34.9730833308864,거제도 북동부,이수도 부근,펄,13~18,조금 전·후,경상남도 거제시,"감성돔,농어,벵에돔,우럭,볼락,참돔",0
134,128.762944400001,34.9054444408856,거제도 북동부,양지암취 앞바다,펄,23~27,조금 전·후,경상남도 거제시,"감성돔,농어,벵에돔,우럭,볼락,참돔",0
135,128.750805600001,34.8328888908848,거제도 북동부,지세포항 앞바다,찰흙,13~18,조금 전·후,경상남도 거제시,"감성돔,농어,벵에돔,우럭,볼락,참돔",0
136,128.5443056,34.6923055608833,거제도 남부,대덕도 부근,"펄, 모래",55~60,조금 전·후,경상남도 거제시,"감성돔,돌돔,벵에돔,우럭,볼락,참돔",0
137,128.6180278,34.6981111108833,거제도 남부,소병태도 부근,조개껍질,47~52,조금 전·후,경상남도 거제시,"감성돔,돌돔,벵에돔,우럭,볼락,참돔",0
138,128.6891111,34.7270555608837,거제도 남부,갈곶도 부근,"자갈, 조개껍질",38~55,조금 전·후,경상남도 거제시,"감성돔,돌돔,벵에돔,우럭,볼락,참돔",0
139,128.712,34.7751944408841,거제도 남부,외조라도 부근,"자갈, 조개껍질",33~40,조금 전·후,경상남도 거제시,"감성돔,돌돔,벵에돔,우럭,볼락,참돔",0
140,125.680388899996,37.6285833309104,연평도,구지둔턱,암,5.3~15.9,12물~4물,인천광역시 옹진군,"광어,우럭,숭어,간재미,농어,노래미",0
141,126.3785833,37.696000000913,석모도,외포리선착장 입표 부근 해상,"펄, 모래",10.0~20.0,초들물~중날물,인천광역시 강화군,"농어,숭어,우럭,망둥어",0
142,126.28225,37.7440277809134,석모도,서도부근 해상,암,2.9~7.5,초들물~중날물,인천광역시 강화군,"농어,숭어,우럭,망둥어",0
143,126.3233333,37.7121944409131,석모도,선모도 부근 해상,펄,-0.8~0.6,초들물~중날물,인천광역시 강화군,"농어,숭어,우럭,망둥어",0
144,126.3945833,37.5328333309117,시도,부도 부근 해상,"자갈, 모래",-3.0~1.7,초들물~중날물,인천광역시 옹진군,"숭어,노래미,붕장어,우럭,삼치,쭈꾸미",0
145,126.4778889,37.5116944409115,시도,노랑섬 서측 간출암 부근 해상,펄,-2.3~1.8,초들물~중날물,인천광역시 옹진군,"숭어,노래미,붕장어,우럭,삼치,쭈꾸미",0
146,126.3530833,37.458527780911,영종도·용유도,왕산해변 북서측 해상,"모래, 펄",6.0~9.9,조금 전후,인천광역시 중구,"숭어,우럭,노래미,삼치,붕장어",0
147,126.3547778,37.4759166709112,영종도·용유도,영종도 북측수문 북서측 해상,"모래, 펄",20.2~26,조금 전후,인천광역시 중구,"숭어,우럭,노래미,삼치,붕장어",0
148,126.4473611,37.3693888909103,무의도,소무의도 동측 해상,"펄, 모래",0.8~2.1,중들물~중날물,인천광역시 중구,"숭어,노래미,붕장어,우럭,삼치,쭈꾸미",0
149,126.4404167,37.3631944409102,무의도,해녀도 부근 해상,"펄, 모래",2.3~3.6,중들물~중날물,인천광역시 중구,"숭어,노래미,붕장어,우럭,삼치,쭈꾸미",0
150,126.3893611,37.3955277809105,무의도,실미도 남서측 해상,"펄, 모래",-1.0~1.0,중들물~중날물,인천광역시 중구,"숭어,삼치,쭈꾸미,노래미,붕장어",0
151,126.32675,36.5027500009023,안면도 북부,방포항 방파제 앞 해상,"모래, 펄",0.6~1.2,초들물~중날물,충청남도 태안군,"우럭,노래미,학꽁치,광어,숭어,도다리",0
152,126.4161389,36.5218055609026,안면도 북부,죽도 부근 해상,"모래, 펄",6.7~9.5,초들물~중날물,충청남도 태안군,"우럭,노래미,학꽁치,광어,숭어,도다리",0
153,126.3754722,36.5936666709032,안면도 북부,황도 연육교 부근 해상,"모래, 펄",-2.4~-1.4,초들물~중날물,충청남도 태안군,"우럭,노래미,학꽁치,광어,숭어,도다리",0
154,126.4536111,36.4134166709015,안면도 남부,목도 부근 해상,모래,10.4~12.8,중들물~중날물,인천광역시 옹진군,"우럭,노래미,학꽁치,광어,숭어,도다리",0
155,126.3123056,36.4522777809018,안면도 남부,외도 부근 해상,암,10.4~12.8,중들물~중날물,인천광역시 옹진군,"우럭,노래미,학꽁치,광어,숭어,도다리",0
156,126.084277799999,36.6754722209037,가의도,남측 곶부리 앞 해상,암,14.4~18.9,상관없음,충청남도 태안군,"우럭,노래미,고등어,광어,쭈꾸미,학꽁치",0
157,126.037777799999,36.667638890903504,가의도,단도 부근 해상,암,6.8~12.6,상관없음,충청남도 태안군,"우럭,노래미,고등어,광어,쭈꾸미,학꽁치",0
158,126.059555599999,36.6825000009037,가의도,선착장 서축 갯바위 앞 해상,"펄, 모래",19.8~21.1,상관없음,충청남도 태안군,"우럭,노래미,고등어,광어,쭈꾸미,학꽁치",0
159,126.073555599999,36.6834722209037,가의도,선착장 앞 입표 부근 해상,"펄, 모래",13.3~13.5,상관없음,충청남도 태안군,"우럭,노래미,고등어,광어,쭈꾸미,학꽁치",0
160,126.013166699999,35.32958333089,안마도·석만도,문 끝 앞바다,암,1.8~6.5,들물/날물,인천광역시 중구,"감성돔,붕장어,우럭,농어,노래미,민어",0
161,126.032361099999,35.33175000089,안마도·석만도,쌀썩은여 앞바다,펄,27.0~31.0,들물/날물,인천광역시 중구,"감성돔,붕장어,우럭,농어,노래미,민어",0
162,126.056444399999,35.3509722208903,안마도·석만도,감곽여 부근 해상,암,21.5~23.0,들물/날물,인천광역시 중구,"감성돔,붕장어,우럭,농어,노래미,민어",0
163,126.058388899999,35.3635277808904,안마도·석만도,똥 섬 부근 해상,펄,2.6~4.8,들물/날물,인천광역시 중구,"간재미,노래미,붕장어,우럭,민어,광어",0
164,126.057861099999,35.3710555608905,안마도·석만도,쎄지기 사이 해상,암,5.5~11.6,들물/날물,인천광역시 중구,"간재미,노래미,붕장어,우럭,민어,광어",0
165,126.018999999999,35.3654444408903,안마도·석만도,대장재여 부근 해상,"자갈, 조개껍질",10.5~18.2,들물/날물,인천광역시 중구,"감성돔,붕장어,우럭,농어,노래미,민어",0
166,126.009416699999,35.3599722208903,안마도·석만도,장재여 부근 해상,암,5.8~10.4,들물/날물,인천광역시 중구,"감성돔,붕장어,우럭,농어,노래미,민어",0
167,125.999166699999,35.3563888908902,안마도·석만도,죽도 부근 해상,암,8.4~10.3,들물/날물,인천광역시 중구,"감성돔,붕장어,우럭,농어,노래미,민어",0
168,125.994722199999,35.3577222208902,안마도·석만도,근여 부근 해상,암,20.0~25.0,들물/날물,인천광역시 중구,"감성돔,붕장어,우럭,농어,노래미,민어",0
169,126.156888899999,35.2869444408897,송이도,양골 앞 바다,암,1.5~1.7,들물/날물,전라남도 영광군,"감성돔,민어,숭어,농어,붕장어,우럭",0
170,126.136388899999,35.2952777808898,송이도,큰내기 앞 바다,암,2.0~2.9,들물/날물,전라남도 영광군,"감성돔,민어,숭어,농어,붕장어,우럭",0
171,126.140833299999,35.2667222208895,송이도,민머리 앞 바다,암,-0.4~0.4,들물/날물,전라남도 영광군,"감성돔,민어,숭어,농어,붕장어,우럭",0
172,126.2727222,34.9876666708866,고이도·매화도·선도·증도,선도선창부근 해상,펄,0~2.0,초들물~중날물,전라남도 신안군,"감성돔,노래미,광어,숭어,우럭,붕장어,도다리,농어",0
173,126.124999999999,34.9639722208861,고이도·매화도·선도·증도,면도부근 해상,펄,1.4~2.3,초들물~중날물,전라남도 신안군,"감성돔,노래미,광어,숭어,우럭,붕장어,도다리,농어",0
174,126.050666699999,34.8505833308847,자은도,원도 부근,암,10~16.3,초들물~중날,전라남도 신안군,"감성돔,숭어,농어",0
175,126.3437222,34.9114166708857,압해도,효지도 철탑아래 해상,펄,0.1~0.7,초들물~중날물,전라남도 신안군,"감성돔,노래미,농어,볼락,붕장어,우럭",0
176,126.3378333,34.9127500008858,압해도,대교 밑 해상,펄,2.1~5.0,초들물~중날물,전라남도 신안군,"감성돔,노래미,농어,볼락,붕장어,우럭",0
177,126.3318889,34.9128888908858,압해도,대교동측 해상,펄,2.1~4.3,초들물~중날물,전라남도 신안군,"감성돔,노래미,농어,볼락,붕장어,우럭",0
178,126.3705556,34.8206944408847,압해도,압해도 선착장 앞 해상,펄,12.9~19.6,초들물~중날물,전라남도 신안군,"감성돔,노래미,농어,볼락,붕장어,우럭",0
179,126.164833299999,34.6791111108829,장산도,신도 부근,암,0.3~4.9,조금전후,전라남도 신안군,"감성돔,붕장어,농어",0
180,126.042111099999,34.2253888908774,상조도·하조도·관매도,고치서 북서측 간출암 부근 해상,펄,3.4~5.2,초들물~중날물,인천광역시 옹진군,"감성돔,참돔,노래미,돌돔,도다리,우럭",0
181,126.036666699999,34.2190000008774,상조도·하조도·관매도,고치서 입표 부근 해상,"자갈, 조개껍질",18.5~20.8,초들물~중날물,인천광역시 옹진군,"감성돔,참돔,노래미,돌돔,도다리,우럭",0
182,125.098555599982,34.1051666708676,가거도,두억서 부근 해상,암,11.2~17.9,초들물~중날물,전라남도 신안군,"감성돔,노래미,참돔,농어,볼락,우럭,돌돔,부시리",0
183,125.093749999982,34.0978888908674,가거도,"오동여, 검등여 사이 부근 해상",암,10.5~12.3,초들물~중날물,전라남도 신안군,"감성돔,노래미,참돔,농어,볼락,우럭,돌돔,부시리",0
184,126.7291944,34.3886388908798,완도,납당여 부근 해상,펄,3.0~6.0,초들물~중날물,전라남도 완도군,"숭어,우럭,농어,감성돔,참돔,붕장어",0
185,126.7456667,34.3702777808796,완도,대야리 앞 해상,펄,10.9~18.2,초들물~중날물,전라남도 완도군,"숭어,우럭,농어,감성돔,참돔,붕장어",0
186,126.7431111,34.3580555608794,완도,장도 앞 해상,암,9.8~10.2,초들물~중날물,전라남도 완도군,"숭어,우럭,농어,감성돔,참돔,붕장어",0
187,127.0409722,34.4319444408803,금당도,서방여부근,암,5.4~13.6,초들물~중날물,전라남도 완도군,"감성돔,볼락,노래미,농어,도다리,학꽁치",0
188,127.0174444,34.3202777808789,금일도·생일도,낭도 부근,암,1.8~2.5,초들물~중날물,전라남도 완도군,"감성돔,숭어,우럭,노래미,농어,학꽁치,볼락",0
189,127.2147222,34.2140833308777,초 도,외항도 내항도 사이,펄,29.5~37,초들물~중날물,전라남도 여수시,"참돔,뱅어돔,볼락,감성돔,돌돔,농어",0
190,127.7304444,34.6075833308823,돌산도,예교마을 앞 입표 부근 해상,펄,8.7~12.8,초들물~중날물,전라남도 여수시,"참돔,농어,노래미,볼락,우럭,붕장어",0
191,127.73375,34.5990277808823,돌산도,신기마을 앞 노란색 부표 부근,펄,7.9~22,초들물~중날물,전라남도 여수시,"참돔,농어,노래미,볼락,우럭,붕장어",0
192,127.7501111,34.5821388908821,돌산도,화태도 대횡간도사이 입표 부근,펄,-0.9~14,초들물~중날물,전라남도 여수시,"참돔,농어,노래미,볼락,우럭,붕장어",0
193,127.7563333,34.5911111108822,돌산도,작금마을 동측 입표 부근,펄,4.9~7.5,초들물~중날물,전라남도 여수시,"참돔,농어,노래미,볼락,우럭,붕장어",0
194,127.7523333,34.6081666708824,돌산도,밤섬 남측 해상,펄,4.5~10.7,초들물~중날물,전라남도 여수시,"참돔,농어,노래미,볼락,우럭,붕장어",0
195,126.3547778,37.4759166709112,돌산도,백포 간출여 주변 해상,펄,9.7~10.5,초들물~중날물,전라남도 여수시,"참돔,농어,노래미,볼락,우럭,붕장어",0
196,127.7926111,34.6868888908833,돌산도,죽도 부근 해상,펄,4.5~10.7,초들물~중날물,전라남도 여수시,"참돔,농어,노래미,볼락,우럭,붕장어",0
197,127.7859444,34.6948333308834,돌산도,내치도 부근 해상,펄,0.7~4.7,초들물~중날물,전라남도 여수시,"참돔,농어,노래미,볼락,우럭,붕장어",0
198,127.8583889,34.9393055608862,남해도 북부,와도부근 해상,"펄, 조개껍질",3.3~8.5,초들물~중날,경상남도 남해군,"참돔,농어,노래미,볼락,우럭",0
199,127.8555,34.933305560886,남해도 북부,차면리 방파제 북측 입표 부근,"펄, 조개껍질",3.3~8.5,초들물~중날,경상남도 남해군,"참돔,농어,노래미,볼락,우럭",0
200,127.8267778,34.9042777808858,남해도 북부,난초섬 부근,암,3.3~8.5,초들물~중날,경상남도 남해군,"참돔,농어,노래미,볼락,우럭",0
201,127.7994444,34.8423333308851,남해도 북부,남상리 앞바다,암,21.7~22.4,초들물~중날,경상남도 남해군,"참돔,농어,노래미,볼락,우럭",0
202,127.8026389,34.8236111108849,남해도 북부,작장리 앞바다,암,13.4~17.5,초들물~중날,경상남도 남해군,"참돔,농어,노래미,볼락,우럭",0
203,127.8115278,34.8091944408847,남해도 북부,서상리 앞바다,암,13.0~17.6,초들물~중날,경상남도 남해군,"참돔,농어,노래미,볼락,우럭",0
204,127.8971944,34.9508611108863,남해도 북부,노량수도,"펄, 모래",17.5~23.2,초들물~중날,경상남도 남해군,"참돔,농어,노래미,볼락,우럭",0
205,127.9158333,34.9456666708863,남해도 북부,왕지마을 앞바다,"펄, 모래",1.2~10.9,초들물~중날,경상남도 남해군,"참돔,농어,노래미,볼락,우럭",0
206,127.93775,34.920750000886,남해도 북부,상돈도 장도 사이 해상,"펄, 조개껍질",2.3~3.7,초들물~중날,경상남도 남해군,"참돔,농어,노래미,볼락,우럭",0
207,128.01075,34.834111110885,남해도 동부·신수도·창선도,지족리 앞바다,암,0.4~1.5,초들물~중날물,경상남도 남해군,"참돔,농어,노래미,볼락,우럭",0
208,128.0158333,34.9243333308861,남해도 동부·신수도·창선도,후박 방파제 앞 해상,"펄, 모래",6.4~11.7,초들물~중날물,경상남도 남해군,"참돔,농어,노래미,볼락,우럭",0
209,127.9973056,34.9158055608859,남해도 동부·신수도·창선도,벽재마을 앞 입표부근 해상,암,3.5~16.4,초들물~중날물,경상남도 남해군,"참돔,농어,노래미,볼락,우럭",0
210,128.0229444,34.835388890885,남해도 동부·신수도·창선도,증초 부근 해상,암,0.2~3.1,초들물~중날물,경상남도 남해군,"참돔,농어,노래미,볼락,우럭",0
211,128.0678333,34.8604444408853,남해도 동부·신수도·창선도,적량마을 앞 해상,암,3.5~16.4,초들물~중날물,경상남도 남해군,"볼락,고등어,벵에돔,볼락,고등어,벵에돔",0
212,128.0496667,34.9080277808858,남해도 동부·신수도·창선도,송도 부근 해상,암,5.2~14.5,초들물~중날물,경상남도 남해군,"참돔,농어,노래미,볼락,우럭",0
213,127.85975,34.7162500008836,남해도 남부,항도 앞바다,암,22.6~27.3,초들물~중날물,경상남도 남해군,"참돔,농어,노래미,볼락,우럭",0
214,127.9035556,34.7171388908836,남해도 남부,가천마을 앞바다,암,21.9~24.0,초들물~중날물,경상남도 남해군,"참돔,농어,노래미,볼락,우럭",0
215,128.0426944,34.6938611108834,남해도 남부,조도부근 해상,"모래, 조개껍질",22.6~24.3,초들물~중날물,경상남도 남해군,"참돔,농어,노래미,볼락,우럭",0
216,125.680388899996,37.6285833309104,두미도,청석골,펄,5.0~16.1,상관없음,경상남도 통영시,"감성돔,벵에돔,노래미,참돔,농어,볼락",0
217,128.2040556,34.6946666708834,두미도,남구마을 남측 해상,펄,5.4~10.0,상관없음,경상남도 통영시,"감성돔,벵에돔,노래미,참돔,농어,볼락",0
218,128.1843056,34.7111388908835,두미도,북구마을 앞 해상,펄,60,상관없음,경상남도 통영시,"감성돔,벵에돔,노래미,참돔,농어,볼락",0
219,128.1778611,34.7121388908835,두미도,고운마을 앞 해상,펄,60,상관없음,경상남도 통영시,"감성돔,벵에돔,노래미,참돔,농어,볼락",0
220,128.6355833,35.0188333308869,칠천도·가조도,수야방도 서측 해상,펄,7.0~10.2,초들물~중날물,경상남도 거제시,"감성돔,노래미,갑오징어,도다리,볼락",0
221,128.6279722,34.9735000008865,칠천도·가조도,슬응도 부근 해상,"펄, 조개껍질",11.6~13.8,초들물~중날물,경상남도 거제시,"감성돔,노래미,갑오징어,도다리,볼락",0
222,128.6442222,34.9756111108865,칠천도·가조도,장안서 부근 해상,"펄, 조개껍질",2.7~13.9,초들물~중날물,경상남도 거제시,"감성돔,노래미,갑오징어,도다리,볼락",0
223,128.6238056,35.0058333308868,칠천도·가조도,황덕도 부근 해상,펄,6.0~13,초들물~중날물,경상남도 거제시,"감성돔,노래미,갑오징어,도다리,볼락",0
224,128.5011944,34.9597222208863,칠천도·가조도,돌끝여 부근 해상,펄,15.4~18.4,초들물~중날물,경상남도 거제시,"감성돔,노래미,갑오징어,도다리,볼락",0
225,128.5060556,34.9680000008865,칠천도·가조도,마당서 부근 해상,펄,15.3~16.7,초들물~중날물,경상남도 거제시,"감성돔,노래미,갑오징어,도다리,볼락",0
226,128.5048889,34.9502222208862,칠천도·가조도,만금여 부근 해상,펄,12.6~15.3,초들물~중날물,경상남도 거제시,"감성돔,노래미,갑오징어,도다리,볼락",0
227,128.4909722,34.7303888908838,한산도·용초도,용머리 부근 해상,모래,20.0~22.0,초들물~중날물,부산광역시 강서구,"참돔,볼락,노래미,감성돔,도다리",0
228,128.5009722,34.7329444408838,한산도·용초도,호두마을 남측 해상,"펄, 모래",15.0~16.8,초들물~중날물,부산광역시 강서구,"참돔,볼락,노래미,감성돔,도다리",0
229,128.5189167,34.7294722208837,한산도·용초도,죽도부근 해상,"펄, 모래",10.0~15.1,초들물~중날물,부산광역시 강서구,"참돔,볼락,노래미,감성돔,도다리",0
230,128.4959444,34.7596944408841,한산도·용초도,의암마을 앞바다,"펄, 조개껍질",8.3~10.0,초들물~중날물,부산광역시 강서구,"볼락,고등어,벵에돔,볼락,고등어,벵에돔",0
231,128.843027800001,35.0211388908868,가덕도,대항새바지에서 누릉여 사이 해상,암,10.0~11.6,5물~9물,부산광역시 강서구,"볼락,고등어,벵에돔,볼락,학꽁치,감성돔",0
232,128.852861100001,35.0501111108871,가덕도,동선새바지에서 기도원 사이 해상,암,5.0~6.6,5물~9물,부산광역시 강서구,"볼락,고등어,벵에돔,볼락,학꽁치,감성돔",0
233,129.091638900002,35.0380277808865,영도,생도 부근,암,4.1~4.9,상관없음,부산광역시 영도구,"감성돔,참돔,고등어,벵에돔,전갱이,학꽁치",0
234,130.854111100117,37.5429722208281,울릉도,코끼리 바위 부근 해상,암,14.2~22.5,들물~초썰물,경상북도 울릉군,"벵에돔,참돔",0
235,130.846472200116,37.456722220829,울릉도,남양항 부근 해상,암,14.2~22.5,들물~초썰물,경상북도 울릉군,"참돔,부시리,벵에돔",0
236,126.2955556,33.9485833308743,추자도,상추자도 남측 입표 부근,암,18.2~23.0,들물/썰물,제주특별자치도 제주시,"감성돔,돌돔,자리돔,농어,볼락,참돔",0
237,126.3140278,33.9379166708742,추자도,섬도 남측 해상,암,14.2~18.7,들물/썰물,제주특별자치도 제주시,"감성돔,돌돔,자리돔,농어,볼락,참돔",0
238,126.2863056,33.9692500008746,추자도,다무레미 북측 해상,암,12.8~16.2,들물/썰물,제주특별자치도 제주시,"감성돔,돌돔,자리돔,농어,볼락,참돔",0
239,126.2845833,33.9626388908745,추자도,다무레미 남측 해상,암,9.3~19.6,들물/썰물,제주특별자치도 제주시,"감성돔,돌돔,자리돔,농어,볼락,참돔",0
240,126.6651944,33.5526111108695,제주도 북부,함덕 서우봉해변 앞 해상,암,6.8~10.0,들물/썰물,제주특별자치도 제주시,"참돔,돌돔,한치,벵에돔,노래미",0
241,126.7017222,33.5601111108695,제주도 북부,달서 등대부근 해상,"펄, 모래",5.5~8.0,들물/썰물,제주특별자치도 제주시,"참돔,돌돔,한치,벵에돔,노래미",0
242,126.7751389,33.5766388908698,제주도 북동부·우도,김녕리 앞 해상,암,15.4~20.5,들물/날물,제주특별자치도 제주시,"참돔,돌돔,볼락,벵에돔,무늬오징어,독가시치",0
243,126.9330833,33.5243055608692,제주도 북동부·우도,반다여 부근,암,7.7~10.0,들물/날물,제주특별자치도 제주시,"참돔,돌돔,볼락,벵에돔,무늬오징어,독가시치",0
244,126.9219167,33.5081666708689,제주도 북동부·우도,종달리 포구 앞 해상,암,11.7~16.9,들물/날물,제주특별자치도 제주시,"참돔,돌돔,볼락,벵에돔,무늬오징어,독가시치",0
245,126.9413056,33.4854722208686,제주도 북동부·우도,천진항 앞 해상,암,12.0~12.4,들물/날물,제주특별자치도 제주시,"참돔,돌돔,볼락,벵에돔,무늬오징어,독가시치",0
246,126.9345833,33.5013055608688,제주도 북동부·우도,산호샤홍조단괴해수욕장 앞 해상,암,7.9~13.3,들물/날물,제주특별자치도 제주시,"참돔,돌돔,볼락,벵에돔,무늬오징어,독가시치",0
247,126.9471667,33.5298611108692,제주도 북동부·우도,독진곶 앞 해상,암,27.0~44.9,들물/날물,제주특별자치도 제주시,"참돔,돌돔,볼락,벵에돔,무늬오징어,독가시치",0
248,126.9704167,33.5235833308691,제주도 북동부·우도,비양도 북측해상,암,22.0~30.0,들물/날물,제주특별자치도 제주시,"참돔,돌돔,볼락,벵에돔,무늬오징어,독가시치",0
249,126.9521389,33.4558055608682,제주도 동부,성산일출봉 앞 해상,고운모래,22.0~48.0,들물/날물,제주특별자치도 서귀포시,"참돔,돌돔,볼락,벵에돔,무늬오징어,독가시치",0
250,126.9178889,33.3954722208674,제주도 동부,온평리 앞 해상,조개껍질,10.3~18.0,들물/날물,제주특별자치도 서귀포시,"참돔,돌돔,볼락,벵에돔,무늬오징어,독가시치",0
251,126.7402222,33.2666111108657,제주도 남동부,태흥리포구 앞 해상,고운모래,21.7~28.5,들물/날물,제주특별자치도 서귀포시,"참돔,돌돔,다금바리,벵에돔,부시리",0
252,126.7239722,33.2709444408658,제주도 남동부,비안포구 앞 해상,암,3.7~10.0,들물/날물,제주특별자치도 서귀포시,"참돔,돌돔,다금바리,벵에돔,부시리",0
253,126.5155556,33.2238611108652,제주도 남부,호도(범섬)부근 해상,암,32.0~38.0,초들물~중날물,제주특별자치도 서귀포시,"벵에돔,한치,노래미,독가시치,부시리,우럭",0
254,126.49375,33.2223888908652,제주도 남부,강정포구 앞 노란부표 부근,암,14.6~18.0,초들물~중날물,제주특별자치도 서귀포시,"벵에돔,한치,노래미,독가시치,부시리,우럭",0
255,126.4755,33.2195000008651,제주도 남부,강정포구 앞 입표 부근,암,14.6~18.0,초들물~중날물,제주특별자치도 서귀포시,"벵에돔,한치,노래미,독가시치,부시리,우럭",0
256,126.28675,33.1743333308645,제주도 남서부·가파도·마라도,광포란 부근 해상,암,12.2~18.9,들물/썰물,제주특별자치도 서귀포시,"벵에돔,농어,자리돔,볼락,한치,참돔,부시리",0
257,126.3099722,33.2126666708649,제주도 남서부·가파도·마라도,형제도 부근 해상,암,4.2~9.5,들물/썰물,제주특별자치도 서귀포시,"벵에돔,농어,자리돔,볼락,한치,참돔,부시리",0
258,125.195626899986,34.6728819408759,홍도,방구서 부근,암,3.5~4.7,조금 전후,전라남도 신안군,"참돔,돌돔,감성돔,우럭,농어",0
259,125.178607199985,34.6655188908756,홍도,제비여 부근,암,17.5~19,조금 전후,전라남도 신안군,"참돔,돌돔,감성돔,우럭,농어",0
260,125.175867799985,34.6727213908756,홍도,상연서 부근,암,23.5~33,조금 전후,전라남도 신안군,"참돔,돌돔,감성돔,우럭,농어",0
261,125.189509999985,34.6950538908761,홍도,거북바위 인근,암,28~31,조금 전후,전라남도 신안군,"참돔,돌돔,감성돔,우럭,농어",0
262,125.186465599985,34.7159608308763,홍도,장도 부근,암,23~27,조금 전후,전라남도 신안군,"참돔,돌돔,감성돔,우럭,농어",0
263,125.192998299986,34.7238825008765,홍도,모도 부근,암,4.1~7.2,조금 전후,전라남도 신안군,"참돔,돌돔,감성돔,우럭,농어",0
264,125.215330799986,34.6964463908766,홍도,공작새바위 인근,암,26~31,조금 전후,전라남도 신안군,"참돔,돌돔,감성돔,우럭,농어",0
265,125.209047499986,34.6825072208763,홍도,흥어굴 인근,"펄,모래,조개껍질",5.5~9.4,조금 전후,전라남도 신안군,"참돔,돌돔,감성돔,우럭,농어",0
266,125.476000299993,34.2218638908747,만재도,백서 남측 선상,암,37~44,조금 전후,전라남도 신안군,"돌돔,참돔,감성돔,우럭,광어,농어,볼락,문어",0
267,125.486368599993,34.2133605608747,만재도,만재도 북동측 선상,암,28~37,조금 전후,전라남도 신안군,"돌돔,참돔,감성돔,우럭,광어,농어,볼락,문어",0
268,125.490068599993,34.2108502808746,만재도,국도 북측 선상,암,25~28,조금 전후,전라남도 신안군,"돌돔,참돔,감성돔,우럭,광어,농어,볼락,문어",0
269,125.485442199993,34.2050075008745,만재도,만재도 동측 선상,암,12~20,조금 전후,전라남도 신안군,"돌돔,참돔,감성돔,우럭,광어,농어,볼락,문어",0
270,125.475507199993,34.2031130608744,만재도,만재도 남측 선상,암,20.5~22,조금 전후,전라남도 신안군,"돌돔,참돔,감성돔,우럭,광어,농어,볼락,문어",0
271,125.462607199993,34.2100311108744,만재도,외마도 남측 선상,암,20.5~27,조금 전후,전라남도 신안군,"돌돔,참돔,감성돔,우럭,광어,농어,볼락,문어",0
272,125.464827799993,34.2133083308745,만재도,만재도 서측 선상,암,10.5~14,조금 전후,전라남도 신안군,"돌돔,참돔,감성돔,우럭,광어,농어,볼락,문어",0
273,125.943567199998,34.2462650008775,거차수도 부근,동거차 선착장 해상,암,12.6~19.5,1물~4물,전라남도 진도군,"참돔,감성돔,돌돔,우럭,농어,부시리",0
274,125.930263099998,34.2271433308772,거차수도 부근,동거차 해수욕장 해상,암,23~24.5,1물~4물,전라남도 진도군,"참돔,감성돔,돌돔,우럭,농어,부시리",0
275,125.865638299998,34.2151083308769,거차수도 부근,명도 부근 해상,암,23.5~28.5,1물~4물,전라남도 진도군,"참돔,감성돔,돌돔,우럭,농어,부시리",0
276,125.841621399998,34.2158991708768,거차수도 부근,새여 부근 해상,암,21.5~29.5,1물~4물,전라남도 진도군,"참돔,감성돔,돌돔,우럭,농어,부시리",0
277,126.094722799999,34.266468330878,독거군도 부근,죽항 송도 해상,"자갈, 조개껍질",13.4~17.7,1물~4물,전라남도 진도군,"참돔,감성돔,돌돔,광어,농어",0
278,126.140678599999,34.2677191708781,독거군도 부근,슬도 북쪽 해상,암,23~28.5,1물~4물,전라남도 진도군,"참돔,감성돔,돌돔,광어,농어",0
279,126.151854999999,34.2565355608779,독거군도 부근,소슬도 해상,암,22.5~23,1물~4물,전라남도 진도군,"참돔,감성돔,돌돔,광어,농어",0
280,126.189035599999,34.250671670878,독거군도 부근,독거 동쪽 선창 해상,펄,27~29,1물~4물,전라남도 진도군,"참돔,감성돔,돌돔,광어,농어",0
281,126.168934399999,34.2651622208781,독거군도 부근,구도 해상,암,26~27,1물~4물,전라남도 진도군,"참돔,감성돔,돌돔,광어,농어",0
282,126.155936699999,34.2276108308776,독거군도 부근,초도앞 해상,암,14.9~17.5,1물~4물,전라남도 진도군,"참돔,감성돔,돌돔,광어,농어",0
283,126.168743899999,34.2286216708777,독거군도 부근,간암여 해상,암,23.5~29,1물~4물,전라남도 진도군,"참돔,감성돔,돌돔,광어,농어",0
284,126.172560599999,34.2251627808776,독거군도 부근,제주섬 해상,암,27.5~29,1물~4물,전라남도 진도군,"참돔,감성돔,돌돔,광어,농어",0
285,126.3305025,34.0171527808752,추자군도,횡간도 북측 해상,암,40~46,"조금 전후, 1~4물",제주특별자치도 제주시,"감성돔,벵에돔,참돔,돌돔,볼락,부시리",0
286,126.3545483,34.0079413908751,추자군도,곽도 앞 해상,암,7.6~16.1,"조금 전후, 1~4물",제주특별자치도 제주시,"감성돔,벵에돔,참돔,돌돔,볼락,부시리",0
287,126.3629803,33.999255830875,추자군도,가인서 앞 해상,암,25~29,"조금 전후, 1~4물",제주특별자치도 제주시,"감성돔,벵에돔,참돔,돌돔,볼락,부시리",0
288,126.340775,33.9868797208748,추자군도,흑검도 앞 해상,암,8~26,"조금 전후, 1~4물",제주특별자치도 제주시,"감성돔,벵에돔,참돔,돌돔,볼락,부시리",0
289,126.3409886,33.9681477808746,추자군도,하추자도 북측 해상,"암, 자갈",31~32,"조금 전후, 1~4물",제주특별자치도 제주시,"감성돔,벵에돔,참돔,돌돔,볼락,부시리",0
290,126.3614022,33.9543427808744,추자군도,하추자도 동측 해상,"모래, 조개껍질",29~32,"조금 전후, 1~4물",제주특별자치도 제주시,"감성돔,벵에돔,참돔,돌돔,볼락,부시리",0
291,126.3290642,33.9218822208741,추자군도,하추자도와 청도 사이,암,20.2~21,"조금 전후, 1~4물",제주특별자치도 제주시,"감성돔,벵에돔,참돔,돌돔,볼락,부시리",0
292,126.2991586,33.9434941708743,추자군도,묵리 마을 앞 해상,암,16~38,"조금 전후, 1~4물",제주특별자치도 제주시,"감성돔,벵에돔,참돔,돌돔,볼락,부시리",0
293,126.3103517,33.9584722208744,추자군도,추자교 앞 해상,"모래, 펄",12.1~14.6,"조금 전후, 1~4물",제주특별자치도 제주시,"감성돔,벵에돔,참돔,돌돔,볼락,부시리",0
294,126.3063825,33.9696952808746,추자군도,추자항 북측 해상,암,22.5~28,"조금 전후, 1~4물",제주특별자치도 제주시,"감성돔,벵에돔,참돔,돌돔,볼락,부시리",0
295,126.2880972,33.9703869408746,추자군도,대서리 인근 해상,암,28.5~29.5,"조금 전후, 1~4물",제주특별자치도 제주시,"감성돔,벵에돔,참돔,돌돔,볼락,부시리",0
296,126.2573533,33.9751522208746,추자군도,상추자도와 직구도 사이,"모래, 펄",43~45,"조금 전후, 1~4물",제주특별자치도 제주시,"감성돔,벵에돔,참돔,돌돔,볼락,부시리",0
297,127.5379303,34.6218091708825,낭도 부근,하과도 남측 해상,암,6.3~6.8,"5물~8물, 조금 전후",전라남도 고흥군,"감성돔,붕장어,농어,숭어",0
298,127.5539778,34.6222772208826,낭도 부근,홍도 남측 해상,"펄, 조개껍질",8.3~12.8,"5물~8물, 조금 전후",전라남도 고흥군,"감성돔,붕장어,농어,숭어",0
299,127.540795,34.5944255608823,낭도 부근,목도 해상,암,7.1~9.1,"5물~8물, 조금 전후",전라남도 고흥군,"감성돔,붕장어,농어,숭어",0
300,127.5576089,34.6005819408823,낭도 부근,추도 북측 해상,암,3~3.9,"5물~8물, 조금 전후",전라남도 고흥군,"감성돔,붕장어,농어,숭어",0
301,127.5935761,34.5952794408823,낭도 부근,상화도 서측 해상,암,8.5~29,"13물~5물, 조금 전후",전라남도 고흥군,"감성돔,붕장어,농어,숭어",0
302,127.6055097,34.5920427808822,낭도 부근,장구도 동측 해상,암,4.7~23,"13물~5물, 조금 전후",전라남도 고흥군,"감성돔,붕장어,농어,숭어",0
303,127.8561828,34.7293269408838,여수엑스포 부근,향촌마을 부근,암,19.5~28,조금,전라남도 여수시,"벵에돔,참돔,돌돔,감성돔,농어",0
304,127.7959981,34.6876108308834,여수엑스포 부근,죽도 인근 해상,펄,10.6~15.7,조금,전라남도 여수시,"벵에돔,참돔,돌돔,감성돔,농어",0
305,127.7049028,34.8947222208857,광양만 부근,여수대교 부근,암,9.7~13,5물~10물,전라남도 광양시,"붕장어,망둥어,숭어,감성돔,농어,노래미,볼락",0
306,127.7782353,34.9446325008863,광양만 부근,마도 부근,"펄,모래",0.4~2.0,5물~10물,전라남도 광양시,"붕장어,망둥어,숭어,감성돔,농어,노래미,볼락",0
307,127.0637508,34.1938086108775,황제도,알매섬 해상,암,22~30,"조금 전후, 2~3물",전라남도 완도군,"감성돔,참돔,돌돔,농어,광어,볼락",0
308,127.0891417,34.1899780608774,황제도,맞담 해상,"모래, 조개껍질",15.2~16,"조금 전후, 2~3물",전라남도 완도군,"감성돔,참돔,돌돔,농어,광어,볼락",0
309,127.1402044,34.2177438908777,황제도,흰여 해상,펄,17.2~28,"조금 전후, 2~3물",전라남도 완도군,"감성돔,참돔,돌돔,농어,광어,볼락",0
310,127.1412392,34.2034013908776,황제도,대마도 해상,암,23~27,"조금 전후, 2~3물",전라남도 완도군,"감성돔,참돔,돌돔,농어,광어,볼락",0
311,127.1523456,34.2024594408775,황제도,소마도 해상,암,22~26,"조금 전후, 2~3물",전라남도 완도군,"감성돔,참돔,돌돔,농어,광어,볼락",0
312,127.1906136,34.2145744408777,황제도,원도 해상,펄,28.5~41,"조금 전후, 2~3물",전라남도 완도군,"감성돔,참돔,돌돔,농어,광어,볼락",0
313,127.3568578,34.2910536108786,손죽열도 부근,손죽 방파제 해상,펄,2.8~6.3,"중들물~만조, 사리를 피한 물때",전라남도 여수시,"감성돔,참돔,돌돔,우럭,노래미,농어,숭어",0
314,127.3866897,34.2978061108787,손죽열도 부근,잔거리 동쪽 해상,암,15.3~20.6,"중들물~만조, 사리를 피한 물때",전라남도 여수시,"감성돔,참돔,돌돔,우럭,노래미,농어,숭어",0
315,127.397645,34.2997341708787,손죽열도 부근,소거문도 북쪽 해상,암,9.9~20.6,"중들물~만조, 사리를 피한 물때",전라남도 여수시,"감성돔,참돔,돌돔,우럭,노래미,농어,숭어",0
316,127.4063517,34.2825711108785,손죽열도 부근,소거문도 동쪽 해상,펄,19.5~20.3,"중들물~만조, 사리를 피한 물때",전라남도 여수시,"감성돔,참돔,돌돔,우럭,노래미,농어,숭어",0
317,127.4459978,34.2553127808782,간수제도,소평도 해상,펄,12.6~29.5,사리를 피한 조금 이후,전라남도 여수시,"감성돔,참돔,돌돔,우럭,노래미,농어,숭어",0
318,127.4663047,34.234356670878,간수제도,갈퀴섬 해상,"펄, 모래",14.8~29.5,사리를 피한 조금 이후,전라남도 여수시,"감성돔,참돔,돌돔,우럭,노래미,농어,숭어",0
319,127.5483258,34.2560130608782,간수제도,소두역서 해상,암,28~32,사리를 피한 조금 이후,전라남도 여수시,"감성돔,참돔,돌돔,우럭,노래미,농어,숭어",0
320,127.5336661,34.2492844408781,간수제도,대두역서 해상,펄,29~31,사리를 피한 조금 이후,전라남도 여수시,"감성돔,참돔,돌돔,우럭,노래미,농어,숭어",0
321,127.3828069,34.0612652808759,대삼부도,노루섬 인근 해상,암,14.8~16.8,10물~13물,전라남도 여수시,"벵에돔,참돔,돌돔,감성돔,농어,쏨벵이",0
322,127.3872136,34.0524122208757,대삼부도,무구여 인근 해상,암,13.8~19.6,10물~13물,전라남도 여수시,"벵에돔,참돔,돌돔,감성돔,농어,쏨벵이",0
323,127.8065253,34.4649044408807,연도,신강서 인근 해상,암,26~29.5,"초들물, 초날물, 조금 전·후",전라남도 여수시,"참돔,감성돔,볼락,농어,,돌돔,갑오징어",0
324,127.8085889,34.4297405608803,연도,동부앞 인근 해상,암,9.7~28,"초들물, 초날물, 조금 전·후",전라남도 여수시,"참돔,감성돔,볼락,농어,,돌돔,갑오징어",0
325,127.8069956,34.40797556088,연도,소룡단 인근 해상,암,34~47,"초들물, 초날물, 조금 전·후",전라남도 여수시,"참돔,감성돔,볼락,농어,,돌돔,갑오징어",0
326,127.7934903,34.4141155608801,연도,덕포앞 해상,암,0.7~3.1,"초들물, 초날물, 조금 전·후",전라남도 여수시,"참돔,감성돔,볼락,농어,,돌돔,갑오징어",0
327,127.7965222,34.4295938908803,연도,역포항 인근 해상,암,0.8~1.1,"초들물, 초날물, 조금 전·후",전라남도 여수시,"참돔,감성돔,볼락,농어,,돌돔,갑오징어",0
328,127.7925775,34.4411136108804,연도,땅포앞 인근 해상,암,9.7~23.5,"초들물, 초날물, 조금 전·후",전라남도 여수시,"참돔,감성돔,볼락,농어,,돌돔,갑오징어",0
329,128.0517994,34.9278119408861,진주만 부근,삼천포대교 밑,암,10.4~11.1,"13물-4물, 초들물",경상남도 고성군,"감성돔,노래미,볼락,농어,도다리,갑오징어",0
330,128.2849456,34.8883108308856,자란만 부근,두도 해상,암,7.5~7.6,조금 전후,경상남도 고성군,"갑오징어,감성돔,노래미,벵에돔,참돔,볼락,농어",0
331,128.3035167,34.746140000884,추도 부근,개바위 끝 부근,암,21~23.5,6물~8물,경상남도 통영시,"볼락,우럭,쭈꾸미,광어,감성돔,벵에돔,참돔",0
332,128.3003,34.7587000008841,추도 부근,대항승선장부근 해상,암,21~23.5,6물~8물,경상남도 통영시,"볼락,우럭,쭈꾸미,광어,감성돔,벵에돔,참돔",0
333,128.3053683,34.7580875008841,추도 부근,흰여 부근,암,4.0~13.5,6물~8물,경상남도 통영시,"볼락,우럭,쭈꾸미,광어,감성돔,벵에돔,참돔",0
334,128.3633197,34.6704427808831,연화도 부근,우서부근 해상,암,5.6~6.0,"초들물, 초날물, 5물~6물, 조금",경상남도 통영시,"참돔,감성돔,볼락,벵에돔,농어",0
335,128.3710639,34.6443391708828,연화도 부근,연화도 방파제 인근해상,암,12~18.3,"초들물, 초날물, 5물~6물, 조금",경상남도 통영시,"참돔,감성돔,볼락,벵에돔,농어",0
336,128.3489803,34.6525355608828,연화도 부근,연화항 부근 해상,암,9.7~18,"초들물, 초날물, 5물~6물, 조금",경상남도 통영시,"참돔,감성돔,볼락,벵에돔,농어",0
337,128.3505564,34.6527216708829,연화도 부근,연화항 부근 해상,암,4.4~9.7,"초들물, 초날물, 5물~6물, 조금",경상남도 통영시,"참돔,감성돔,볼락,벵에돔,농어",0
338,128.1826194,34.5729475008819,갈도 부근,갈도 북측,"모래, 조개껍질",11.6~11.8,"2물~8물, 사리전후",경상남도 통영시,"감성돔,돌돔,볼락,무늬오징어",0
339,128.1808831,34.5576616708818,갈도 부근,귀신여 우측 하단,암,14.5~15.9,"2물~8물, 사리전후",경상남도 통영시,"감성돔,돌돔,볼락,무늬오징어",0
340,128.468675,35.0775444408876,당항포 부근,동진교 해상,모래,7~15.8,조금전후,경상남도 고성군,"도다리,노래미,볼락,감성돔,갑오징어",0
341,128.4505306,35.0725750008876,당항포 부근,카페이안펜션 해상,"펄, 모래",13.7~17,조금전후,경상남도 고성군,"도다리,노래미,볼락,감성돔,갑오징어",0
342,128.973775800001,35.0332675008867,부산항 부근,몰운대 전망대 해상,펄,11.7~15,"조금전후, 1물~5물",부산광역시 영도구,"쥐노래미,고등어,벵에돔,숭어,감성돔,참돔,",0
343,129.138451900002,35.1512875008875,수영만 부근,광안대교 인근 해상,"펄,모래",8.2~9.7,6물~8물,부산광역시 남구,"도다리,붕장어,학꽁치,무늬오징어,망상어",0
344,129.170659200002,35.1512738908875,수영만 부근,앞산초 인근 해상,암,8.2~9.7,6물~8물,부산광역시 남구,"도다리,붕장어,학꽁치,무늬오징어,망상어",0
345,129.194562800003,35.1592691708875,수영만 부근,청사포항 인근 해상,암,8.2~9.7,6물~8물,부산광역시 남구,"도다리,붕장어,학꽁치,무늬오징어,망상어",0
346,124.727861099962,37.839000000887104,대청도·소청도,대청도 검은낭 갯바위,바위,3.1~3.4,사리 전후,인천광역시 옹진군,"넙치,노래미,농어,삼치,쏨뱅이,우럭",1
347,124.702388899959,37.8048888908854,대청도·소청도,대청도 독바위,모래,7.6~8,사리 전후,인천광역시 옹진군,"넙치,노래미,농어,삼치,쏨뱅이,우럭",1
348,124.694416699959,37.8065555608849,대청도·소청도,대청도 기름아가리(기름바다),모래,1.9~2.4,사리 전후,인천광역시 옹진군,"넙치,노래미,농어,삼치,쏨뱅이,우럭",1
349,124.682972199983,37.7986666671269,대청도·소청도,대청도 서풍받이 끝,바위,3.7~7,사리 전후,인천광역시 옹진군,"넙치,노래미,농어,삼치,쏨뱅이,우럭",1
350,124.679777799957,37.801722220884,대청도·소청도,대청도 서풍받이 서쪽 갯바위,"모래, 조개껍질",5.3~6,사리 전후,인천광역시 옹진군,"넙치,노래미,농어,삼치,쏨뱅이,우럭",1
351,124.677249999957,37.8135000008839,대청도·소청도,대청도 사탄동해변 갯바위,"모래, 조개껍질",1.7~2.2,사리 전후,인천광역시 옹진군,"넙치,노래미,농어,우럭",1
352,124.679722199957,37.8222500008841,대청도·소청도,대청도 지두리해변 갯바위,"모래, 조개껍질",1.4~2,사리 전후,인천광역시 옹진군,"넙치,노래미,농어,쏨뱅이,우럭",1
353,124.755388899963,37.7688055608882,대청도·소청도,소청도 예동항 동쪽 갯바위,"펄, 가는 모래",3.6~4.1,사리 전후,인천광역시 옹진군,"넙치,노래미,농어,삼치,쏨뱅이,우럭",1
354,124.748888899963,37.7690277808878,대청도·소청도,소청도 예동 갯바위,"펄, 가는 모래",2.8~3.4,사리 전후,인천광역시 옹진군,"넙치,노래미,농어,쏨뱅이,우럭",1
355,126.3086944,37.5601666709118,장봉도,채석장 북갯바위(가막머리),"자갈, 모래",3~3.5,"조금 전·후, 3물~5물",인천광역시 옹진군,"넙치,노래미,망둑어,숭어,붕장어,우럭",1
356,126.312555599727,37.5595555620762,장봉도,채석장 부근,모래,1.3~3.7,"조금 전·후, 3물~5물",인천광역시 옹진군,"넙치,노래미,망둑어,숭어,붕장어,우럭",1
357,126.321166699999,37.5456111109117,장봉도,진촌 서갯바위,"모래, 펄",1.2~1.6,"조금 전·후, 3물~5물",인천광역시 옹진군,"넙치,노래미,망둑어,숭어,우럭",1
358,126.292166699999,37.2689166709094,자월도,마바위,모래,1.2~1.9,"들물, 날물",인천광역시 옹진군,"넙치,우럭",1
359,126.3164444,37.262833330909295,자월도,입암두 부근 갯바위,모래,1.2~2.2,"들물, 날물",인천광역시 옹진군,"넙치,우럭",1
360,126.335277800596,37.2629722172226,자월도,떡바위,모래,1.3~2,"들물, 날물",인천광역시 옹진군,"넙치,우럭",1
361,126.3483056,37.259777780909296,자월도,굴뿌리,모래,1.4~2.1,"들물, 날물",인천광역시 옹진군,"넙치,우럭",1
362,126.330388899999,37.2458888909091,자월도,분모골,"조개껍질, 펄",1.3~3,들물,인천광역시 옹진군,"넙치,우럭",1
363,126.2898889,37.2555000009092,자월도,항도(목섬) 부근,모래,1.2~2,들물,인천광역시 옹진군,"노래미,우럭",1
364,126.278444399999,37.2633888909092,자월도,큰굴 부근,모래,1~4,"들물, 날물",인천광역시 옹진군,"넙치,우럭",1
365,126.102888900265,37.2646388930419,덕적도·소야도,덕적도 능동자갈마당 갯바위,모래,2~3,모래,인천광역시 옹진군,"넙치,노래미,농어,붕장어,우럭",1
366,126.110416699866,37.2618333279017,덕적도·소야도,덕적도 소재해변 갯바위,"펄, 모래",2.2~5,"펄, 모래",인천광역시 옹진군,"넙치,노래미,농어,붕장어,우럭",1
367,126.117611099999,37.257833330909,덕적도·소야도,덕적도 파락금이 갯바위,"펄, 모래",2.2~5,"펄, 모래",인천광역시 옹진군,"넙치,노래미,농어,붕장어,우럭",1
368,126.144694399999,37.2423611109089,덕적도·소야도,덕적도 목섬 부근,"펄, 모래",2~2.4,"펄, 모래",인천광역시 옹진군,"넙치,노래미,농어,붕장어,우럭",1
369,126.165361099999,37.2317222209089,덕적도·소야도,덕적도 정자바위,"펄, 모래",1.7~2,"펄, 모래",인천광역시 옹진군,"넙치,노래미,농어,붕장어,우럭",1
370,126.147777799999,37.2146388909087,덕적도·소야도,덕적도 밭지름해수욕장 갯바위,"펄, 모래",1.7~1.9,"모래, 펄",인천광역시 옹진군,"넙치,노래미,농어,붕장어,우럭",1
371,126.124138899999,37.2117500009087,덕적도·소야도,"덕적도 큰이마, 작은이마",가는 모래,1.2~1.6,가는 모래,인천광역시 옹진군,"넙치,노래미,농어,붕장어,우럭",1
372,126.1592222,37.2243333309088,덕적도·소야도,소야도 뒷장불,모래,1.2~1.5,모래,인천광역시 옹진군,"노래미,농어,붕장어,숭어,우럭",1
373,126.194138900176,37.208055565376895,덕적도·소야도,소야도 대금두(진대끝) 부근,"모래, 펄",20~25,"모래, 펄",인천광역시 옹진군,"노래미,농어,붕장어,숭어,우럭",1
374,126.179222199936,37.2006666748446,덕적도·소야도,소야도 남서쪽 갯바위,모래,1.3~1.5,모래,인천광역시 옹진군,"노래미,농어,붕장어,숭어,우럭",1
375,126.1695278,37.2094444409086,덕적도·소야도,소야도 떼뿌루해수욕장 갯바위,모래,1.1~1.4,모래,인천광역시 옹진군,"노래미,농어,붕장어,숭어,우럭",1
376,126.2190833,37.1876111109086,이작도·승봉도,소이작도 돌살부리 부근,펄,1.2~1.8,조금 전·후,인천광역시 옹진군,"넙치,노래미,농어,우럭",1
377,126.249361099999,37.1830555609085,이작도·승봉도,소이작도 손가락 바위 부근,"펄, 모래",1.2~1.7,조금 전·후,인천광역시 옹진군,"노래미,우럭",1
378,126.2406944,37.1770555609085,이작도·승봉도,소이작도 해군기지 부근,"펄, 모래",1.5~2,조금 전·후,인천광역시 옹진군,"노래미,우럭",1
379,126.2154722,37.182250000908496,이작도·승봉도,소이작도 간뿌리 부근,가는 모래,1.1~1.8,조금 전·후,인천광역시 옹진군,"넙치,노래미",1
380,126.254722199999,37.1812777809085,이작도·승봉도,대이작도 오형제바위,"펄, 모래",3~5,조금 전·후,인천광역시 옹진군,"넙치,농어,우럭",1
381,126.2732222,37.1598888909083,이작도·승봉도,대이작도 토끼바위 부근,"펄, 모래",3~5,조금 전·후,인천광역시 옹진군,"넙치,농어,우럭",1
382,126.259694400253,37.1684444450434,이작도·승봉도,대이작도 작은풀안해수욕장 정자 부근,가는 모래,1.2~1.9,조금 전·후,인천광역시 옹진군,"넙치,우럭",1
383,126.24933329974,37.170388889728,이작도·승봉도,대이작도 유곶 부근,"펄, 모래",3~5,조금 전·후,인천광역시 옹진군,"넙치,농어,우럭",1
384,126.2910833,37.1740000009084,이작도·승봉도,승봉도 동양콘도 앞,"모래, 펄, 조개껍질",1.3~1.6,초들물~중들물,인천광역시 옹진군,"넙치,노래미,농어,우럭",1
385,126.293944399987,37.1750000007958,이작도·승봉도,승봉도 소각장 부근,펄,1.1~1.9,초들물~중들물,인천광역시 옹진군,"넙치,노래미,농어,우럭",1
386,126.303444399546,37.1727499964663,이작도·승봉도,승봉도 부채바위,펄,1~1.8,초들물~중들물,인천광역시 옹진군,"넙치,노래미,농어,우럭",1
387,126.3121111,37.171694440908496,이작도·승봉도,승봉도 남대문바위,펄,1.4~1.7,초들물~중들물,인천광역시 옹진군,"넙치,노래미,농어,우럭",1
388,126.318305599999,37.1653611109084,이작도·승봉도,승봉도 참나무골,펄,1.5~2,초들물~중들물,인천광역시 옹진군,"넙치,노래미,농어",1
389,126.3246389,37.161611110908495,이작도·승봉도,승봉도 촛대바위,"모래, 조개껍질",1.2~2.2,초들물~중들물,인천광역시 옹진군,"넙치,노래미,농어,우럭",1
390,126.3208889,37.1573055609083,이작도·승봉도,승봉도 목섬 부근,모래,1.2~2.2,초들물~중들물,인천광역시 옹진군,"넙치,노래미,농어,우럭",1
391,126.2948056,37.1649444409084,이작도·승봉도,승봉도 철탑앞 갯바위,가는 모래,1.1~1.5,초들물~중들물,인천광역시 옹진군,"노래미,농어",1
392,126.104777799719,37.1820277790418,문갑도·선갑도,문갑도 한월리해수욕장 갯바위,가는 모래,1.4~1.7,사리 전·후,인천광역시 옹진군,"넙치,노래미,농어,우럭",1
393,126.114527799999,37.1812777809083,문갑도·선갑도,문갑도 문갑해수욕장 갯바위,가는 모래,2.2~4.7,사리 전·후,인천광역시 옹진군,"넙치,노래미,농어,우럭",1
394,126.110305599999,37.1770555609083,문갑도·선갑도,문갑도 문갑해수욕장 갯바위,"펄, 모래",1.3~2,사리 전·후,인천광역시 옹진군,"넙치,노래미,농어,우럭",1
395,126.1091667,37.1657222209082,문갑도·선갑도,문갑도 진뿌리,"펄, 모래",3~3.8,사리 전·후,인천광역시 옹진군,"넙치,노래미,농어,우럭",1
396,126.101249999999,37.1664166709082,문갑도·선갑도,문갑도 문턱뿌리 부근,"펄, 모래",11~13,사리 전·후,인천광역시 옹진군,"넙치,노래미,농어,우럭",1
397,125.967972199998,37.0843611109071,백아도·굴업도,백아도 기차바위 부근,펄,2.3~3.8,사리 전·후,인천광역시 옹진군,"넙치,노래미,농어,붕장어,우럭",1
398,125.951944400202,37.0750000052905,백아도·굴업도,백아도 목가지 부근,바위,2.1~3,사리 전·후,인천광역시 옹진군,"넙치,노래미,농어,붕장어,우럭",1
399,125.941583299939,37.0812222213211,백아도·굴업도,백아도 서쪽 곶부리,바위,7.6~8,사리 전·후,인천광역시 옹진군,"넙치,노래미,농어,붕장어,우럭",1
400,125.981472199999,37.1943888909081,백아도·굴업도,굴업도 마을 북쪽 갯바위,가는 모래,1.7~2.5,들물,인천광역시 옹진군,"넙치,노래미,농어,붕장어,우럭",1
401,125.983666699999,37.1944722209082,백아도·굴업도,굴업도 해수욕장 북쪽 갯바위,가는 모래,1.8~2.5,들물,인천광역시 옹진군,"넙치,노래미,농어,붕장어,우럭",1
402,125.992333300131,37.1951111097194,백아도·굴업도,굴업도 해수욕장 동쪽 갯바위,"모래, 펄",2.5~3,들물,인천광역시 옹진군,"넙치,노래미,농어,붕장어,우럭",1
403,125.981805599999,37.1869722209081,백아도·굴업도,굴업도 마을 동쪽 갯바위,"모래, 펄",1.2~1.8,들물,인천광역시 옹진군,"넙치,노래미,농어,붕장어,우럭",1
404,125.975194399999,37.1869444409081,백아도·굴업도,굴업도 마을 서쪽 갯바위,"모래, 펄",1.3~1.8,들물,인천광역시 옹진군,"넙치,노래미,농어,붕장어,우럭",1
405,126.4297778,37.2633888909093,영흥도·선재도·대부도·구봉도,영흥도 양로봉 갯바위(신노루),"펄, 모래",2.3~4.1,들물,인천광역시 옹진군,"넙치,농어",1
406,126.435305599999,37.2743888909095,영흥도·선재도·대부도·구봉도,영흥도 비석바위,"펄, 모래",2.2~4.3,들물,인천광역시 옹진군,"넙치,농어,삼치,숭어",1
407,126.4556667,37.2843333309095,영흥도·선재도·대부도·구봉도,영흥도 농어바위,모래,1.2~2,들물,인천광역시 옹진군,"넙치,농어,삼치,숭어",1
408,126.4706667,37.2873055609096,영흥도·선재도·대부도·구봉도,영흥도 진여,"펄, 모래",1.5~2.3,들물,인천광역시 옹진군,"넙치,농어,삼치,우럭",1
409,126.489027800112,37.2832222195623,영흥도·선재도·대부도·구봉도,영흥도 십리포해수욕장 갯바위,"펄, 모래",1.2~2,들물,인천광역시 옹진군,"넙치,농어,삼치,우럭",1
410,126.4811389,37.2418333309092,영흥도·선재도·대부도·구봉도,영흥도 용담리해수욕장 부근,"펄, 모래",1.4~2.2,들물,인천광역시 옹진군,"넙치,노래미,망둑어,우럭",1
411,126.524249999999,37.2568055609093,영흥도·선재도·대부도·구봉도,신지도 대량곶 부근 갯바위,펄,1.8~2.5,"들물, 날물",인천광역시 옹진군,"노래미,망둑어,붕장어,양태,우럭",1
412,126.5423611,37.2143888909089,영흥도·선재도·대부도·구봉도,대부도 쪽박섬 부근,펄,1~1.3,"들물, 날물",경기도 안산시,"노래미,망둑어,붕장어,우럭",1
413,126.6219722,37.1630277809085,제부도,제부도 소방서 앞,펄,1~1.3,"들물, 날물",경기도 화성시,"넙치,노래미,망둑어",1
414,126.618249999826,37.156527782970706,제부도,제부도 매(삼형제)바위 부근,펄,1.1~1.4,"들물, 날물",경기도 화성시,"넙치,망둑어,붕장어,숭어,우럭",1
415,126.535111099849,37.1143333344244,입파도·국화도,입파도 북서측 끝단,모래,1.4~3,조금 전·후,경기도 화성시,"넙치,노래미,도다리,붕장어,우럭",1
416,126.540694399999,37.111166670908,입파도·국화도,입파도 북동측 끝단,모래,2.2~4.1,조금 전·후,경기도 화성시,"넙치,노래미,도다리,붕장어,우럭",1
417,126.5397222,37.097722220908,입파도·국화도,입파도 동남측 돌출부,모래,1.2~2,조금 전·후,경기도 화성시,"넙치,노래미,도다리,붕장어,우럭",1
418,126.538027800284,37.0937222220966,입파도·국화도,입파도 남측 곶부리,모래,3.7~5,조금 전·후,경기도 화성시,"넙치,노래미,도다리,붕장어,우럭",1
419,126.5370833,37.102444440908,입파도·국화도,입파도 서측 갯바위,"펄, 모래",1.2~1.5,조금 전·후,경기도 화성시,"넙치,노래미,도다리,붕장어,우럭",1
420,126.5544167,37.0714166709077,입파도·국화도,국화도 매박섬(토끼섬),모래,5~5.2,조금 전·후,경기도 화성시,"노래미,도다리,우럭",1
421,126.5568611,37.0640000009076,입파도·국화도,국화도 해수욕장 서측 갯바위,모래,1.3~2.3,조금 전·후,경기도 화성시,"노래미,도다리,우럭",1
422,126.5587222,37.0618055609076,입파도·국화도,국화도 해수욕장 동측 갯바위,모래,1.2~2.3,조금 전·후,경기도 화성시,"노래미,도다리,우럭",1
423,126.54975,37.0545277809076,입파도·국화도,국화도 도지섬 부근,펄,2.3~4,조금 전·후,경기도 화성시,"노래미,도다리,우럭",1
424,126.5512778,37.0582222209076,입파도·국화도,국화도 서쪽 곶부리,펄,1.3~2.1,조금 전·후,경기도 화성시,"노래미,도다리,우럭",1
425,126.379944399999,37.1057777809079,풍도·난지도,풍도 채석장 남측,바위,4~6,사리 전·후,경기도 안산시,"넙치,노래미,농어,붕장어,우럭",1
426,126.38025,37.114194440908,풍도·난지도,풍도 채석장 북측,"펄, 자갈",4~5,사리 전·후,경기도 안산시,"넙치,노래미,농어,붕장어,우럭",1
427,126.390055599999,37.115694440908,풍도·난지도,풍도 북동측 돌출부,"펄, 자갈",1.5~2.6,사리 전·후,경기도 안산시,"넙치,노래미,농어,붕장어,우럭",1
428,126.3947222,37.107416670908,풍도·난지도,풍도 남쪽 마을 부근,"펄, 자갈",1.3~2.1,사리 전·후,경기도 안산시,"넙치,노래미,농어,붕장어,우럭",1
429,126.421222199866,37.0498888888992,풍도·난지도,대난지도 해수욕장 갯바위,모래,1.5~2.2,"만조, 간조 전·후",충청남도 당진시,"넙치,농어,도다리,붕장어,우럭",1
430,126.4495278,37.0442777809074,풍도·난지도,대난지도 도끝이 부근,펄,1.7~3,"만조, 간조 전·후",충청남도 당진시,"넙치,농어,도다리,붕장어,우럭",1
431,126.441166699482,37.0383055602627,풍도·난지도,소난지도 서쪽 갯바위,바위,1.5~2.4,"만조, 간조 전·후",충청남도 당진시,"넙치,농어,도다리,붕장어,우럭",1
432,126.4343889,36.360583330901,원산도·삽시도,원산도해수욕장 동측 소록도,"펄, 모래",1.4~2.1,들물 전·후,충청남도 보령시,"갑오징어,넙치,농어,노래미,우럭,주꾸미",1
433,126.4203333,36.363250000901104,원산도·삽시도,원산도해수욕장 서측 갯바위,"펄, 모래",1.9~2.5,들물 전·후,충청남도 보령시,"갑오징어,넙치,농어,노래미,우럭,주꾸미",1
434,126.4082778,36.364611110901,원산도·삽시도,원산도 용뿌리 갯바위,"펄, 모래",1.1~1.6,들물 전·후,충청남도 보령시,"감성돔,갑오징어,넙치,노래미,농어,우럭,주꾸미",1
435,126.3844444,36.3709722209011,원산도·삽시도,원산도 개간지,자갈,1.8~2.3,들물 전·후,충청남도 보령시,"감성돔,갑오징어,넙치,노래미,농어,우럭,주꾸미",1
436,126.3701389,36.3353055609007,원산도·삽시도,삽시도 야의곶 부근,"펄, 모래",2~2.3,조금 전·후,충청남도 보령시,"감성돔,갑오징어,넙치,농어,우럭,주꾸미",1
437,126.3398889,36.329111110900705,원산도·삽시도,삽시도 촛대바위,"모래, 조개껍질",3~3.4,조금 전·후,충청남도 보령시,"감성돔,갑오징어,넙치,농어,우럭,주꾸미",1
438,126.340666699513,36.333666667368895,원산도·삽시도,삽시도 물망터,"모래, 조개껍질",1.6~2.5,조금 전·후,충청남도 보령시,"감성돔,갑오징어,넙치,농어,우럭,주꾸미",1
439,126.3413611,36.3378333309008,원산도·삽시도,삽시도 면삽지,"모래, 조개껍질",2.1~3.7,조금 전·후,충청남도 보령시,"감성돔,갑오징어,넙치,농어,우럭,주꾸미",1
440,126.351361099877,36.3491666667563,원산도·삽시도,삽시도 거멀너머해수욕장 부근,"모래, 조개껍질",1.3~2.2,조금 전·후,충청남도 보령시,"감성돔,갑오징어,넙치,농어,우럭,주꾸미",1
441,126.257583299999,36.2957222209002,호도·녹도·외연도,호도 안통,펄,2.2~3,초들물,충청남도 보령시,"넙치,노래미,농어,우럭",1
442,126.2692778,36.3026388909004,호도·녹도·외연도,호도 북동쪽 갯바위,모래,3.2~4.3,초들물,충청남도 보령시,"넙치,노래미,농어,우럭",1
443,126.263611099999,36.2925277809003,호도·녹도·외연도,호도해수욕장 갯바위,바위,1.5~2.2,초들물,충청남도 보령시,"넙치,노래미,농어,우럭",1
444,126.2623056,36.2763611109001,호도·녹도·외연도,녹도 북서쪽 갯바위,바위,3.2~5,초들물,충청남도 보령시,"감성돔,넙치,노래미,농어,우럭",1
445,126.26541669951,36.2653888918588,호도·녹도·외연도,녹도 동두말 부근,모래,3~5,초들물,충청남도 보령시,"감성돔,넙치,노래미,농어,우럭",1
446,126.071055599999,36.2279444408994,호도·녹도·외연도,외연도 서측 갯바위,"자갈, 펄",1.6~3,조금 전·후,충청남도 보령시,"감성돔,갑오징어,넙치,노래미,농어,우럭,참돔",1
447,126.074999999999,36.2308611108994,호도·녹도·외연도,외연도 누적금 부근,"자갈, 펄",1.7~3,조금 전·후,충청남도 보령시,"감성돔,갑오징어,넙치,노래미,농어,우럭,참돔",1
448,126.082416699999,36.231194440899294,호도·녹도·외연도,외연도 작은 명금 부근,자갈,1.3~2.7,조금 전·후,충청남도 보령시,"감성돔,갑오징어,넙치,노래미,농어,우럭,참돔",1
449,125.966861099998,36.1261388908981,어청도·연도,어청도 등대 부근,펄,3.8~5.2,"들물, 날물",전라북도 군산시,"감성돔,갑오징어,넙치,농어,방어,우럭",1
450,125.994722199999,36.1181111108981,어청도·연도,어청도 한우담 부근,모래,1.8~3,"들물, 날물",전라북도 군산시,"감성돔,갑오징어,넙치,농어,방어,우럭",1
451,125.991638899999,36.110555560898,어청도·연도,어청도 세미치말 부근,펄,4.4~6.2,"들물, 날물",전라북도 군산시,"감성돔,넙치,농어,돌돔,방어,우럭",1
452,125.985861099896,36.1197777785671,어청도·연도,어청도 농배,펄,3~4.5,"들물, 날물",전라북도 군산시,"감성돔,갑오징어,넙치,노래미,농어,우럭",1
453,125.978499999811,36.1103611075361,어청도·연도,어청도 시목서 부근,바위,3.7~5,"들물, 날물",전라북도 군산시,"감성돔,넙치,농어,돌돔,방어,우럭",1
454,125.972305599998,36.1129722208981,어청도·연도,어청도 불탄서 부근,바위,3.4~5,"들물, 날물",전라북도 군산시,"감성돔,넙치,농어,돌돔,방어,우럭",1
455,126.4445556,36.0758888908982,어청도·연도,연도 해녀막(멸치막),바위,1.7~2.2,초들물,전라북도 군산시,"넙치,농어,보구치,우럭,장대",1
456,126.4392778,36.0777500008982,어청도·연도,연도 자갈밭,자갈,1.9~2.3,초들물,전라북도 군산시,"넙치,농어,보구치,우럭,장대",1
457,126.4330278,36.0790277808982,어청도·연도,연도 채석장,자갈,1.6~2.5,초들물,전라북도 군산시,"넙치,농어,보구치,우럭,장대",1
458,126.22425,36.0019444408973,십이동파도·비안도,십이동파도 땅콩여,"펄, 모래",9~18,12물~3물,전라북도 군산시,"감성돔,넙치,돌돔,노래미,농어,우럭,참돔",1
459,126.24,35.9970555608973,십이동파도·비안도,십이동파도 사자섬,"펄, 모래",7.5~12,12물~3물,전라북도 군산시,"감성돔,갑오징어,넙치,노래미,농어,우럭,참돔",1
460,126.240833299999,35.9936388908973,십이동파도·비안도,십이동파도 작은 쌍섬,"펄, 모래",7~11,12물~3물,전라북도 군산시,"감성돔,갑오징어,넙치,노래미,농어,우럭,참돔",1
461,126.235166700241,35.9935000012129,십이동파도·비안도,십이동파도 큰 쌍섬,"펄, 모래",7.5~12,12물~3물,전라북도 군산시,"감성돔,갑오징어,넙치,노래미,농어,우럭,참돔",1
462,126.239833299999,35.9829166708971,십이동파도·비안도,십이동파도 똥섬,"펄, 조개껍질",7.6~8.1,12물~3물,전라북도 군산시,"감성돔,갑오징어,넙치,노래미,농어,우럭,참돔",1
463,126.237138900495,35.9828611073842,십이동파도·비안도,십이동파도 벌린여,"펄, 조개껍질",4.7~6,12물~3물,전라북도 군산시,"감성돔,넙치,돌돔,노래미,농어,우럭,참돔",1
464,126.221472199999,35.9877500008972,십이동파도·비안도,십이동파도 등대섬 덜컥바위,"펄, 모래",19.7~21,12물~3물,전라북도 군산시,"감성돔,갑오징어,넙치,노래미,농어,우럭,참돔",1
465,126.219611099999,35.9980277808973,십이동파도·비안도,십이동파도 병풍도 북쪽 곶부리,"펄, 모래",21~22.3,12물~3물,전라북도 군산시,"감성돔,넙치,돌돔,노래미,농어,우럭,참돔",1
466,126.448305599999,35.7480555608948,십이동파도·비안도,비안도 남쪽 갯바위,"펄, 모래",4.3~5.1,들물 전·후,전라북도 군산시,"감성돔,갑오징어,넙치,노래미,농어,참돔,우럭",1
467,126.4579444,35.7350000008948,십이동파도·비안도,비안도 제방,조개껍질,1.5~2,들물 전·후,전라북도 군산시,"넙치,노래미,농어,붕장어,우럭",1
468,126.4522778,35.7288055608947,십이동파도·비안도,비안도 남쪽 직벽지대,"모래, 펄",5~8,들물 전·후,전라북도 군산시,"감성돔,갑오징어,넙치,노래미,농어,참돔,우럭",1
469,126.4496944,35.7303611108947,십이동파도·비안도,비안도 남서쪽 직벽 홈통,"모래, 펄",5.3~8.2,들물 전·후,전라북도 군산시,"감성돔,갑오징어,넙치,노래미,농어,참돔,우럭",1
470,126.4484444,35.7340277808947,십이동파도·비안도,비안도 서쪽 돌출여 부근,"모래, 펄",5~7,들물 전·후,전라북도 군산시,"감성돔,갑오징어,넙치,노래미,농어,참돔,우럭",1
471,126.439499999974,35.7400555631744,십이동파도·비안도,비안도 북서쪽 떨어진여 부근,조개껍질,5.1~5.6,들물 전·후,전라북도 군산시,"감성돔,갑오징어,넙치,노래미,농어,참돔,우럭",1
472,126.315888899999,35.8588055608959,말도·방축도,말도 등대 부근 갯바위,"모래, 조개껍질",11.8~13,썰물 전·후,전라북도 군산시,"감성돔,노래미,넙치,도다리,우럭",1
473,126.32575,35.858861110896,말도·방축도,말도 북동쪽 곶부리,"펄, 모래",7~10,썰물 전·후,전라북도 군산시,"감성돔,넙치,노래미,도다리,우럭",1
474,126.31425,35.8558055608959,말도·방축도,말도 단도 부근,"모래, 조개껍질",6.4~8,"들물, 썰물 전·후",전라북도 군산시,"감성돔,노래미,넙치,도다리,우럭",1
475,126.3675833,35.8529166708959,말도·방축도,방축도 북서바위,"모래, 조개껍질",7~9,썰물 전·후,전라북도 군산시,"감성돔,넙치,농어,우럭,부시리,참돔",1
476,126.3866111,35.856194440896,말도·방축도,방축도 북동쪽 곶부리,가는 모래,6.7~8,중들물~만조시,전라북도 군산시,"감성돔,넙치,농어,우럭,부시리,참돔",1
477,126.37275,35.8464722208958,말도·방축도,방축도 남서쪽 작은 홈통,"모래, 조개껍질",7~8.6,중들물~만조시,전라북도 군산시,"감성돔,넙치,농어,우럭,부시리,참돔",1
478,126.3682222,35.8461388908958,말도·방축도,방축도 남서쪽 큰 홈통,가는 모래,8.3~10,중들물~만조시,전라북도 군산시,"감성돔,넙치,농어,우럭,부시리,참돔",1
479,126.365861099824,35.8466111107857,말도·방축도,방축도 독립문바위,가는 모래,2.3~3,중들물~만조시,전라북도 군산시,"감성돔,넙치,농어,우럭,부시리,참돔",1
480,126.4000556,35.8129444408955,선유도·무녀도·장자도·신시도,장자도 연육교 부근,"모래, 펄",1.7~2.5,조금 전·후,전라북도 군산시,"넙치,노래미,농어,붕장어,우럭",1
481,126.406833300265,35.8207777790551,선유도·무녀도·장자도·신시도,선유도해수욕장 앞 갯바위,"모래, 펄",1.3~1.8,조금 전·후,전라북도 군산시,"넙치,노래미,농어,붕장어,우럭",1
482,126.4235,35.8197500008956,선유도·무녀도·장자도·신시도,선유도 북도 동쪽 갯바위,"모래, 펄",1.2~1.5,조금 전·후,전라북도 군산시,"넙치,노래미,농어,붕장어,삼치,우럭,양태",1
483,126.4087778,35.8050833308955,선유도·무녀도·장자도·신시도,선유도 남도 갯바위,가는 모래,3~4.2,조금 전·후,전라북도 군산시,"넙치,노래미,농어,붕장어,우럭",1
484,126.415472199999,35.8019444408955,선유도·무녀도·장자도·신시도,무녀도 남들포인트,가는 모래,2~2.5,들물 전·후,전라북도 군산시,"넙치,노래미,농어,붕장어,우럭",1
485,126.44,35.8057777808954,선유도·무녀도·장자도·신시도,무녀도 제방,"모래, 펄",1.4~1.8,들물 전·후,전라북도 군산시,"넙치,노래미,농어,붕장어,우럭",1
486,126.43825,35.8005833308954,선유도·무녀도·장자도·신시도,무녀도 구마을 백사장 부근,"모래, 펄",1.6~1.9,들물 전·후,전라북도 군산시,"넙치,노래미,농어,붕장어,우럭",1
487,126.4435,35.8317777808958,선유도·무녀도·장자도·신시도,신시도 북단 곶부리,"모래, 펄",2.7~4,들물 전·후,전라북도 군산시,"넙치,노래미,농어,도다리,우럭",1
488,126.44875,35.8099722208955,선유도·무녀도·장자도·신시도,신시도 남단 간출여 부근,"모래, 펄",1.3~1.8,들물 전·후,전라북도 군산시,"넙치,노래미,농어,도다리,우럭",1
489,126.110805599608,35.6668055634115,왕등도·위도,상왕등도 북쪽 끝바리,펄,7~10,조금 전·후,전라북도 부안군,"감성돔,넙치,돌돔,붕장어,우럭,참돔",1
490,126.107249999908,35.6561666728826,왕등도·위도,상왕등도 터널바위,펄,2.5~5,조금 전·후,전라북도 부안군,"감성돔,넙치,돌돔,붕장어,우럭,참돔",1
491,126.115000000385,35.6449444412762,왕등도·위도,하왕등도 북쪽 갯바위,"펄, 모래, 조개껍질",3.6~5,조금 전·후,전라북도 부안군,"감성돔,넙치,돌돔,붕장어,우럭,참돔",1
492,126.129916699999,35.6367500008934,왕등도·위도,하왕등도 코구렁,"펄, 모래, 조개껍질",6~10,조금 전·후,전라북도 부안군,"감성돔,넙치,농어,붕장어,우럭,참돔",1
493,126.124333299999,35.6345833308934,왕등도·위도,하왕등도 오지바위,"펄, 모래, 조개껍질",3.6~6,조금 전·후,전라북도 부안군,"감성돔,넙치,돌돔,붕장어,우럭,참돔",1
494,126.2759722,35.6159444408934,왕등도·위도,위도 용멀 갯바위,펄,9.7~12,중썰물~끝썰물,전라북도 부안군,"넙치,노래미-루어,,농어,숭어,우럭",1
495,126.3151111,35.6105277808933,왕등도·위도,위도 대멀 부근,펄,1.7~2,중썰물~끝썰물,전라북도 부안군,"감성돔,넙치,노래미,농어,숭어,우럭",1
496,126.25355560019,35.5774166744121,왕등도·위도,위도 철탑 부근,펄,2.4~3.3,중썰물~끝썰물,전라북도 부안군,"감성돔,넙치,노래미,농어,숭어,우럭",1
497,126.2514444,35.580833330893,왕등도·위도,위도 논금해수욕장 갯바위,펄,2.3~3.2,중썰물~끝썰물,전라북도 부안군,"감성돔,넙치,노래미,농어,숭어,우럭",1
498,126.259972199694,35.5888611139071,왕등도·위도,위도 미영금해수욕장 갯바위,펄,2.7~3.5,중썰물~끝썰물,전라북도 부안군,"넙치,노래미-루어,,농어,숭어,우럭",1
499,126.258055599999,35.5981944408931,왕등도·위도,위도 모여 부근,펄,8~12,중썰물~끝썰물,전라북도 부안군,"넙치,노래미-루어,,농어,숭어,우럭",1
500,125.889555599998,34.736694440883,비금도·도초도,비금도 성목골 부근 갯바위,"펄, 모래",2.5~3,날물,전라남도 신안군,"감성돔,농어,돌돔,볼락,붕장어,우럭,참돔",1
501,125.892722199573,34.7478055599739,비금도·도초도,비금도 하누넘해수욕장 갯바위,모래,3.3~4.7,날물,전라남도 신안군,"노래미,농어,돌돔,볼락,붕장어,우럭,참돔",1
502,125.891611099998,34.7585833308833,비금도·도초도,비금도 이미해수욕장 갯바위,바위,3.5~5,날물,전라남도 신안군,"노래미,농어,돌돔,볼락,붕장어,우럭,참돔",1
503,125.891611099998,34.7664166708834,비금도·도초도,비금도 용머리바위,바위,4.2~6.1,날물,전라남도 신안군,"감성돔,농어,돌돔,볼락,붕장어,우럭",1
504,125.952833300214,34.7886111113383,비금도·도초도,비금도 명사십리해수욕장 갯바위,펄,5.2~6.1,날물,전라남도 신안군,"노래미,농어,돌돔,볼락,붕장어,우럭,참돔",1
505,125.971166699999,34.799888890884,비금도·도초도,비금도 계남서 부근,펄,1.7~3,초들물~중들물,전라남도 신안군,"감성돔,농어,돌돔,볼락,붕장어,우럭,참돔",1
506,125.993638899999,34.806583330884,비금도·도초도,비금도 통섭바위 부근,펄,9.4~10,초들물~중들물,전라남도 신안군,"감성돔,농어,돌돔,참돔",1
507,125.999999999999,34.7900833308839,비금도·도초도,비금도 큰당두리 갯바위,"펄, 모래",1.4~2.1,초들물~중들물,전라남도 신안군,"감성돔,농어,볼락,붕장어,우럭",1
508,125.999138900253,34.7734999967896,비금도·도초도,비금도 가산리 진골 갯바위,"펄, 모래",1.3~1.7,초들물~중들물,전라남도 신안군,"감성돔,농어,돌돔,참돔",1
509,125.952416699998,34.6641111108823,비금도·도초도,시목해수욕장 부근 갯바위,"펄, 조개껍질",2.1~3,초들물~중들물,전라남도 신안군,"감성돔,농어,돌돔,볼락,붕장어,참돔",1
510,125.924805599999,34.6698333308824,비금도·도초도,도초도 지남리 남쪽 곶부리,"펄, 조개껍질",1.9~3.4,초들물~중들물,전라남도 신안군,"감성돔,농어,돌돔,볼락,붕장어,참돔",1
511,125.914583300259,34.6864166666309,비금도·도초도,도초도 문바위 부근,"모래, 조개껍질",3~5.3,초들물~중들물,전라남도 신안군,"감성돔,돌돔,볼락,참돔",1
512,125.448444399993,34.6906388908798,흑산도·삼태도,대흑산도 예리 갯바위,바위,1.3~2.7,들물,전라남도 신안군,"감성돔,농어,돌돔,볼락,붕장어,학공치,참돔",1
513,125.439194400223,34.6716111129638,흑산도·삼태도,대흑산도 정촌리 홈통 부근,"모래, 조개껍질",2.2~3.7,들물,전라남도 신안군,"감성돔,농어,돌돔,볼락,붕장어,참돔,학공치",1
514,125.424138899992,34.6606666708791,흑산도·삼태도,대흑산도 섯개해수욕장 갯바위,"모래, 조개껍질",3.3~5,들물,전라남도 신안군,"감성돔,농어,돌돔,볼락,붕장어,참돔,학공치",1
515,125.281500000623,34.4350277772974,흑산도·삼태도,상태도 마을 앞 갯바위,바위,5.1~6.8,초날물~중날물,전라남도 신안군,"감성돔,농어,돌돔,볼락,우럭,열기,참돔",1
516,125.289861099989,34.3925277808744,흑산도·삼태도,하태도 기둥바위 부근,바위,6~9,중들물~중날물,전라남도 신안군,"감성돔,농어,돌돔,볼락,우럭,열기,참돔",1
517,126.56061110019,34.233944438577,노화도·보길도·소안도,노화도 북쪽 목부분 홈통,펄,8~10,사리 전·후,전라남도 완도군,"감성돔,농어,숭어,우럭,볼락,참돔",1
518,126.555555599776,34.212999998561,노화도·보길도·소안도,노화도 갈미각 부근 갯바위,펄,3.8~4.5,사리 전·후,전라남도 완도군,"감성돔,농어,돌돔,볼락,우럭,참돔",1
519,126.6244444,34.156944440877,노화도·보길도·소안도,보길도 글쓴바위 부근,바위,6.3~7,사리 전·후,전라남도 완도군,"감성돔,농어,숭어,우럭,볼락,참돔",1
520,126.6161944,34.1488333308769,노화도·보길도·소안도,보길도 동쪽 곶부리,"펄, 모래",5.7~8,사리 전·후,전라남도 완도군,"감성돔,농어,돌돔,볼락,우럭,참돔",1
521,126.6040833,34.1460833308768,노화도·보길도·소안도,보길도 치마끝 갯바위,"펄, 모래",3.7~4.5,사리 전·후,전라남도 완도군,"감성돔,농어,돌돔,볼락,우럭,참돔",1
522,126.5798056,34.1523888908769,노화도·보길도·소안도,보길도 장항각 부근 갯바위,"펄, 모래",4.8~5.4,사리 전·후,전라남도 완도군,"감성돔,고등어,노래미,농어,볼락,숭어",1
523,126.5755,34.1450833308768,노화도·보길도·소안도,보길도 예송리해수욕장 곶부리,"펄, 모래",3.6~4.2,사리 전·후,전라남도 완도군,"감성돔,고등어,노래미,농어,숭어,학공치",1
524,126.5195556,34.1262222208765,노화도·보길도·소안도,보길도 보옥리 몽돌해안,조개껍질,2.1~2.6,사리 전·후,전라남도 완도군,"감성돔,농어,돌돔,볼락,벵에돔,우럭",1
525,126.504666699635,34.1393333295994,노화도·보길도·소안도,보길도 망월각 갯바위,바위,6.3~7,사리 전·후,전라남도 완도군,"감성돔,농어,돌돔,볼락,벵에돔,우럭",1
526,126.5042222,34.1485000008769,노화도·보길도·소안도,보길도 선창리 갯바위,바위,1.3~1.9,사리 전·후,전라남도 완도군,"농어,노래미-루어,,볼락,붕장어,숭어,우럭",1
527,126.6558611,34.1974166708775,노화도·보길도·소안도,소안도 월항리 양식장부근,"가는 모래, 조개껍질",2.5~4.4,사리 전·후,전라남도 완도군,"감성돔,농어,노래미,우럭,볼락,학공치",1
528,126.684250000043,34.1815277807271,노화도·보길도·소안도,소안도 청변각 갯바위(코바위),"펄, 모래, 조개껍질",3.1~5,사리 전·후,전라남도 완도군,"감성돔,돌돔,농어,벵에돔,우럭,참돔",1
529,126.6622222,34.1750833308772,노화도·보길도·소안도,소안도 비자리 해안갯바위,펄,1.5~2.2,사리 전·후,전라남도 완도군,"감성돔,농어,노래미,우럭,볼락,학공치",1
530,126.682555600067,34.148361115183,노화도·보길도·소안도,소안도 밖고래여 부근,펄,3.2~3.8,사리 전·후,전라남도 완도군,"감성돔,돌돔,농어,벵에돔,우럭,참돔",1
531,126.6802222,34.1408055608768,노화도·보길도·소안도,소안도 탁구진 부근 갯바위,펄,4.9~5.5,사리 전·후,전라남도 완도군,"감성돔,돌돔,농어,벵에돔,우럭,참돔",1
532,126.6696944,34.1205000008766,노화도·보길도·소안도,소안도 담축끝 갯바위,펄,12~14,사리 전·후,전라남도 완도군,"감성돔,돌돔,농어,벵에돔,우럭,참돔",1
533,126.638222199781,34.122861114286,노화도·보길도·소안도,소안도 농서 부근 갯바위,"가는 모래, 자갈",5.5~6.3,사리 전·후,전라남도 완도군,"감성돔,돌돔,농어,벵에돔,우럭,참돔",1
534,126.6284167,34.1458611108769,노화도·보길도·소안도,소안도 돈암각 부근 갯바위,펄,5.5~6.1,사리 전·후,전라남도 완도군,"감성돔,농어,노래미,우럭,볼락,학공치",1
535,126.635111100329,34.1870277821087,노화도·보길도·소안도,소안도 산호도 부근 갯바위,펄,11.6~12.2,사리 전·후,전라남도 완도군,"감성돔,농어,노래미,우럭,볼락,학공치",1
536,126.787,34.3457500008793,신지도,송곡리 호안로 갯바위,"펄, 모래",1.5~2.1,사리 전·후,전라남도 완도군,"감성돔,넙치,농어,숭어,우럭,참돔",1
537,126.8244167,34.3523611108794,신지도,대곡항 북쪽 갯바위,펄,1~1.3,사리 전·후,전라남도 완도군,"넙치,노래미,농어,도다리,양태,우럭,숭어",1
538,126.8429722,34.3521666708793,신지도,대곡리 남쪽 양식장 배수구 부근,펄,1.2~1.5,사리 전·후,전라남도 완도군,"감성돔,농어,숭어,볼락,참돔,학공치",1
539,126.89625,34.3442500008793,신지도,방죽포 철탑 부근 갯바위,"펄, 조개껍질",2.1~2.6,사리 전·후,전라남도 완도군,"감성돔,농어,숭어,볼락,우럭,참돔",1
540,126.8988611,34.3418888908792,신지도,덕구미 부근,"펄, 조개껍질",8.5~9,사리 전·후,전라남도 완도군,"감성돔,농어,숭어,볼락,우럭,참돔",1
541,126.89375,34.3305277808791,신지도,동고리 남쪽 갯바위,펄,1.5~3,사리 전·후,전라남도 완도군,"감성돔,농어,숭어,볼락,우럭,참돔",1
542,126.8824444,34.3102500008789,신지도,무생끝 부근,펄,7.7~9,사리 전·후,전라남도 완도군,"감성돔,갑오징어,볼락,우럭,참돔,학공치",1
543,126.8724722,34.3098055608788,신지도,도트럼끝 부근,펄,2.8~3.6,사리 전·후,전라남도 완도군,"감성돔,갑오징어,볼락,우럭,참돔,학공치",1
544,126.8658056,34.3146111108789,신지도,가인항 양식장 부근 갯바위,펄,4.6~5,사리 전·후,전라남도 완도군,"감성돔,갑오징어,볼락,우럭,참돔,학공치",1
545,126.8547222,34.3063055608788,신지도,내동리 양식장 부근 갯바위,"펄, 조개껍질",1.4~1.8,사리 전·후,전라남도 완도군,"농어,볼락,숭어,우럭,전갱이,학공치",1
546,126.8391667,34.3089722208789,신지도,월양항 부근 제방,"펄, 조개껍질",1.8~2.5,사리 전·후,전라남도 완도군,"농어,볼락,숭어,우럭,전갱이,학공치",1
547,126.7939444,34.316638890879,신지도,무인등대 부근,펄,14.3~6,사리 전·후,전라남도 완도군,"감성돔,농어,숭어,볼락,우럭,참돔",1
548,126.78625,34.323388890879,신지도,노랑바위 부근,"모래, 조개껍질",2.3~3.8,사리 전·후,전라남도 완도군,"감성돔,갑오징어,볼락,우럭,참돔,학공치",1
549,126.763944399913,34.2105833352119,청산도·대모도,대모도 북곧말 갯바위,"펄, 모래, 조개껍질",2.7~5,4물~사리,전라남도 완도군,"감성돔,농어,우럭,노래미,볼락",1
550,126.7731667,34.1958055608775,청산도·대모도,대모도 외라이말 갯바위,"펄, 모래",7.2~10.1,사리 전·후,전라남도 완도군,"감성돔,농어,우럭,노래미,볼락",1
551,126.8600278,34.2003611108775,청산도·대모도,대모도 동리말 갯바위,"펄, 모래",14.6~16,사리 전·후,전라남도 완도군,"감성돔,농어,우럭,노래미,볼락",1
552,126.7611667,34.1775277808772,청산도·대모도,대모도 소로지말 갯바위,"펄, 모래",2~3.1,4물~사리,전라남도 완도군,"감성돔,농어,우럭,노래미,볼락",1
553,126.7504722,34.1878055608775,청산도·대모도,대모도 마도말 갯바위,"펄, 모래, 조개껍질",8.5~10,4물~사리,전라남도 완도군,"감성돔,농어,노래미,우럭,볼락",1
554,126.8600278,34.2003611108775,청산도·대모도,청산도 황산말 철탑 부근,"조개껍질, 펄",1.9~2.5,4물~사리,전라남도 완도군,"감성돔,넙치,농어,도다리,우럭,볼락,참돔",1
555,126.8726389,34.2089444408776,청산도·대모도,청산도 촛대바위 부근,"조개껍질, 펄",1.7~2.9,4물~사리,전라남도 완도군,"감성돔,넙치,농어,도다리,우럭,볼락,참돔",1
556,126.91975,34.1860833308774,청산도·대모도,청산도 항도 제방 부근 갯바위,자갈,8.5~8.7,4물~사리,전라남도 완도군,"감성돔,넙치,농어,도다리,우럭,볼락,참돔",1
557,126.923833300078,34.1800833320488,청산도·대모도,청산도 동촌리 갯바위,모래,11.5~13,4물~사리,전라남도 완도군,"감성돔,넙치,농어,도다리,우럭,볼락,참돔",1
558,126.9141389,34.153638890877,청산도·대모도,청산도 코바위,"조개껍질, 펄, 모래",18.8~21,4물~사리,전라남도 완도군,"감성돔,넙치,농어,도다리,우럭,볼락,참돔",1
559,126.9083611,34.1510000008769,청산도·대모도,청산도 노랑바위,펄,8.2~10.3,4물~사리,전라남도 완도군,"감성돔,농어,돌돔,볼락,우럭,참돔",1
560,126.9000556,34.156000000877,청산도·대모도,청산도 장기미 해변길 갯바위,"조개껍질, 모래, 펄",1.7~2.3,4물~사리,전라남도 완도군,"감성돔,농어,돌돔,볼락,우럭,참돔",1
561,126.8562222,34.151888890877,청산도·대모도,침몰선 갯바위 포인트,"펄, 조개껍질",1.7~2.3,4물~사리,전라남도 완도군,"감성돔,농어,돌돔,볼락,우럭,참돔",1
562,127.1155,34.489444440881,거금도,금진리 철탑 부근 선창,펄,5.1~6,날물,전라남도 고흥군,"감성돔,농어,노래미,도다리,숭어,우럭",1
563,127.2372222,34.4741666708808,거금도,주이정(주름목) 부근 갯바위,펄,6~10,날물,전라남도 고흥군,"감성돔,농어,노래미,우럭,볼락,학공치",1
564,127.1626111,34.4289722208803,거금도,금장 끝바리,펄,1.2~2.8,초들물,전라남도 고흥군,"감성돔,넙치,농어,도다리,볼락,우럭",1
565,127.143527800468,34.4225555599889,거금도,공고지 갯바위,펄,3.5~6.4,초들물,전라남도 고흥군,"감성돔,농어,도다리,노래미,볼락,우럭",1
566,127.1251944,34.4315277808803,거금도,옥룡마을 갯바위,펄,1.5~2.3,날물,전라남도 고흥군,"넙치,노래미,농어,도다리,볼락,우럭",1
567,127.1021389,34.4416111108804,거금도,우두마을 곶부리,펄,2~3.5,초들물,전라남도 고흥군,"감성돔,넙치,도다리,노래미,붕장어,양태,우럭",1
568,127.09325,34.4707500008807,거금도,배천마을 곶부리,펄,1.6~2.3,초들물,전라남도 고흥군,"감성돔,넙치,농어,도다리,붕장어,숭어,우럭",1
569,127.1083889,34.4754166708808,거금도,선촌항 부근 갯바위,펄,1.1~1.9,초들물,전라남도 고흥군,"감성돔,넙치,노래미,농어,도다리,우럭",1
570,126.9153056,33.988611110875,여서도·거문도,여서도 등대 부근 갯바위,"펄, 모래, 조개껍질",4.7~6,"들물, 날물 전·후",전라남도 완도군,"감성돔,돌돔,볼락,참돔",1
571,127.27991669968,34.060222218341,여서도·거문도,거문도 코바위,"모래, 자갈",14 ~ 16,"들물, 날물 전·후",전라남도 여수시,"감성돔,돌돔,벵에돔,참돔,볼락,전갱이",1
572,127.2923889,34.0632777808759,여서도·거문도,거문도 녹산곶 등대 부근,"침니, 모래",13.1 ~ 15.3,"들물, 날물 전·후",전라남도 여수시,"감성돔,돌돔,벵에돔,참돔,볼락,전갱이",1
573,127.3230278,34.0064166708752,여서도·거문도,거문도 배치바위 부근,바위,16~20,"들물, 날물 전·후",전라남도 여수시,"감성돔,돌돔,농어,벵에돔",1
574,127.3211111,34.0070555608752,여서도·거문도,거문도 선바위 부근,펄,9~14,"들물, 날물 전·후",전라남도 여수시,"감성돔,돌돔,벵에돔,참돔",1
575,127.2949722,34.0150000008752,여서도·거문도,거문도 대매지끝(용무늬 절벽),"침니, 모래",6~13.1,"들물, 날물 전·후",전라남도 여수시,"감성돔,돌돔,벵에돔,참돔",1
576,127.2826111,34.0348611108755,여서도·거문도,거문도 송곡단 부근 갯바위,"침니, 모래",7~8.1,"들물, 날물 전·후",전라남도 여수시,"감성돔,돌돔,농어,벵에돔,볼락,참돔",1
577,127.275888899825,34.0528611100557,여서도·거문도,거문도 취곶 부근 갯바위,"침니, 모래",3.7~5.1,"들물, 날물 전·후",전라남도 여수시,"감성돔,돌돔,농어,벵에돔,볼락,참돔",1
578,127.3158611,34.0584722208759,여서도·거문도,거문도 대린포 갯바위,"자갈, 모래",5~6.2,"들물, 날물 전·후",전라남도 여수시,"감성돔,돌돔,농어,벵에돔,볼락,참돔",1
579,127.3258056,34.0551388908758,여서도·거문도,거문도 칼바위,"침니, 모래",6.6~8.1,"들물, 날물 전·후",전라남도 여수시,"감성돔,부시리,돌돔,볼락,우럭,참돔",1
580,127.3276111,34.0485000008757,여서도·거문도,거문도 산굴산 부근 갯바위,"자갈, 조개껍질",15.1~16.3,"들물, 날물 전·후",전라남도 여수시,"감성돔,돌돔,볼락,참돔",1
581,127.4536944,34.5436944408816,나로도,내나로도 구룡마을 갯바위,펄,1.5~2.4,초들물~만조,전라남도 고흥군,"감성돔,농어,볼락,우럭",1
582,127.4669722,34.5235833308815,나로도,내나로도 덕흥해수욕장 갯바위,펄,2~3.4,초들물~만조,전라남도 고흥군,"감성돔,농어,볼락,숭어",1
583,127.490055600482,34.5083333342966,나로도,내나로도 고막포 부근 갯바위,바위,4.8~5,간조~초들물,전라남도 고흥군,"감성돔,농어,도다리,볼락,숭어,학공치",1
584,127.5068333,34.4746111108808,나로도,내나로도 등대 밑 갯바위,펄,7~9,간조~초들물,전라남도 고흥군,"감성돔,농어,도다리,볼락,볼락,학공치",1
585,127.4567222,34.4759444408808,나로도,외나로도 나로대교 철탑 부근,바위,1.5~2.1,초들물~만조,전라남도 고흥군,"노래미,도다리,볼락,숭어,우럭,학공치",1
586,127.506416704114,34.4711666702417,나로도,외나로도 창포골 갯바위,펄,8~10,간조~초들물,전라남도 고흥군,"감성돔,농어,볼락,숭어",1
587,127.5013333,34.4157222208801,나로도,외나로도 부채바위,펄,5.4~6,초들물~만조,전라남도 고흥군,"감성돔,농어,볼락,숭어",1
588,127.49152779959,34.4121666712574,나로도,외나로도 노랑바위,바위,12.3~14,초들물~만조,전라남도 고흥군,"감성돔,농어,볼락,숭어",1
589,127.7251111,34.5493888908817,금오도·안도,금오도 송고마을 갯바위,펄,4.7~8,"9물~13물, 날물 전·후",전라남도 여수시,"감성돔,도다리,노래미,우럭,볼락,붕장어,학공치",1
590,127.7699722,34.5316388908816,금오도·안도,금오도 소유마을 갯바위,펄,3.5~4.2,"9물~13물, 날물 전·후",전라남도 여수시,"감성돔,농어,망상어,볼락,벵에돔,학공치",1
591,127.7531389,34.5016388908812,금오도·안도,금오도 학동마을 이장바위,펄,2~2.3,"9물~13물, 날물 전·후",전라남도 여수시,"감성돔,갑오징어,농어,벵에돔,볼락,학공치",1
592,127.734944395474,34.5037500008604,금오도·안도,금오도 매봉산 직벽,펄,28~30,"9물~13물, 날물 전·후",전라남도 여수시,"감성돔,갑오징어,농어,벵에돔,볼락,학공치",1
593,127.7088611,34.5318055608814,금오도·안도,금오도 야외음악당 부근,펄,7.5~9,"9물~13물, 날물 전·후",전라남도 여수시,"감성돔,도다리,노래미,붕장어,벵에돔,볼락",1
594,127.69725,34.5382222208815,금오도·안도,금오도 용두 갯바위,펄,17~19,"9물~13물, 날물 전·후",전라남도 여수시,"감성돔,도다리,노래미,붕장어,벵에돔,볼락",1
595,127.8181667,34.4970555608811,금오도·안도,안도 동고지 해안갯바위,펄,5~7,"9물~13물, 날물 전·후",전라남도 여수시,"감성돔,무늬오징어,부시리,벵에돔,볼락,참돔",1
596,127.8249722,34.4844722208809,금오도·안도,안도 칼바위,펄,4.7~5.2,"9물~13물, 날물 전·후",전라남도 여수시,"감성돔,무늬오징어,부시리,벵에돔,볼락,참돔",1
597,127.8210556,34.4761666708809,금오도·안도,안도 벼락바위,바위,3.3~4,"9물~13물, 날물 전·후",전라남도 여수시,"감성돔,무늬오징어,부시리,벵에돔,볼락,참돔",1
598,127.8023889,34.4718333308808,금오도·안도,안도 철탑 아래 갯바위,바위,5.3~6,"9물~13물, 날물 전·후",전라남도 여수시,"감성돔,무늬오징어,부시리,벵에돔,볼락,참돔",1
599,127.7965556,34.4824444408809,금오도·안도,안도 서고지 북쪽 제방 끝,펄,3.1~5,"9물~13물, 날물 전·후",전라남도 여수시,"감성돔,무늬오징어,부시리,벵에돔,볼락,참돔",1
600,128.2063056,34.8590555608853,사량도,상사량도 술미도,펄,8~10,13물~6물,경상남도 통영시,"감성돔,갑오징어,볼락,붕장어,우럭",1
601,128.2249722,34.8435277808851,사량도,상사량도 진촌항 수협 앞 선창,"자갈, 조개껍질",7.2~10.1,13물~6물,경상남도 통영시,"감성돔,농어,노래미,우럭",1
602,128.18969439619,34.8267222169256,사량도,상사량도 염소자리,자갈,7~8,7물~12물,경상남도 통영시,"감성돔,볼락,농어,우럭,참돔",1
603,128.1828889,34.8272222208849,사량도,상사량도 한탄여 부근,"자갈, 조개껍질",7~9,7물~12물,경상남도 통영시,"감성돔,볼락,농어,우럭,참돔",1
604,128.1799167,34.8314722208849,사량도,상사량도 돈지마을 남쪽 곶부리,"자갈, 조개껍질",4~5.2,13물~6물,경상남도 통영시,"감성돔,농어,벵에돔,우럭,볼락",1
605,128.178416695571,34.836138891757,사량도,상사량도 돈지항 부근 갯바위,"조개껍질, 펄",7.5~10,13물~6물,경상남도 통영시,"감성돔,농어,노래미,우럭,볼락,붕장어",1
606,128.1678056,34.8427777808851,사량도,상사량도 옥바위 부근,"펄, 모래",6.5~8.1,13물~6물,경상남도 통영시,"감성돔,농어,노래미,붕장어",1
607,128.2417778,34.835055560885,사량도,하사량도 동포 해안도로 제방,펄,2.1~3,13물~6물,경상남도 통영시,"감성돔,농어,벵에돔,우럭,볼락,참돔",1
608,128.24127779811,34.7952499975465,사량도,하사량도 레이더기지 부근 갯바위,펄,4.8~6.3,9물~13물,경상남도 통영시,"감성돔,농어,벵에돔,우럭,볼락,참돔",1
609,128.2269444,34.8005833308846,사량도,하사량도 말목섬 부근,"조개껍질, 모래, 펄",2.8~3.6,13물~6물,경상남도 통영시,"감성돔,농어,노래미,우럭,볼락,붕장어",1
610,128.2167222,34.8081944408847,사량도,하사량도 은포마을 갯바위,펄,5.9~6.3,9물~13물,경상남도 통영시,"감성돔,농어,벵에돔,우럭,볼락,참돔",1
611,128.2003611,34.8198333308848,사량도,하사량도 모자섬 부근,펄,2.7~3.5,13물~6물,경상남도 통영시,"감성돔,농어,벵에돔,우럭,볼락,참돔",1
612,128.234,34.6525833308829,욕지도,대송끝 곶부리,"펄, 모래, 조개껍질",2.8~4,5물~11물,경상남도 통영시,"감성돔,농어,무늬오징어,볼락,벵에돔,참돔",1
613,128.2425556,34.6524444408829,욕지도,목가동섬,"펄, 모래, 조개껍질",2.2~3.3,5물~11물,경상남도 통영시,"감성돔,고등어,노래미,농어,볼락,학공치",1
614,128.2649444,34.6461666708828,욕지도,모개도 부근 갯바위,"펄, 모래",7.2~10.1,5물~11물,경상남도 통영시,"감성돔,넙치,농어,전갱이,볼락,참돔",1
615,128.2799722,34.6348055608827,욕지도,야포마을 갯바위,펄,1.1~1.5,5물~11물,경상남도 통영시,"감성돔,농어,무늬오징어,볼락,벵에돔,참돔",1
616,128.2988611,34.6393333308828,욕지도,통곶지비 부근 갯바위,펄,3.1~5,5물~11물,경상남도 통영시,"감성돔,농어,무늬오징어,볼락,벵에돔,참돔",1
617,128.2878889,34.6220833308825,욕지도,노적마을 쇠고락 갯바위,바위,4~5,5물~11물,경상남도 통영시,"감성돔,농어,무늬오징어,볼락,벵에돔,참돔",1
618,128.2726389,34.6214444408826,욕지도,낮은목 부근 갯바위,바위,6~7.7,5물~11물,경상남도 통영시,"감성돔,고등어,도다리,전갱이,볼락,참돔",1
619,128.2561111,34.6211111108825,욕지도,삼여(뽕나무강정) 부근 갯바위,바위,7~8,5물~11물,경상남도 통영시,"감성돔,농어,무늬오징어,볼락,벵에돔,참돔",1
620,128.2415,34.6118611108824,욕지도,양판구미 일대,펄,12~15,5물~11물,경상남도 통영시,"감성돔,농어,무늬오징어,볼락,벵에돔,참돔",1
621,128.2355278,34.6287500008827,욕지도,고래바위 끝바리,펄,1.2~2,5물~11물,경상남도 통영시,"감성돔,농어,무늬오징어,볼락,벵에돔,참돔",1
622,128.2287222,34.6318333308827,욕지도,총바위 부근,펄,7.1~7.6,5물~11물,경상남도 통영시,"감성돔,농어,무늬오징어,볼락,벵에돔,참돔",1
623,128.3721667,34.830361110885,미륵도,대양화 제방,펄,1.1~1.5,조금 전·후,경상남도 통영시,"감성돔,농어,노래미,우럭,볼락,쥐치",1
624,128.4410833,34.8262500008848,미륵도,진송말 부근 갯바위,바위,2.8~3.5,조금 전·후,경상남도 통영시,"감성돔,농어,노래미,붕장어,볼락,우럭",1
625,128.441500000001,34.8029722208846,미륵도,이운항 동쪽 해안 갯바위,펄,1.7~2.2,조금 전·후,경상남도 통영시,"고등어,감성돔,노래미,도다리,볼락,참돔",1
626,128.4342778,34.7826944408844,미륵도,매암말 부근 갯바위,바위,3.5~4.1,조금 전·후,경상남도 통영시,"고등어,감성돔,노래미,도다리,볼락,참돔",1
627,128.364333296942,34.7966666687358,미륵도,수암말(에름바우) 부근,펄,1.2~1.5,조금 전·후,경상남도 통영시,"고등어,감성돔,농어,벵에돔,볼락,참돔",1
628,128.335555600001,34.8182500008848,미륵도,풍화리 남서측 곶부리,펄,1.9~2.6,조금 전·후,경상남도 통영시,"감성돔,농어,노래미,우럭,볼락,쥐치",1
629,128.469555600001,34.7314166708838,비진도·매물도,비진도 동북쪽 곶부리,"펄, 조개껍질",3.2~5,조금 전·후,경상남도 통영시,"감성돔,농어,무늬오징어,볼락,벵에돔,참돔",1
630,128.4670278,34.7235555608837,비진도·매물도,비진도 비둘기강정 부근 갯바위,"펄, 조개껍질",3.6~5.3,조금 전·후,경상남도 통영시,"감성돔,농어,노래미,우럭,볼락",1
631,128.467416703095,34.7083333353591,비진도·매물도,비진도 상투바위,"펄, 조개껍질",8~10,조금 전·후,경상남도 통영시,"감성돔,농어,무늬오징어,볼락,벵에돔,참돔",1
632,128.4523611,34.7045000008835,비진도·매물도,비진도 노루여 들머리 부근,펄,7.5~8.2,조금 전·후,경상남도 통영시,"감성돔,농어,무늬오징어,볼락,벵에돔,참돔",1
633,128.4474444,34.7094166708835,비진도·매물도,비진도 설품단 부근 갯바위,펄,2.5~5.8,조금 전·후,경상남도 통영시,"감성돔,넙치,농어,도다리,우럭,볼락,참돔",1
634,128.5854167,34.6401111108827,비진도·매물도,대매물도 동섬치,"펄, 모래",2.6~4.7,조금 전·후,경상남도 통영시,"감성돔,농어,돌돔,볼락",1
635,128.570583300001,34.6336111108826,비진도·매물도,대매물도 수리바위,"펄, 모래",1.4~2.1,조금 전·후,경상남도 통영시,"감성돔,돌돔,볼락,우럭",1
636,128.5656944,34.6326944408826,비진도·매물도,대매물도 촛대바위 부근,펄,5.1~5.8,조금 전·후,경상남도 통영시,"감성돔,돌돔,볼락,참돔",1
637,128.5581389,34.6351666708826,비진도·매물도,대매물도 설풍자리,"펄, 조개껍질",5~5.6,조금 전·후,경상남도 통영시,"감성돔,돌돔,벵에돔,참돔",1
638,128.569,34.6404166708827,비진도·매물도,매물도 대항 선창,"펄, 조개껍질",3.1~4.2,조금 전·후,경상남도 통영시,"감성돔,돌돔,볼락,참돔",1
639,128.5467778,34.6236944408825,비진도·매물도,소매물도 남쪽 취끝,"펄, 조개껍질",3.4~4.1,조금 전·후,경상남도 통영시,"감성돔,볼락,우럭,벵에돔",1
640,128.54575,34.6288611108826,비진도·매물도,소매물도 마을 서측 갯바위,"펄, 조개껍질",2.6~3.5,조금 전·후,경상남도 통영시,"감성돔,농어,볼락,참돔",1
641,128.715277798683,34.9587500000866,거제도 북동부,흥남해수욕장 몽돌밭,펄,1.1~1.9,조금 전·후,경상남도 거제시,"감성돔,농어,우럭,전갱이,학공치",1
642,128.720055600001,34.9105555608857,거제도 북동부,덕포 초소밑 갯바위,바위,1.5~2,조금 전·후,경상남도 거제시,"감성돔,농어,벵에돔,볼락",1
643,128.7507778,34.8940833308855,거제도 북동부,양지암 북바위,펄,3.2~4,조금 전·후,경상남도 거제시,"감성돔,우럭,볼락,참돔",1
644,128.739277800001,34.8656388908851,거제도 북동부,장승포 나래바위,펄,2.4~3.1,조금 전·후,경상남도 거제시,"감성돔,농어,벵에돔,볼락",1
645,128.5847222,34.7229722208836,거제도 남부,근포마을 곶부리,바위,2.9~3.7,조금 전·후,경상남도 거제시,"감성돔,도다리,벵에돔,우럭,볼락,참돔",1
646,128.5756111,34.7069444408834,거제도 남부,대포 계단바위,펄,10~16,조금 전·후,경상남도 거제시,"감성돔,돌돔,벵에돔,우럭,볼락,참돔",1
647,128.616222200267,34.7061388881269,거제도 남부,오포 흑산태,조개껍질,5.2~6,조금 전·후,경상남도 거제시,"감성돔,농어,벵에돔,우럭,볼락,참돔",1
648,128.6248056,34.7136944408836,거제도 남부,여차항 몽돌해수욕장 갯바위,조개껍질,3.3~5.1,조금 전·후,경상남도 거제시,"감성돔,농어,벵에돔,우럭,볼락,참돔",1
649,128.6358333,34.7093333308835,거제도 남부,여차 남쪽끝 갯바위,바위,8.5~10,조금 전·후,경상남도 거제시,"감성돔,농어,벵에돔,우럭,볼락,참돔",1
650,128.6513889,34.7345277808837,거제도 남부,함목해수욕장 갯바위,가는 모래,23~25,조금 전·후,경상남도 거제시,"감성돔,농어,벵에돔,우럭,볼락,참돔",1
651,128.681277800001,34.7371666708838,거제도 남부,해금강 도세치 끝,가는 모래,3.3~4,조금 전·후,경상남도 거제시,"감성돔,농어,벵에돔,우럭,볼락,참돔",1
652,128.643944400157,34.7566944380855,거제도 남부,오지막 해안 끝바리,펄,6.8~7.3,조금 전·후,경상남도 거제시,"감성돔,농어,벵에돔,우럭,볼락,학공치",1
653,128.638777800001,34.7688333308842,거제도 남부,학동 용바위,펄,1.7~2.2,조금 전·후,경상남도 거제시,"넙치,고등어,노래미,농어,도다리,볼락",1
654,128.6688056,34.8057777808845,거제도 남부,망치마을 곶부리,펄,2~3.2,조금 전·후,경상남도 거제시,"감성돔,농어,벵에돔,우럭,볼락,학공치",1
655,128.692055602515,34.8032499991979,거제도 남부,구조라해수욕장 호안로 갯바위,펄,1.6~2,조금 전·후,경상남도 거제시,"감성돔,고등어,농어,벵에돔,학공치,볼락,참돔",1
656,128.71475,34.7998333308844,거제도 남부,예구마을 제방 끝 갯바위,펄,1~1.4,조금 전·후,경상남도 거제시,"감성돔,고등어,농어,벵에돔,학공치,볼락,참돔",1
657,128.740444400001,34.7903888908844,거제도 남부,서이말 갯바위 일대,펄,2.9~6.1,조금 전·후,경상남도 거제시,"감성돔,고등어,농어,벵에돔,학공치,볼락,참돔",1
658,125.725861100461,37.6131111104809,연평도,시노도 갯바위,모래,0~6.3,12물~4물,인천광역시 옹진군,"광어,우럭,숭어,간재미,농어,노래미",1
659,125.719472199997,37.6043888909105,연평도,얼굴바위 앞,암,1.5~2.4,12물~4물,인천광역시 옹진군,"광어,우럭,숭어,간재미,농어,노래미",1
660,125.706527799997,37.6051666709104,연평도,감마금뿌리,암,1.5~2.0,12물~4물,인천광역시 옹진군,"광어,우럭,숭어,간재미,농어,노래미",1
661,125.682888899771,37.6396111076592,연평도,구지도 북측 갯바위,암,1.2~5.0,12물~4물,인천광역시 옹진군,"광어,우럭,숭어,간재미,농어,노래미",1
662,125.683555599996,37.663888890910705,연평도,금능해수욕장 남측 갯바위,암,-0.8~0.4,12물~4물,인천광역시 옹진군,"광어,우럭,숭어,간재미,농어,노래미",1
663,125.704972199996,37.6414444409107,연평도,검은서,펄,0~0.5,12물~4물,인천광역시 옹진군,"광어,우럭,숭어,간재미,농어,노래미",1
664,125.717666699997,37.6441111109108,연평도,모이도 갯바위,암,0.2~0.9,12물~4물,인천광역시 옹진군,"광어,우럭,숭어,간재미,농어,노래미",1
665,126.3343056,37.6500277809126,석모도,민머루해수욕장 앞 갯바위,"펄, 모래",0~2.0,초들물~중날물,인천광역시 강화군,"농어,숭어,우럭,망둥어",1
666,126.288333299999,37.7408333309133,석모도,하리낚시터 북측,펄,-3.2~-0.2,초들물~중날물,인천광역시 강화군,"농어,숭어,우럭,망둥어",1
667,126.3255556,37.7085000009132,석모도,섬돌모루,펄,-0.8~2.5,초들물~중날물,인천광역시 강화군,"농어,숭어,우럭,망둥어",1
668,126.4145833,37.5365000009117,시도,시모도 연육교,펄,-3.7~-4.5,초들물~중날물,인천광역시 옹진군,"우럭,숭어,붕장어,농어,노래미",1
669,126.407972199562,37.5263333269993,시도,조각공원 동측 갯바위,펄,-1.7~-1.5,초들물~중날물,인천광역시 옹진군,"광어,삼치,쭈꾸미,노래미,붕장어",1
670,126.4043611,37.5284444409116,시도,조각공원 서측 갯바위,펄,-1.7~-1.5,초들물~중날물,인천광역시 옹진군,"광어,삼치,쭈꾸미,노래미,붕장어",1
671,126.4017222,37.5305555609117,시도,조각공원 북측 갯바위,"자갈, 모래",0.6~3.3,초들물~중날물,인천광역시 옹진군,"광어,삼치,쭈꾸미,노래미,붕장어",1
672,126.4273889,37.5458611109118,시도,수기해변 서측 갯바위,펄,-2.6~-2.1,초들물~중날물,인천광역시 옹진군,"우럭,광어,농어,망둥어,노래미",1
673,126.438,37.5460555609118,시도,수기해변 동측 갯바위,펄,-0.5~-0.1,초들물~중날물,인천광역시 옹진군,"우럭,광어,농어,망둥어,노래미",1
674,126.472638900539,37.534638888212704,시도,신도 동측 끝단 갯바위,"펄, 모래",-4.7~-1.3,초들물~중날물,인천광역시 옹진군,"숭어,우럭,노래미,삼치",1
675,126.466694399773,37.5111388878544,시도,신도 남측 끝단 갯바위,펄,-3.2~-2.8,초들물~중날물,인천광역시 옹진군,"숭어,우럭,노래미,삼치",1
676,126.4726389,37.4986944409113,영종도·용유도,삼목수문,펄,-2.9~2.1,"들물, 날물",인천광역시 중구,"숭어,우럭,노래미,삼치,붕장어",1
677,126.4401944,37.4983333309114,영종도·용유도,모래 채집장,펄,-1.3~2.0,"들물, 날물",인천광역시 중구,"숭어,우럭,광어,노래미,삼치,붕장어",1
678,126.361388899458,37.4573611108843,영종도·용유도,왕산 갯바위,펄,-2.4~-1.1,들물,인천광역시 중구,"감성돔,노래미,삼치,붕장어,쭈꾸미",1
679,126.36516669974,37.4439444428798,영종도·용유도,을왕리 갯바위,펄,-1.7~0.1,들물,인천광역시 중구,"광어,우럭,노래미,삼치,붕장어",1
680,126.38125,37.4355833309108,영종도·용유도,선녀바위,펄,-0.5~-0.2,들물,인천광역시 중구,"광어,우럭,노래미,삼치,붕장어",1
681,126.4146667,37.4203888909107,영종도·용유도,잠진도 연육교,바위,-0.5~-0.8,들물,인천광역시 중구,"우럭,광어,숭어,농어,노래미,삼치",1
682,126.434999999625,37.421972217674,영종도·용유도,영종도 남측수문,펄,-0.5~-0.8,"들물, 날물",인천광역시 중구,"숭어,노래미,삼치,붕장어,쭈꾸미",1
683,126.442527799999,37.4210555609107,영종도·용유도,영종도 남측제방 초소,펄,-3.1~-0.5,들물,인천광역시 중구,"숭어,노래미,삼치,붕장어,쭈꾸미",1
684,126.4081111,37.4123611109106,무의도,무의도 곶부리,"모래, 펄",-2.0~0.3,중들물~중날물,인천광역시 중구,"광어,숭어,붕장어,우럭,농어",1
685,126.3940833,37.4008333309105,무의도,실미도해변 갯바위,"모래, 펄",-2.5~-1.0,중들물~중날물,인천광역시 중구,"농어,광어,삼치,우럭,노래미,붕장어",1
686,126.3891944,37.4026111109106,무의도,실미도북서측 갯바위,"모래, 펄",-2.5~0.4,중들물~중날물,인천광역시 중구,"농어,광어,삼치,우럭,노래미,붕장어",1
687,126.4428611,37.3745833309103,무의도,때무리 동측 갯바위,"펄, 모래",0.1~2.5,중들물~중날물,인천광역시 중구,"광어,삼치,쭈꾸미,노래미,붕장어",1
688,126.323361099999,36.5989166709032,안면도 북부,연육교,펄,-2.3~-3.3,초들물~중날물,충청남도 태안군,"우럭,노래미,학꽁치,광어,숭어,도다리",1
689,126.325138899793,36.5093333324397,안면도 북부,방포해변 북측 갯바위,암,1.1~1.4,초들물~중날물,충청남도 태안군,"우럭,노래미,학꽁치,광어,숭어,도다리",1
690,126.331055599999,36.5015000009023,안면도 북부,할미할아비 바위,"모래, 펄",-3.5~-3.7,초들물~중날물,충청남도 태안군,"우럭,노래미,학꽁치,광어,숭어,도다리",1
691,126.3751944,36.596888890903294,안면도 북부,황도 연육교 아래,펄,-6.2~-2.8,초들물~중날물,충청남도 태안군,"우럭,노래미,학꽁치,광어,숭어,도다리",1
692,126.333750000576,36.4431666676765,안면도 남 부,샛별 해수욕장 남측 갯바위,암,0.4~0.9,중들물~중날물,충청남도 태안군,"우럭,노래미,학꽁치,광어,숭어,도다리",1
693,126.3323333,36.4380555609017,안면도 남 부,망재,"모래, 펄",0.4~0.9,중들물~중날물,충청남도 태안군,"우럭,노래미,학꽁치,광어,숭어,도다리",1
694,126.33625,36.4391666709018,안면도 남 부,망재 곶부리,"모래, 펄",0.4~0.9,중들물~중날물,충청남도 태안군,"우럭,노래미,학꽁치,광어,숭어,도다리",1
695,126.3514722,36.4255277809017,안면도 남 부,운여 해변 남측 갯바위,"모래, 펄",0.4~0.9,중들물~중날물,충청남도 태안군,"우럭,노래미,학꽁치,광어,숭어,도다리",1
696,126.362249999999,36.4155277809015,안면도 남 부,장삼포 해변 남측 갯바위,"모래, 펄",0.4~0.9,중들물~중날물,충청남도 태안군,"우럭,노래미,학꽁치,광어,숭어,도다리",1
697,126.370027799999,36.4122777809015,안면도 남 부,장곳 갯바위,모래,0.4~0.9,중들물~중날물,충청남도 태안군,"우럭,노래미,학꽁치,광어,숭어,도다리",1
698,126.434916700067,36.4641388898955,안면도 남 부,사도 갯바위,암,0.6~1.5,중들물~중날물,충청남도 태안군,"우럭,광어,숭어,농어,노래미,삼치",1
699,126.4309444,36.3980555609013,안면도 남 부,소도 갯바위,모래,0.3~1.8,중들물~중날물,충청남도 보령시,"숭어,노래미,삼치,붕장어,쭈꾸미",1
700,126.4363611,36.4051666709015,안면도 남 부,추도 갯바위,암,0.1~0.9,중들물~중날물,충청남도 보령시,"숭어,노래미,삼치,붕장어,쭈꾸미",1
701,126.087416699999,36.6806666709037,가의도,코끼리 바위 남측 갯바위,암,1.8~2.0,상관없음,충청남도 태안군,"우럭,노래미,고등어,광어,쭈꾸미,학꽁치",1
702,126.081472199999,36.6724083309037,가의도,동남측 첫번째 곶부리,암,2.2~5.0,상관없음,충청남도 태안군,"우럭,노래미,고등어,광어,쭈꾸미,학꽁치",1
703,126.074583299999,36.6702777809037,가의도,동남측 두번째 곶부리,암,2.4~2.5,상관없음,충청남도 태안군,"우럭,노래미,고등어,광어,쭈꾸미,학꽁치",1
704,126.071527799999,36.6730833309036,가의도,작은 마을 동측 안통,암,2.4~5.0,상관없음,충청남도 태안군,"우럭,노래미,고등어,광어,쭈꾸미,학꽁치",1
705,126.054666699438,36.6679722214431,가의도,남측 해변 동측 갯바위,암,2.8~4.1,상관없음,충청남도 태안군,"우럭,노래미,고등어,광어,쭈꾸미,학꽁치",1
706,126.050861099999,36.6679722209036,가의도,남측 끝단 갯바위,암,2.8~3.1,상관없음,충청남도 태안군,"우럭,노래미,고등어,광어,쭈꾸미,학꽁치",1
707,126.048138899999,36.6719722209035,가의도,서측 끝단 갯바위,"펄, 모래",3.1~7.2,상관없음,충청남도 태안군,"우럭,노래미,고등어,광어,쭈꾸미,학꽁치",1
708,126.080472199992,36.6886388892363,가의도,북측 갯바위,"펄, 모래",2.1~7.0,상관없음,충청남도 태안군,"우럭,노래미,고등어,광어,쭈꾸미,학꽁치",1
709,126.082555600397,36.6920277769538,가의도,북측 끝단 갯바위,"펄, 모래",4.0~7.0,상관없음,충청남도 태안군,"우럭,노래미,고등어,광어,쭈꾸미,학꽁치",1
710,126.086444399999,36.6901944409038,가의도,북측 해변 옆 갯바위,암,0.4~3.1,상관없음,충청남도 태안군,"우럭,노래미,고등어,광어,쭈꾸미,학꽁치",1
711,126.089638900369,36.6825277818841,가의도,코끼리 바위,암,1.3~2.4,상관없음,충청남도 태안군,"우럭,노래미,고등어,광어,쭈꾸미,학꽁치",1
712,126.5520278,36.0330277808978,개야도,발전소 아래 갯바위,"모래, 펄",1.7~1.4,초들물~중날물,전라북도 군산시,"망농어,부세,감성돔,백조기",1
713,126.5584167,36.0262500008978,개야도,작은여 등대 갯바위,"모래, 펄",1.3~4.3,날물,전라북도 군산시,"망농어,부세,감성돔,백조기",1
714,126.5477778,36.0343611108979,개야도,작은철탑부근 묘지 아래 갯바위,"모래, 펄",1.4~2.0,초들물~중날물,전라북도 군산시,"망농어,부세,감성돔,백조기",1
715,126.538805600465,36.0370833318861,개야도,사수건 철탑 갯바위,"모래, 펄",1.2~2.0,초들물~중날물,전라북도 군산시,"망농어,부세,감성돔,백조기",1
716,126.5344444,36.0349166708978,개야도,개야 사수건 등대,"모래, 펄",2.0~4.0,초들물~중날물,전라북도 군산시,"망농어,부세,감성돔,백조기",1
717,126.530916700496,36.0360833271367,개야도,죽도 동측 갯바위,암,1.2~1.5,초들물~중날물,전라북도 군산시,"망농어,부세,감성돔,백조기",1
718,126.522555599999,36.0343055608978,개야도,치도 남측 갯바위,"모래, 펄",1.9~4.4,초들물~중날물,전라북도 군산시,"망농어,부세,감성돔,백조기",1
719,126.5137222,36.0359166708978,개야도,에게이 등대 남측 갯바위,"모래, 펄",1.3~1.7,초들물~중날물,전라북도 군산시,"망농어,부세,감성돔,백조기",1
720,126.5130833,36.0364166708979,개야도,에게이 서측 갯바위,"모래, 펄",1.3~1.7,초들물~중날물,전라북도 군산시,"농어,부세,감성돔,백조기",1
721,126.5254167,36.0393888908979,개야도,치섬 북측 갯바위,"모래, 펄",1.2~2.0,초들물~중날물,전라북도 군산시,"농어,부세,감성돔,백조기",1
722,126.5226667,36.0358055608979,개야도,죽도 서측 갯바위,"모래, 펄",0~1.9,초들물~중날물,전라북도 군산시,"농어,부세,감성돔,백조기",1
723,126.528749999976,36.0415277808725,개야도,죽도 북측 등대 부근 갯바위,"모래, 펄",0~2.3,초들물~중날물,전라북도 군산시,"농어,부세,감성돔,백조기",1
724,126.540694399999,36.0383333308979,개야도,작은 철탑 북측 갯바위,암,0~0.4,초들물~중날물,전라북도 군산시,"농어,부세,감성돔,백조기",1
725,126.5435556,36.042555560898,개야도,장골 갯바위,암,-0.2~-0.3,초들물~중날물,전라북도 군산시,"농어,부세,감성돔,백조기",1
726,126.544277799993,36.0449999996545,개야도,장골 북측 갯바위,암,-0.3~-0.9,초들물~중날물,전라북도 군산시,"농어,부세,감성돔,백조기",1
727,126.5396111,36.0450555608979,개야도,장구섬 서측 갯바위,암,0~1.0,초들물~중날물,전라북도 군산시,"농어,부세,감성돔,백조기",1
728,126.5421111,36.052516670898,개야도,안청강여 등대 갯바위,암,0~1.8,날물,전라북도 군산시,"농어,부세,감성돔,백조기",1
729,126.012361099999,35.3397777808901,안마도·석만도,긴 둑 밑 갯바위,"펄, 모래",1.2~1.5,들물/날물,전라남도 영광군,"붕장어,우럭,노래미,농어,민어,광어",1
730,126.013999999999,35.33175000089,안마도·석만도,문 끝 갯바위,암,1.9~3.3,들물/날물,전라남도 영광군,"붕장어,우럭,노래미,농어,민어,광어",1
731,126.021444399998,35.33608333089,안마도·석만도,쌀썩은여 갯바위,암,0.1~0.3,들물/날물,전라남도 영광군,"붕장어,우럭,노래미,농어,민어,광어",1
732,126.030722199999,35.3349444408901,안마도·석만도,쌀썩은여 좌측부근 갯바위,펄,0.4~5.3,들물/날물,전라남도 영광군,"광어,우럭,노래미,삼치,붕장어",1
733,126.041499999999,35.3468055608903,안마도·석만도,노랑여(옛멸터) 부근,펄,3.8~5.2,들물/날물,전라남도 영광군,"붕장어,우럭,노래미,농어,민어,광어",1
734,126.059999999999,35.3624444408904,안마도·석만도,똥섬 갯바위,펄,4.8~5.8,들물/날물,전라남도 영광군,"간재미,노래미,붕장어,우럭,민어,광어",1
735,126.060249999999,35.3647777808904,안마도·석만도,똥섬 부근 갯바위,펄,2.6~6.0,들물/날물,전라남도 영광군,"간재미,노래미,붕장어,우럭,민어,광어",1
736,126.434999999999,37.4219722209108,안마도·석만도,나룻방 밑 갯바위,암,2.6~6.0,들물/날물,인천광역시 중구,"간재미,노래미,붕장어,우럭,민어,광어",1
737,126.057527799999,35.3725000008905,안마도·석만도,쎄지기 앞 갯바위,암,2.6~6.0,들물/날물,전라남도 영광군,"간재미,노래미,붕장어,우럭,민어,광어",1
738,126.053833299999,35.3755000008906,안마도·석만도,우물밑 우측 갯바위,펄,2.6~6.0,들물/날물,전라남도 영광군,"간재미,노래미,붕장어,우럭,민어,광어",1
739,126.042333299999,35.3736111108904,안마도·석만도,우물밑 갯바위,고운모래,5.6~9.4,들물/날물,전라남도 영광군,"간재미,노래미,붕장어,우럭,민어,광어",1
740,126.041277800001,35.3707222181112,안마도·석만도,우물밑 좌측 갯바위,펄,6.2~6.8,들물/날물,전라남도 영광군,"간재미,노래미,붕장어,우럭,민어,광어",1
741,126.030055599999,35.3598333308903,안마도·석만도,철탑 밑 갯바위,펄,4.1~9.5,들물/날물,전라남도 영광군,"붕장어,우럭,민어,광어,농어,노래미",1
742,126.020861099999,35.3641388908903,안마도·석만도,논골 끝 갯바위,"자갈, 조개껍질",6.4~8.0,들물/날물,전라남도 영광군,"붕장어,우럭,민어,광어,농어,노래미",1
743,126.007027799999,35.3604166708903,안마도·석만도,장재여 부근 갯바위,암,13.9~14.0,들물/날물,전라남도 영광군,"붕장어,우럭,민어,광어,농어,노래미",1
744,125.995999999999,35.3567000008902,안마도·석만도,근여 부근 갯바위,"펄, 모래",6.8~17.0,들물/날물,전라남도 영광군,"우럭,농어,문어,붕장어,광어,노래미",1
745,126.1529167,35.2832500008897,송이도,검은바위 갯바위,암,1.4~1.5,들물/날물,전라남도 영광군,"감성돔,민어,숭어,농어,붕장어,우럭",1
746,126.151722199922,35.2888611131497,송이도,양골앞 갯바위,암,1.5~2.5,들물/날물,전라남도 영광군,"감성돔,민어,숭어,농어,붕장어,우럭",1
747,126.1388611,35.2927500008897,송이도,큰내기 좌측 갯바위,암,0~2.0,들물/날물,전라남도 영광군,"감성돔,민어,숭어,농어,붕장어,우럭",1
748,126.140249999502,35.295166673843,송이도,큰내기 우측 갯바위,암,0~2.0,들물/날물,전라남도 영광군,"감성돔,민어,숭어,농어,붕장어,우럭",1
749,126.141111099696,35.3000000012544,송이도,큰매리 갯바위,암,2.0~5.0,들물/날물,전라남도 영광군,"감성돔,민어,숭어,농어,붕장어,우럭",1
750,126.142055599984,35.2778055638949,송이도,이미 앞바다,펄,-0.4~-0.2,5물~9물,전라남도 영광군,"볼락,고등어,벵에돔,볼락,고등어,벵에돔",1
751,126.144305599999,35.2702777808896,송이도,민머리,펄,-0.4~0.4,5물~9물,전라남도 영광군,"볼락,고등어,벵에돔,볼락,고등어,벵에돔",1
752,126.163666699999,35.1451666708882,임자도·사옥도,삼봉끝 등대,암,0.1~5.3,초들물~중날물,전라남도 신안군,"감성돔,노래미,민어,붕장어,우럭,광어,농어,백조기",1
753,126.101638899999,35.1311388908879,임자도·사옥도,어유미도,모래,1.4~5.0,초들물~중날물,전라남도 신안군,"감성돔,노래미,민어,붕장어,우럭,광어,농어,백조기",1
754,126.123305599999,35.0766111108873,임자도·사옥도,광산리 서측끝단,펄,2.1~5.1,초들물~중날물,전라남도 신안군,"감성돔,노래미,민어,붕장어,우럭,광어,농어,백조기",1
755,126.058111099999,35.0569444408871,임자도·사옥도,임자도 남서측 곶부리,모래,0.8~2.9,초들물~중날물,전라남도 신안군,"감성돔,노래미,민어,붕장어,우럭,광어,농어,백조기",1
756,126.076916700219,35.0533055634046,임자도·사옥도,옥섬,모래,0.1~0.9,초들물~중날물,전라남도 신안군,"감성돔,노래미,민어,붕장어,우럭,광어,농어,백조기",1
757,126.085166699999,35.052194440887,임자도·사옥도,대중끝,모래,0.2~0.3,초들물~중날물,전라남도 신안군,"감성돔,노래미,민어,붕장어,우럭,광어,농어,백조기",1
758,126.095388899999,35.047972220887,임자도·사옥도,딴섬 부근,암,0.9~2.0,초들물~중날물,전라남도 신안군,"감성돔,노래미,민어,붕장어,우럭,광어,농어,백조기",1
759,126.106555599999,35.0514166708871,임자도·사옥도,대두끝 갯바위,암,1.7~3.6,초들물~중날물,전라남도 신안군,"감성돔,노래미,민어,붕장어,우럭,광어,농어,백조기",1
760,126.126055600446,35.0375277788945,임자도·사옥도,외교도 등대포인트,암,0.6~2.0,초들물~중날물,전라남도 신안군,"감성돔,노래미,민어,붕장어,우럭,광어,농어,백조기",1
761,126.058111099999,35.0569444408871,임자도·사옥도,고동섬 갯바위,암,0.5~2.0,초들물~중날물,전라남도 신안군,"감성돔,노래미,민어,붕장어,우럭,광어,농어,백조기",1
762,126.058111100008,35.0569444379578,임자도·사옥도,고래미,암,2.0~2.8,초들물~중날물,전라남도 신안군,"감성돔,노래미,민어,붕장어,우럭,광어,농어,백조기",1
763,126.16872220039,35.0260277780835,임자도·사옥도,증도대교 북단,암,2.8~5.0,초들물~중날물,전라남도 신안군,"감성돔,노래미,민어,붕장어,우럭,광어,농어,백조기",1
764,126.29594444,34.9294000008859,고이도·매화도·선도·증도,대식도 갯바위,모래,0.4~1.9,초들물~중날물,전라남도 신안군,"감성돔,노래미,광어,숭어,우럭,붕장어,도다리,농어",1
765,126.275999999851,34.9269999992245,고이도·매화도·선도·증도,소정섬 포인트,자갈,0.4~1.9,초들물~중날물,전라남도 신안군,"감성돔,노래미,광어,숭어,우럭,붕장어,도다리,농어",1
766,126.252138899999,34.9615277808862,고이도·매화도·선도·증도,삼섬 포인트,"펄, 모래",1.6~2.3,초들물~중날물,전라남도 신안군,"감성돔,노래미,광어,숭어,우럭,붕장어,도다리,농어",1
767,126.273583299999,34.9703055608863,고이도·매화도·선도·증도,고이도 북측 끝단여,"펄, 모래",0~2.0,초들물~중날물,전라남도 신안군,"감성돔,노래미,광어,숭어,우럭,붕장어,도다리,농어",1
768,126.287999999999,34.9634444448863,고이도·매화도·선도·증도,고이도 서측 철탑밑,"펄, 모래",0.8~1.7,초들물~중날물,전라남도 신안군,"감성돔,노래미,광어,숭어,우럭,붕장어,도다리,농어",1
769,126.3004722,34.9382222208859,고이도·매화도·선도·증도,고이도 남측 철탑 밑,모래,0.8~2.7,초들물~중날물,전라남도 신안군,"감성돔,노래미,광어,숭어,우럭,붕장어,도다리,농어",1
770,126.212555599999,34.9185277808856,고이도·매화도·선도·증도,마당여 갯바위,"모래, 조개껍질",0~2.5,초들물~중날물,전라남도 신안군,"감성돔,노래미,광어,숭어,우럭,붕장어,도다리,농어",1
771,126.2126667,34.9209722208857,고이도·매화도·선도·증도,둔벙여 갯바위,"모래, 조개껍질",0~3.6,초들물~중날물,전라남도 신안군,"감성돔,노래미,광어,숭어,우럭,붕장어,도다리,농어",1
772,126.2098611,34.9230000008858,고이도·매화도·선도·증도,침해섬 포인트,"모래, 조개껍질",0~3.5,초들물~중날물,전라남도 신안군,"감성돔,노래미,광어,숭어,우럭,붕장어,도다리,농어",1
773,126.2493889,34.9525555608861,고이도·매화도·선도·증도,마산도 선창,"펄, 모래",0~2.9,초들물~중날물,전라남도 신안군,"감성돔,노래미,광어,숭어,우럭,붕장어,도다리,농어",1
774,126.24686109983,35.0062222222101,고이도·매화도·선도·증도,부사도 갯바위,펄,2.0~6.2,초들물~중날물,전라남도 신안군,"감성돔,노래미,광어,숭어,우럭,붕장어,도다리,농어",1
775,126.2597222,35.0068333308868,고이도·매화도·선도·증도,선도북측 선창,펄,0~5.0,초들물~중날물,전라남도 신안군,"감성돔,노래미,광어,숭어,우럭,붕장어,도다리,농어",1
776,126.114944399999,35.0179166708867,고이도·매화도·선도·증도,나룻구지,"펄, 모래",0.8~1.7,초들물~중날물,전라남도 신안군,"감성돔,노래미,광어,숭어,우럭,붕장어,도다리,농어",1
777,126.101138899999,35.0080555608865,고이도·매화도·선도·증도,도둑섬 포인트,"펄, 모래",0.1~1.7,초들물~중날물,전라남도 신안군,"감성돔,노래미,광어,숭어,우럭,붕장어,도다리,농어",1
778,126.097611099999,35.0000000008865,고이도·매화도·선도·증도,해저유물 포인트,펄,0~3.8,초들물~중날물,전라남도 신안군,"감성돔,노래미,광어,숭어,우럭,붕장어,도다리,농어",1
779,126.107055599999,34.9935000008864,고이도·매화도·선도·증도,검산항,펄,0.3~1.5,초들물~중날물,전라남도 신안군,"감성돔,노래미,광어,숭어,우럭,붕장어,도다리,농어",1
780,126.121250000192,34.9977222239325,고이도·매화도·선도·증도,오산항,펄,0~1.2,초들물~중날물,전라남도 신안군,"감성돔,노래미,광어,숭어,우럭,붕장어,도다리,농어",1
781,126.133138899999,34.9633611108861,고이도·매화도·선도·증도,오징어바위,펄,1.1~1.4,초들물~중날물,전라남도 신안군,"감성돔,노래미,광어,숭어,우럭,붕장어,도다리,농어",1
782,126.127166699999,34.954750000886,고이도·매화도·선도·증도,왕바위,펄,1.7~2.0,초들물~중날물,전라남도 신안군,"감성돔,노래미,광어,숭어,우럭,붕장어,도다리,농어",1
783,126.1813611,34.9967222208866,고이도·매화도·선도·증도,염산 선창,펄,0~3.2,초들물~중날물,전라남도 신안군,"감성돔,노래미,광어,숭어,우럭,붕장어,도다리,농어",1
784,126.124749999999,35.0238888908868,고이도·매화도·선도·증도,버지 선창,펄,0~0.3,초들물~중날물,전라남도 신안군,"감성돔,노래미,광어,숭어,우럭,붕장어,도다리,농어",1
785,126.065583299999,34.8568055608848,자은도,남진 선창,암,0~1.5,초들물~중날,전라남도 신안군,"감성돔,숭어,농어",1
786,126.0572222003,34.9342777817475,자은도,상장고지단 갯바위,펄,1.8~1.9,초들물~중날,전라남도 신안군,"감성돔,숭어,농어",1
787,125.968916699999,34.8714722208847,자은도,진서말,"펄, 모래",0~5.0,초들물~중날,전라남도 신안군,"감성돔,숭어,농어",1
788,126.1219444,34.8812777808852,암태도,익금해변 갯바위,펄,0.2~0.7,초들물~중날물,전라남도 신안군,"감성돔,숭어,농어",1
789,126.108638899999,34.8775000008851,암태도,익금마을 선창,암,0.4~3.4,초들물~중날물,전라남도 신안군,"감성돔,숭어,농어",1
790,126.118416699999,34.8005833308843,암태도,중앙대교 북단,암,0~5.5,초들물~중날물,전라남도 신안군,"감성돔,숭어,농어",1
791,126.35002779979,34.8985000040617,압해도,복용리해안 철탑 밑,펄,1.7~2.1,초들물~중날물,전라남도 신안군,"감성돔,노래미,농어,볼락,붕장어,우럭",1
792,126.343638899999,34.8992500008856,압해도,복용리 해안,펄,0.7~2.1,초들물~중날물,전라남도 신안군,"감성돔,노래미,농어,볼락,붕장어,우럭",1
793,126.087694400407,34.7870277803424,안좌도·팔금도,사근마을 곶부리,펄,0~4.1,초들물~중날물,전라남도 신안군,"감성돔,숭어,농어",1
794,126.132166699999,34.7676388908839,안좌도·팔금도,신안교 동단,암,3.9~9.0,초들물~중날물,전라남도 신안군,"볼락,고등어,볼락,고등어",1
795,126.141249999999,34.7609722208838,안좌도·팔금도,우이산 철탑 아래,"펄, 모래",-1.1~0,초들물~중날물,전라남도 신안군,"볼락,고등어,볼락,고등어",1
796,126.127749999999,34.7666111108838,안좌도·팔금도,신안교 서단,암,0~1.3,초들물~중날물,전라남도 신안군,"감성돔,숭어,농어",1
797,125.856472199998,34.6283055608817,우이도,달밭밑,암,0.3~3.4,3물~4물,전라남도 신안군,"감성돔,노래미,농어,우럭",1
798,125.809194400158,34.6223611098271,우이도,성촌,암,5.0~7.6,3물~5물,전라남도 신안군,"감성돔,노래미,우럭",1
799,125.803055599998,34.6178888908814,우이도,소래등대 밑,암,4.4~5.0,조금 전후,전라남도 신안군,"감성돔,노래미,농어,우럭,붕장어",1
800,125.811444399578,34.5966944380767,우이도,큰밭 갯바위,"자갈, 암",10.1~11.2,조금 전후,전라남도 신안군,"노래미,우럭,붕장어",1
801,125.862027799799,34.6058055599138,우이도,딴목섬 갯바위,펄,9.5~10.0,조금 전후,전라남도 신안군,"감성돔,노래미,농어,우럭,붕장어",1
802,125.859833299998,34.6112500008815,우이도,선창구미,"펄, 자갈",0.3~0.9,상관없음,전라남도 신안군,"노래미,붕장어",1
803,125.864166699998,34.6233333308816,우이도,가도 북측 갯바위,암,4.4~8.8,조금 전후,전라남도 신안군,"감성돔,노래미,붕장어,우럭",1
804,125.867666699998,34.6172777808816,우이도,송도 북측 갯바위,자갈,8.1~8.5,조금 전후,전라남도 신안군,"노래미,농어,붕장어,우럭",1
805,125.869055599998,34.6135833308815,우이도,송도 남측 갯바위,자갈,1.5~5.4,조금 전후,전라남도 신안군,"노래미,농어,붕장어",1
806,126.155194400052,34.672305559578,장산도,발막금,자갈,0.1~2.0,조금 전후,전라남도 신안군,"감성돔,농어,붕장어",1
807,126.188583299723,34.6615555639828,장산도,차돌이,암,2.1~5.0,조금 전후,전라남도 신안군,"감성돔,농어,붕장어",1
808,126.2040833,34.6353333308824,장산도,진섬 갯바위,자갈,-1.2~-0.9,조금 전후,전라남도 신안군,"감성돔,농어,붕장어",1
809,126.127138899999,34.6145000008822,장산도,소류지,펄,-0.6~2.0,조금 전후,전라남도 신안군,"감성돔,농어,붕장어",1
810,126.110694399999,34.6493611108825,장산도,가세 섬,"펄, 모래",-1.9~2.9,조금 전후,전라남도 신안군,"감성돔,농어,붕장어",1
811,126.001999999881,34.6405833289971,개도·하의도·신의도,개도 서측 갯바위,펄,0~4.0,조금 전후,전라남도 신안군,"농어,붕장어,감성돔",1
812,126.102666699999,34.5551944408814,개도·하의도·신의도,버러기미,"펄, 암",3.8~5.0,조금 전후,전라남도 신안군,"농어,붕장어,감성돔",1
813,126.028583299999,34.533583330881,개도·하의도·신의도,깊은기미,"펄, 모래",0~6.4,조금 전후,전라남도 신안군,"농어,붕장어,감성돔",1
814,126.022638899999,34.5645833308814,개도·하의도·신의도,파장여,"펄, 자갈",4.3~6.1,조금 전후,전라남도 신안군,"농어,붕장어,감성돔",1
815,126.054916699995,34.6043611109691,개도·하의도·신의도,거북바위,펄,2.2~5.8,조금 전후,전라남도 신안군,"농어,붕장어,감성돔",1
816,126.054666699999,34.4981388908806,가사도,가사도 북측 갯바위,암,2.1~4.5,5물~9물,전라남도 진도군,"감성돔,갑오징어,우럭,농어,볼락,노래미",1
817,126.047861100214,34.4941944369337,가사도,채석장 갯바위,암,2.1~3.3,5물~9물,전라남도 진도군,"감성돔,갑오징어,우럭,농어,볼락,노래미",1
818,126.032638899999,34.4840277808804,가사도,작은모래땅 갯바위,암,3.5~8.2,5물~9물,전라남도 진도군,"감성돔,갑오징어,우럭,농어,볼락,노래미",1
819,126.041972199998,34.4594722208802,가사도,항로표지관리소 밑,암,-0.2~1.8,5물~9물,전라남도 진도군,"감성돔,갑오징어,우럭,농어,볼락,노래미",1
820,126.2335833,34.5351666708813,진도 북부,군내방조제,펄,0~0.6,초들물~중날물,전라남도 진도군,"돌돔,감성돔,우럭,열기,참돔,숭어,노래미",1
821,126.267527799999,34.3795277808795,진도 남동부,현목항 선창,암,-0.4~0.2,초들물~중날물,전라남도 진도군,"돌돔,감성돔,우럭,열기,참돔,숭어,노래미",1
822,126.283638899999,34.3889722208797,진도 남동부,접도리 선창,펄,0~0.7,초들물~중날물,전라남도 진도군,"돌돔,감성돔,우럭,열기,참돔,숭어,노래미",1
823,126.131861100431,34.3593888936045,진도 남서부,백미도 부근 갯바위,암,2.4~3.2,초들물~중날물,전라남도 진도군,"벵에돔,갑오징어,볼락,부시리,농어,노래미",1
824,126.054899999999,34.3216000008786,상조도·하조도·관매도,당도 안통,암,0~0.2,초들물~중날물,전라남도 진도군,"감성돔,참돔,노래미,돌돔,도다리,우럭",1
825,126.026611099638,34.342611107037,상조도·하조도·관매도,상조도 북측 철탑 아래,고운모래,1.4~2.5,초들물~중날물,전라남도 진도군,"감성돔,참돔,노래미,돌돔,도다리,우럭",1
826,126.021416699998,34.357444440879,상조도·하조도·관매도,옥도 동쪽 곶부리,"자갈, 모래",1.7~4.6,초들물~중날물,전라남도 진도군,"감성돔,참돔,노래미,돌돔,도다리,우럭",1
827,126.014972199999,34.360388890879,상조도·하조도·관매도,옥도 북측 갯바위,"자갈, 모래",3.7~4.1,초들물~중날물,전라남도 진도군,"감성돔,참돔,노래미,돌돔,도다리,우럭",1
828,125.995777799998,34.3266388908785,상조도·하조도·관매도,상조도 서쪽 둥근바위,"자갈, 모래",4.0~7.8,초들물~중날물,전라남도 진도군,"감성돔,참돔,노래미,돌돔,도다리,우럭",1
829,126.039083300215,34.319027784686,상조도·하조도·관매도,조도대교 남단,"자갈, 조개껍질",1.2~4.1,초들물~중날물,전라남도 진도군,"감성돔,참돔,노래미,돌돔,도다리,우럭",1
830,126.088166699999,34.3115833308785,상조도·하조도·관매도,하조도 등대,암,1.9~5.4,초들물~중날물,전라남도 진도군,"감성돔,참돔,노래미,돌돔,도다리,우럭",1
831,126.096805599999,34.3020000008784,상조도·하조도·관매도,흑여(낚시배),암,1.9~5.1,초들물~중날물,전라남도 진도군,"감성돔,참돔,노래미,돌돔,도다리,우럭",1
832,126.094999999999,34.2755000008781,상조도·하조도·관매도,하조도 매동여(낚시배),"펄, 조개껍질",0.6~2.2,초들물~중날물,전라남도 진도군,"감성돔,참돔,노래미,돌돔,도다리,우럭",1
833,126.055138899999,34.272194440878,상조도·하조도·관매도,수옥도 갯바위,"자갈, 조개껍질",0.8~1.6,초들물~중날물,전라남도 진도군,"감성돔,참돔,노래미,돌돔,도다리,우럭",1
834,126.015833300432,34.2920277830097,상조도·하조도·관매도,하조도 물치끝(낚시배 이용),암,0.1~3.,초들물~중날물,전라남도 진도군,"감성돔,참돔,노래미,돌돔,도다리,우럭",1
835,126.026944399999,34.3122222208783,상조도·하조도·관매도,명지마을 해안도로,"자갈, 조개껍질",0~0.1,초들물~중날물,전라남도 진도군,"감성돔,참돔,노래미,돌돔,도다리,우럭",1
836,126.054111099999,34.2571944408778,상조도·하조도·관매도,각흘도 갯바위(낚시배),암,0.2~4.1,초들물~중날물,전라남도 진도군,"감성돔,돌돔,참돔,도다리,노래미,우럭",1
837,126.067305599999,34.2377500008776,상조도·하조도·관매도,장산넘어 어장줄 자리,펄,0.5~3.7,초들물~중날물,전라남도 진도군,"감성돔,돌돔,참돔,도다리,노래미,우럭",1
838,126.072972199999,34.2330833308775,상조도·하조도·관매도,신의도 갯바위,펄,0.8~5.5,초들물~중날물,전라남도 진도군,"감성돔,돌돔,참돔,도다리,노래미,우럭",1
839,126.057166700447,34.2249722169502,상조도·하조도·관매도,형제도 앞,펄,2.2~3.2,초들물~중날물,전라남도 진도군,"감성돔,돌돔,참돔,도다리,노래미,우럭",1
840,126.036749999999,34.2218333308773,상조도·하조도·관매도,고치여 하늘다리 주변,자갈,3.6~4.2,초들물~중날물,전라남도 진도군,"감성돔,돌돔,참돔,도다리,노래미,우럭",1
841,126.025472199999,34.2306388908774,상조도·하조도·관매도,관매도 서측 곶부리,자갈,0.9~3.1,초들물~중날물,전라남도 진도군,"감성돔,돌돔,참돔,도다리,노래미,우럭",1
842,126.048722199999,34.2525277808777,상조도·하조도·관매도,관매도 해수욕장 갯바위,암,2.7~5.0,초들물~중날물,전라남도 진도군,"감성돔,돌돔,참돔,도다리,노래미,우럭",1
843,125.122916699983,34.0471111108675,가거도,녹섬 갯바위,펄,1.7~4.6,초들물~중날물,전라남도 신안군,"농어,노래미,돌돔,볼락,우럭",1
844,125.118638899983,34.0511944408674,가거도,큰여,펄,10.6~16.9,초들물~중날물,전라남도 신안군,"감성돔,노래미,농어,학꽁치,볼락,우럭,부시리",1
845,125.111527799983,34.0643055608674,가거도,오구멍박벌 갯바위,"펄, 모래",1.8~3.3,초들물~중날물,전라남도 신안군,"부시리,노래미,농어,볼락,우럭",1
846,125.09519440041,34.0631944399665,가거도,간서 갯바위,암,5.7~13.7,초들물~중날물,전라남도 신안군,"감성돔,노래미,농어,학꽁치,우럭,돌돔,부시리",1
847,125.098055599982,34.0713611108672,가거도,목난개 갯바위,암,4.5~7.6,초들물~중날물,전라남도 신안군,"부시리,노래미,농어,볼락,우럭",1
848,125.094638899981,34.0703611108671,가거도,대리취,암,9.6~13.3,초들물~중날물,전라남도 신안군,"감성돔,노래미,참돔,농어,볼락,우럭,돌돔",1
849,125.088055600223,34.073083326364,가거도,노랑섭날 갯바위,암,3.0~9.7,초들물~중날물,전라남도 신안군,"감성돔,노래미,참돔,농어,볼락,우럭,돌돔,부시리",1
850,125.083527799981,34.0753888908669,가거도,성건여,암,1.3~5.2,초들물~중날물,전라남도 신안군,"감성돔,노래미,참돔,농어,볼락,우럭,돌돔,부시리",1
851,125.095694399982,34.0856388908673,가거도,바둑바위,"펄, 모래",1.0~5.8,초들물~중날물,전라남도 신안군,"감성돔,노래미,참돔,농어,볼락,우럭,돌돔,부시리",1
852,125.09800000042,34.0962777788968,가거도,칼바위,암,4.0~7.8,초들물~중날물,전라남도 신안군,"감성돔,노래미,참돔,농어,볼락,우럭,돌돔,부시리",1
853,125.103694399982,34.0948333308676,가거도,멍신여,암,2.6~9.4,초들물~중날물,전라남도 신안군,"감성돔,노래미,참돔,농어,볼락,우럭,돌돔,부시리",1
854,125.111555599469,34.0917777826587,가거도,장개다랑 갯바위,암,3.9~4.1,초들물~중날물,전라남도 신안군,"감성돔,노래미,참돔,농어,볼락,우럭,돌돔,부시리",1
855,125.123111099983,34.087305560868,가거도,빈지박 갯바위,암,2.3~5.0,초들물~중날물,전라남도 신안군,"감성돔,노래미,참돔,농어,볼락,우럭,돌돔,부시리",1
856,125.123999999983,34.0714000008677,가거도,복여,암,4.0~4.1,초들물~중날물,전라남도 신안군,"감성돔,노래미,참돔,농어,볼락,우럭,돌돔,부시리",1
857,125.138694399984,34.0585555608679,가거도,물등개 갯바위,암,4.0~5.0,초들물~중날물,전라남도 신안군,"감성돔,노래미,참돔,농어,볼락,우럭,돌돔,부시리",1
858,125.142999999983,34.054333330868,가거도,물성밑 갯바위,암,3.8~4.2,초들물~중날물,전라남도 신안군,"감성돔,노래미,참돔,농어,볼락,우럭,돌돔,부시리",1
859,125.13969440002,34.050555561199,가거도,거북바위,펄,2.2~5.0,초들물~중날물,전라남도 신안군,"감성돔,노래미,참돔,농어,볼락,우럭,돌돔,부시리",1
860,125.135555600184,34.0479444444749,가거도,큰납닥여,펄,1.4~5.9,초들물~중날물,전라남도 신안군,"감성돔,노래미,참돔,농어,볼락,우럭,돌돔,부시리",1
861,125.092249999982,34.1143611108675,가거도,신여,암,7.5~14.2,초들물~중날물,전라남도 신안군,"감성돔,노래미,참돔,농어,볼락,우럭,돌돔,부시리",1
862,125.082861099932,34.1173611139443,가거도,대국흘도 갯바위,암,6.0~11.6,초들물~중날물,전라남도 신안군,"감성돔,노래미,참돔,농어,볼락,우럭,돌돔,부시리",1
863,126.64319439949,34.3270555612484,완도,칠암각 갯바위,"펄, 조개껍질",3.6~4.6,초들물~중날물,전라남도 완도군,"숭어,우럭,농어,감성돔,참돔,붕장어",1
864,127.036611100375,34.4283333287667,금당도,육산리 해변,모래,1.2~1.6,초들물~중날물,전라남도 완도군,"감성돔,볼락,노래미,농어,도다리,학꽁치",1
865,127.06063889993,34.3999722235212,금당도,금당도 목섬 철탑밑,암,0.4~4.2,초들물~중날물,전라남도 완도군,"감성돔,볼락,노래미,농어,도다리,학꽁치",1
866,127.0845,34.40622222088,금당도,비견도엿도,암,4.3~5.8,초들물~중날물,전라남도 완도군,"감성돔,볼락,노래미,농어,도다리,학꽁치",1
867,127.0514444,34.4297222208802,금당도,신흥리제방수문,펄,-0.1~0,초들물~중날물,전라남도 완도군,"감성돔,볼락,노래미,농어,도다리,학꽁치",1
868,127.0339167,34.4211388908801,금당도,송아지목,암,1.3~4.5,초들물~중날물,전라남도 완도군,"감성돔,볼락,노래미,농어,도다리,학꽁치",1
869,127.0103333,34.3688333308795,금일도·생일도,도지항,암,0.9~2.0,초들물~중날물,전라남도 완도군,"감성돔,도다리,우럭,참돔,노래미,볼락",1
870,127.0179444,34.3391111108792,금일도·생일도,신구리 철탑 앞,암,0.9~2.0,초들물~중날물,전라남도 완도군,"감성돔,도다리,우럭,참돔,노래미,볼락",1
871,127.0826111,34.3536111108794,금일도·생일도,용황리 해안,펄,0.9~2.0,초들물~중날물,전라남도 완도군,"감성돔,도다리,우럭,참돔,노래미,볼락",1
872,126.9619167,34.3086111108788,금일도·생일도,금곡 해수욕장 북측 갯바위,"모래, 조개껍질",3.0~3.9,초들물~중날물,전라남도 완도군,"감성돔,숭어,우럭,노래미,농어,학꽁치,볼락",1
873,126.968194400196,34.3041111143246,금일도·생일도,금곡 해수욕장 남측 갯바위,암,4.2~5.0,초들물~중날물,전라남도 완도군,"감성돔,숭어,우럭,노래미,농어,학꽁치,볼락",1
874,127.0140833,34.3195000008789,금일도·생일도,생일도 목섬,암,0.1~1.2,초들물~중날물,전라남도 완도군,"감성돔,숭어,우럭,노래미,농어,학꽁치,볼락",1
875,127.0159444,34.324527780879,금일도·생일도,생일도 헬기장 앞,암,1.2~2.0,초들물~중날물,전라남도 완도군,"감성돔,숭어,우럭,노래미,농어,학꽁치,볼락",1
876,127.2432778,34.2477777808781,초도,막두,"펄, 조개껍질",29.5~37,초들물~중날물,전라남도 여수시,"참돔,뱅어돔,볼락,감성돔,돌돔,농어",1
877,127.256583300078,34.2516944450809,초도,수리망태,암,6.7~10.0,초들물~중날물,전라남도 여수시,"참돔,뱅어돔,볼락,감성돔,돌돔,농어",1
878,127.2623889,34.245444440878,초도,파랑끝,암,7.1~10.0,초들물~중날물,전라남도 여수시,"참돔,뱅어돔,볼락,감성돔,돌돔,농어",1
879,127.2622222,34.238888890878,초도,딴작부치,암,0.3~1.6,초들물~중날물,전라남도 여수시,"참돔,뱅어돔,볼락,감성돔,돌돔,농어",1
880,127.2607222002,34.2307222219615,초도,오밖끝,암,1.6~4.4,초들물~중날물,전라남도 여수시,"참돔,뱅어돔,볼락,감성돔,돌돔,농어",1
881,127.2613056,34.2126944408777,초도,솔거섬,조개껍질,14.1~14.3,초들물~중날물,전라남도 여수시,"참돔,뱅어돔,볼락,감성돔,돌돔,농어",1
882,127.236861099831,34.212833333554,초도,넙데기,조개껍질,6.4~8.4,초들물~중날물,전라남도 여수시,"참돔,뱅어돔,볼락,감성돔,돌돔,농어",1
883,127.22225,34.2108333308776,초도,외항도,펄,9.2~10.0,초들물~중날물,전라남도 여수시,"참돔,뱅어돔,볼락,감성돔,돌돔,농어",1
884,127.224555599938,34.2231944370085,초도,내항도,펄,0.1~2.5,초들물~중날물,전라남도 여수시,"참돔,뱅어돔,볼락,감성돔,돌돔,농어",1
885,127.2345278,34.236833330878,초도,석머리,펄,0~9.0,초들물~중날물,전라남도 여수시,"참돔,뱅어돔,볼락,감성돔,돌돔,농어",1
886,127.8075833,34.5967500008823,돌산도,향일암 갯바위,펄,1.8~2.2,초들물~중날물,전라남도 여수시,"참돔,농어,노래미,볼락,우럭,붕장어",1
887,127.8060278,34.6603611108829,돌산도,계동등대 옆 갯바위,펄,0.6~0.9,초들물~중날물,전라남도 여수시,"참돔,농어,노래미,볼락,우럭,붕장어",1
888,127.7859167,34.6991388908834,돌산도,월전포 동측 갯바위,펄,0~0.4,초들물~중날물,전라남도 여수시,"참돔,농어,노래미,볼락,우럭,붕장어",1
889,127.8236667,34.8193333308849,남해도 북부,여계마을 해안 갯바위,암,0.2~1.3,초들물~중날물,경상남도 남해군,"참돔,농어,노래미,볼락,우럭",1
890,127.8346111,34.7927777808845,남해도 북부,서상리 갯바위,암,0.5~1.0,초들물~중날물,경상남도 남해군,"참돔,농어,노래미,볼락,우럭",1
891,127.8908889,34.9466666708862,남해도 북부,수원늘 등대,암,0.0~3.3,초들물~중날물,경상남도 남해군,"참돔,농어,노래미,볼락,우럭",1
892,128.0871944,34.8281388908848,남해도 동부·신수도·창선도,모상개 해수욕장 우측 갯바위,"펄, 조개껍질",1.5~6.7,초들물~중날물,경상남도 남해군,"참돔,농어,노래미,볼락,우럭",1
893,128.0777778,34.8435000008851,남해도 동부·신수도·창선도,모상개 돌섬,펄,1.2~4.8,초들물~중날물,경상남도 남해군,"참돔,농어,노래미,볼락,우럭",1
894,128.0736667,34.9102222208858,남해도 동부·신수도·창선도,신수도 북쪽 갯바위,암,0.9~4.3,초들물~중날물,경상남도 사천시,"볼락,갑오징어,노래미,우럭",1
895,128.0828333,34.8970000008856,남해도 동부·신수도·창선도,잘푸여 갯바위,암,0.5~1.0,초들물~중날물,경상남도 사천시,"볼락,갑오징어,노래미,우럭",1
896,128.080527800107,34.8893611132935,남해도 동부·신수도·창선도,신수도 남쪽 갯바위(구 초소),암,0.2~0.6,초들물~중날물,경상남도 사천시,"볼락,갑오징어,노래미,우럭",1
897,128.0737778,34.8863055608856,남해도 동부·신수도·창선도,신수도 남쪽 갯바위,암,1.0~2.7,초들물~중날물,경상남도 사천시,"볼락,갑오징어,노래미,우럭",1
898,127.8379167,34.749222220884,남해도 남부,유구마을 해안 갯바위,암,0.6~1.6,초들물~중날물,경상남도 남해군,"참돔,농어,노래미,볼락,우럭",1
899,127.8776667,34.7243055608837,남해도 남부,가천 갯바위(레이다기지),펄,13.1~18.4,초들물~중날물,경상남도 남해군,"참돔,농어,노래미,볼락,우럭",1
900,127.8994167,34.7259722208837,남해도 남부,가천 갯바위(다랭이마을),펄,9.8~10.0,초들물~중날물,경상남도 남해군,"참돔,농어,노래미,볼락,우럭",1
901,128.1685278,34.7068055608835,두미도,번자리,펄,3.3~3.4,상관없음,경상남도 통영시,"감성돔,벵에돔,노래미,참돔,농어,볼락",1
902,128.1683889,34.7026111108835,두미도,고래등,펄,39,상관없음,경상남도 통영시,"감성돔,벵에돔,노래미,참돔,농어,볼락",1
903,128.1730278,34.6969722208835,두미도,염소자리,펄,3.4~5.0,상관없음,경상남도 통영시,"감성돔,벵에돔,노래미,참돔,농어,볼락",1
904,128.1768333,34.6957777808834,두미도,의자여,펄,2.0~5.0,상관없음,경상남도 통영시,"감성돔,벵에돔,노래미,참돔,농어,볼락",1
905,128.1877222,34.6916944408833,두미도,물내려오는곳,펄,2.0~3.8,상관없음,경상남도 통영시,"감성돔,벵에돔,노래미,참돔,농어,볼락",1
906,128.194861105022,34.6870833301364,두미도,용머리,펄,0.4~3.0,상관없음,경상남도 통영시,"감성돔,벵에돔,노래미,참돔,농어,볼락",1
907,128.1991944,34.6899444408834,두미도,얼굴바위,펄,3.0~5.0,상관없음,경상남도 통영시,"감성돔,벵에돔,노래미,참돔,농어,볼락",1
908,128.1753333,34.7113333308836,두미도,등대포인트,펄,3.3~5.0,상관없음,경상남도 통영시,"감성돔,벵에돔,노래미,참돔,농어,볼락",1
909,128.5133889,34.9764166708866,칠천도·가조도,계도 어촌 체험 낚시터,펄,3.9~4.6,초들물~중날물,경상남도 거제시,"감성돔,노래미,갑오징어,도다리,볼락",1
910,128.5134167,34.9622500008864,칠천도·가조도,창촌마을 북쪽 끝 선창,펄,1.2~2.7,초들물~중날물,경상남도 거제시,"감성돔,노래미,갑오징어,도다리,볼락",1
911,128.514250000001,34.7350000008839,한산도·용초도,"용초도 철탑 동측 갯바위 
","펄, 모래",-0.9~1.1,사리 이외 물때,경상남도 통영시,"농어,참돔,감성돔,볼락",1
912,128.5045,34.7323055608838,한산도·용초도,"호두마을 뒤등 
","펄, 모래",1.7~2.0,초들물~중날물,경상남도 통영시,"참돔,볼락,감성돔",1
913,128.4885556,34.7329722208838,한산도·용초도,용머리,모래,4.6~6.2,초들물~중날물,경상남도 통영시,"참돔,감성돔,노래미,볼락",1
914,128.4820231,34.7349166708838,한산도·용초도,"용두단
",모래,4.6~7.0,조금 전후,경상남도 통영시,"볼락,고등어,벵에돔",1
915,128.4668333,34.7393888908838,한산도·용초도,"용초 뒤등 갯바위
",모래,3.4~3.7,12물~3물,경상남도 통영시,"참돔,볼락,감성돔",1
916,130.920222200131,37.5016388908176,울릉도,북저바위 갯바위,암,2.4~3.6,조금 전후,경상북도 울릉군,"방어,부시리,농어,볼락",1
917,130.793722200106,37.5156111108367,울릉도,태하 갯바위,암,5.0~9.5,조금 전후,경상북도 울릉군,"농어,부시리,방어,벵에돔",1
918,130.847138896003,37.5402499975757,울릉도,코끼리바위 갯바위,암,3.5~5.0,들물~초썰물,경상북도 울릉군,"벵에돔,참돔",1
919,130.892861100125,37.5472500008222,울릉도,딴바위 갯바위,암,3.9~4.6,조금 전후,경상북도 울릉군,"감성돔,부시리,벵에돔",1
920,130.908472200128,37.5493888908197,울릉도,삼선암 갯바위,암,2.0~3.1,조금 전후,경상북도 울릉군,"벵에돔,부시리",1
921,130.919527800131,37.5431388908178,울릉도,관음도 갯바위,암,2.2~3.3,조금 전후,경상북도 울릉군,"벵에돔,부시리,감성돔",1
922,126.3343611,33.9448055608743,추자도,모진 해수욕장,"모래, 자갈",0.8~2.0,들물/썰물,제주특별자치도 제주시,"감성돔,돌돔,자리돔,농어,볼락,참돔",1
923,126.3365833,33.9568611108744,추자도,예초리 해안도로 갯바위,암,0~4.3,들물/썰물,제주특별자치도 제주시,"감성돔,돌돔,자리돔,농어,볼락,참돔",1
924,126.313277800071,33.9535833312726,추자도,하추자도 오지박 입구,"펄, 모래",0~2.0,들물/썰물,제주특별자치도 제주시,"감성돔,돌돔,자리돔,농어,볼락,참돔",1
925,126.303944399999,33.9531944408744,추자도,추자대교 아래,"펄, 모래",2.0~3.2,들물/썰물,제주특별자치도 제주시,"감성돔,돌돔,자리돔,농어,볼락,참돔",1
926,126.2928056,33.9659444408746,추자도,대서리 갯바위,암,2.8~5.0,들물/썰물,제주특별자치도 제주시,"감성돔,돌돔,자리돔,농어,볼락,참돔",1
927,126.284833299999,33.9674722208745,추자도,상추자도 다무레미 앞 갯바위,암,2.7~5.0,들물/썰물,제주특별자치도 제주시,"감성돔,돌돔,자리돔,농어,볼락,참돔",1
928,126.285305599999,33.9639444408745,추자도,상추자도 청석 갯바위,암,1.2~2.0,들물/썰물,제주특별자치도 제주시,"감성돔,돌돔,자리돔,농어,볼락,참돔",1
929,126.2856944,33.9618611108744,추자도,상추자도 목개 해안,암,1.8~2.0,들물/썰물,제주특별자치도 제주시,"감성돔,돌돔,자리돔,농어,볼락,참돔",1
930,126.3028611,33.9501388908743,추자도,하추자도 양식장 앞 해안,암,5.4~8.0,들물/썰물,제주특별자치도 제주시,"감성돔,돌돔,자리돔,농어,볼락,참돔",1
931,126.330499999999,33.930166670874,추자도,하추자도 남동측 끝단,암,2.1~5.,들물/썰물,제주특별자치도 제주시,"감성돔,돌돔,자리돔,농어,볼락,참돔",1
932,126.3281111,33.9351666708742,추자도,신양리 해안 갯바위,"모래, 조개껍질",1.8~2.0,들물/썰물,제주특별자치도 제주시,"감성돔,돌돔,자리돔,농어,볼락,참돔",1
933,126.2120278,33.2420555608653,제주도 서부·차귀도·비양도,영락리 장원수산 앞 갯바위,"모래, 조개껍질",5.9~8.2,들물/썰물,제주특별자치도 서귀포시,"감성돔,벤자리,삼치,방어,벵에돔,한치",1
934,126.195305599999,33.2508055608654,제주도 서부·차귀도·비양도,영락리 큰산물 낚시터,"모래, 조개껍질",8.2~9.1,들물/썰물,제주특별자치도 서귀포시,"감성돔,벤자리,삼치,방어,벵에돔,한치",1
935,126.186166699999,33.2570277808654,제주도 서부·차귀도·비양도,무릉리 해안도로 갯바위,"모래, 조개껍질",5.7~9.1,들물/썰물,제주특별자치도 서귀포시,"감성돔,벤자리,삼치,방어,벵에돔,한치",1
936,126.162472199999,33.2958055608659,제주도 서부·차귀도·비양도,수월봉 갯바위,"모래, 조개껍질",12~12.8,들물/썰물,제주특별자치도 제주시,"감성돔,벤자리,삼치,방어,벵에돔,한치",1
937,126.166722199999,33.300888890866,제주도 서부·차귀도·비양도,6.수월약수터 앞 갯바위,"모래, 조개껍질",12~12.8,들물/썰물,제주특별자치도 제주시,"감성돔,벤자리,삼치,방어,벵에돔,한치",1
938,126.163,33.3368055608665,제주도 서부·차귀도·비양도,풍력발전소 앞 갯바위,"모래, 조개껍질",0.5~1.2,들물/썰물,제주특별자치도 제주시,"감성돔,벤자리,삼치,방어,벵에돔,한치",1
939,126.153583299499,33.3114444385542,제주도 서부·차귀도·비양도,차귀도 등측 갯바위,"모래, 조개껍질",0.5~5.0,들물/썰물,제주특별자치도 제주시,"감성돔,벤자리,삼치,방어,벵에돔,한치",1
940,126.2228333,33.4059444408675,제주도 서부·차귀도·비양도,비양도 초소 밑 갯바위,"모래, 조개껍질",0.9~2.9,들물/썰물,제주특별자치도 제주시,"감성돔,벤자리,삼치,방어,벵에돔,한치",1
941,126.2224444,33.4087222208675,제주도 서부·차귀도·비양도,비양도 코끼리바위 부근 갯바위,"모래, 조개껍질",0.1~0.9,들물/썰물,제주특별자치도 제주시,"감성돔,벤자리,삼치,방어,벵에돔,한치",1
942,126.22375,33.4116944408675,제주도 서부·차귀도·비양도,비양도 북측 큰여,"모래, 조개껍질",0.1~1.6,들물/썰물,제주특별자치도 제주시,"감성돔,벤자리,삼치,방어,벵에돔,한치",1
943,126.231749999999,33.4099444408674,제주도 서부·차귀도·비양도,비양도 동측 갯바위,"모래, 조개껍질",1.6~2.2,들물/썰물,제주특별자치도 제주시,"감성돔,벤자리,삼치,방어,벵에돔,한치",1
944,126.5079722,33.516722220869,제주도 북서부,용두암 낚시터,암,0~4.5,들물/썰물,제주특별자치도 제주시,"감성돔,농어,돌돔,벵에돔,참돔,고등어,독가시치",1
945,126.517472200017,33.5193055601123,제주도 북서부,라마다호텔 앞 해안도로 좌측,암,1.5~2.0,들물/썰물,제주특별자치도 제주시,"노래미,벵에돔,한치,돌돔,참돔",1
946,126.5240833,33.518611110869,제주도 북서부,라마다호텔 앞 해안도로 우측,암,1.1~1.5,들물/썰물,제주특별자치도 제주시,"노래미,벵에돔,한치,돌돔,참돔",1
947,126.730888899893,33.5637222179739,제주도 북부,김녕 목지코지 갯바위,"펄, 모래",3.6~6.5,들물/썰물,제주특별자치도 제주시,"참돔,돌돔,한치,벵에돔,노래미",1
948,126.851499999446,33.5329722232419,제주도 북동부·우도,동등 갯바위,암,1.5~10.0,들물/날물,제주특별자치도 제주시,"참돔,돌돔,볼락,벵에돔,무늬오징어,독가시치",1
949,126.904999999545,33.5105555592688,제주도 북동부·우도,하도해수욕장 우측 갯바위,암,1.4~2.0,들물/날물,제주특별자치도 제주시,"참돔,돌돔,볼락,벵에돔,무늬오징어,독가시치",1
950,126.948583299563,33.5229444438575,제주도 북동부·우도,세배코지 갯바위,암,1.1~2.0,들물/날물,제주특별자치도 제주시,"참돔,돌돔,볼락,벵에돔,무늬오징어,독가시치",1
951,126.9581111,33.5232222208691,제주도 북동부·우도,우도치안센터 앞,암,0.7~2.0,들물/날물,제주특별자치도 제주시,"참돔,돌돔,볼락,벵에돔,무늬오징어,독가시치",1
952,126.9620833,33.517222220869,제주도 북동부·우도,독진곶 갯바위,암,1.1~2.0,들물/날물,제주특별자치도 제주시,"참돔,돌돔,볼락,벵에돔,무늬오징어,독가시치",1
953,126.971414202835,33.5149737865822,제주도 북동부·우도,비양도 등대부근,암,0~2.5,들물/날물,제주특별자치도 제주시,"참돔,돌돔,볼락,벵에돔,무늬오징어,독가시치",1
954,126.9693056,33.4967500008688,제주도 북동부·우도,검멀레해수욕장 좌측갯바위,암,1.4~2.0,들물/날물,제주특별자치도 제주시,"참돔,돌돔,볼락,벵에돔,무늬오징어,독가시치",1
955,126.964,33.4893888908687,제주도 북동부·우도,우두곶 갯바위,암,16.7~20.0,들물/날물,제주특별자치도 제주시,"참돔,돌돔,볼락,벵에돔,무늬오징어,독가시치",1
956,126.961194399634,33.4905555583348,제주도 북동부·우도,우두곶 우측 갯바위,암,2.3~2.4,들물/날물,제주특별자치도 제주시,"참돔,돌돔,볼락,벵에돔,무늬오징어,독가시치",1
957,126.9290833,33.434611110868,제주도 동부,방두곶 좌측 갯바위,암,0.9~4.1,들물/날물,제주특별자치도 서귀포시,"참돔,돌돔,볼락,벵에돔,무늬오징어,독가시치",1
958,126.934722200481,33.4269444429521,제주도 동부,방두곶 흰등대앞 갯바위,암,1.7~5.0,들물/날물,제주특별자치도 서귀포시,"참돔,돌돔,볼락,벵에돔,무늬오징어,독가시치",1
959,126.9320556,33.4233611108678,제주도 동부,당두곶 우측 갯바위,암,8.0~8.2,들물/날물,제주특별자치도 서귀포시,"참돔,돌돔,볼락,벵에돔,무늬오징어,독가시치",1
960,126.9166944,33.4327777808679,제주도 동부,신양포구 갯바위,암,0~0.8,들물/날물,제주특별자치도 서귀포시,"참돔,돌돔,볼락,벵에돔,무늬오징어,독가시치",1
961,126.9073889,33.3981666708675,제주도 동부,여마진개 갯바위,조개껍질,2.0~3.0,들물/날물,제주특별자치도 서귀포시,"참돔,돌돔,볼락,벵에돔,무늬오징어,독가시치",1
962,126.8476667,33.3320277808666,제주도 동부,표선해비치해수욕장 좌측 갯바위,모래,0.4~2.0,들물/날물,제주특별자치도 서귀포시,"참돔,돌돔,볼락,벵에돔,무늬오징어,독가시치",1
963,126.731166700087,33.278250001332,제주도 남동부,태흥리 갯바위,암,1.9~3.8,들물/날물,제주특별자치도 서귀포시,"참돔,돌돔,다금바리,벵에돔,부시리",1
964,126.6265833,33.2504444408656,제주도 남동부,쇠소깍 해수욕장 우측 갯바위,모래,0.1~1.5,들물/날물,제주특별자치도 서귀포시,"참돔,돌돔,다금바리,벵에돔,부시리",1
965,126.6638889,33.2386944408654,제주도 남동부,가막코지 갯바위,암,0.2~1.2,들물/날물,제주특별자치도 서귀포시,"참돔,돌돔,다금바리,벵에돔,부시리",1
966,126.548249999459,33.2380833347202,제주도 남부,황우리해안 갯바위,암,0.6~7.9,초들물~중날물,제주특별자치도 서귀포시,"벵에돔,한치,노래미,독가시치,부시리,우럭",1
967,126.4976944,33.2302500008652,제주도 남부,서건도 갯바위,암,2.8~10,초들물~중날물,제주특별자치도 서귀포시,"벵에돔,한치,노래미,독가시치,부시리,우럭",1
968,126.4618333,33.2320277808653,제주도 남부,세별곶,암,9.6~18.0,초들물~중날물,제주특별자치도 서귀포시,"벵에돔,한치,노래미,독가시치,부시리,우럭",1
969,126.43275,33.2333611108653,제주도 남부,중문단지 축구장 밑 갯바위,암,10.5~14.6,초들물~중날물,제주특별자치도 서귀포시,"벵에돔,한치,노래미,독가시치,부시리,우럭",1
970,126.390055599999,33.2366388908654,제주도 남부,논짓물 주변,모래,5.0~10.0,초들물~중날물,제주특별자치도 서귀포시,"벵에돔,한치,노래미,독가시치,부시리,우럭",1
971,126.3705,33.2305000008653,제주도 남부,하예마을 서측 갯바위,암,0.2~2.1,초들물~중날물,제주특별자치도 서귀포시,"벵에돔,한치,노래미,독가시치,부시리,우럭",1
972,126.3445,33.2361388908653,제주도 남서부·가파도·마라도,발전소 앞 갯바위,암,1.2~4.6,초들물~중날물,제주특별자치도 서귀포시,"벵에돔,한치,노래미,독가시치,부시리,우럭",1
973,126.297138899999,33.2214166708651,제주도 남서부·가파도·마라도,사계리 체육공원 갯,모래,1.3~4.3,들물/썰물,제주특별자치도 서귀포시,"벵에돔,농어,자리돔,볼락,한치,참돔,부시리",1
974,126.295666699678,33.2143333282445,제주도 남서부·가파도·마라도,송악산 낚시터,모래,0.4~2.2,들물/썰물,제주특별자치도 서귀포시,"벵에돔,농어,자리돔,볼락,한치,참돔,부시리",1
975,126.291694399999,33.2070000008649,제주도 남서부·가파도·마라도,산이물,자갈,0.4~2.2,들물/썰물,제주특별자치도 서귀포시,"벵에돔,농어,자리돔,볼락,한치,참돔,부시리",1
976,126.29272220012,33.2029444365529,제주도 남서부·가파도·마라도,송악산 올레길 갯바위,자갈,0.4~2.2,들물/썰물,제주특별자치도 서귀포시,"벵에돔,농어,자리돔,볼락,한치,참돔,부시리",1
977,126.2800556,33.1671388908643,제주도 남서부·가파도·마라도,가파도 제단 밑 갯바위,암,0.2~0.5,들물/썰물,제주특별자치도 서귀포시,"벵에돔,농어,자리돔,볼락,한치,참돔,부시리",1
978,126.2789444,33.1705000008645,제주도 남서부·가파도·마라도,옹짓물 정자 아래 갯바위,암,0.2~2.0,들물/썰물,제주특별자치도 서귀포시,"벵에돔,농어,자리돔,볼락,한치,참돔,부시리",1
979,126.263527799999,33.1691944408644,제주도 남서부·가파도·마라도,큰아끈여 갯바위,암,0.4~0.6,들물/썰물,제주특별자치도 서귀포시,"벵에돔,농어,자리돔,볼락,한치,참돔,부시리",1
980,126.26875,33.1649722208644,제주도 남서부·가파도·마라도,냇골챙이 정자 아래 갯바위,암,0.4~1.5,들물/썰물,제주특별자치도 서귀포시,"벵에돔,농어,자리돔,볼락,한치,참돔,부시리",1
981,126.2713611,33.1618611108643,제주도 남서부·가파도·마라도,가파도 남측 갯바위,암,1.5~2.0,들물/썰물,제주특별자치도 서귀포시,"벵에돔,농어,자리돔,볼락,한치,참돔,부시리",1
982,126.26675,33.1220277808637,제주도 남서부·가파도·마라도,할망당 아래 갯바위,"모래, 조개껍질",3.3~9.7,들물/썰물,제주특별자치도 서귀포시,"벵에돔,농어,자리돔,볼락,한치,참돔,부시리",1
983,126.269,33.1124166708637,제주도 남서부·가파도·마라도,장군바위 부근 갯바위,암,2.5~6.8,들물/썰물,제주특별자치도 서귀포시,"벵에돔,농어,자리돔,볼락,한치,참돔,부시리",1
984,125.192632199986,34.677916940876,홍도,흔들바위 상단,암,9.5~10.4,"사리 전후, 초들물, 만조 전후",전라남도 신안군,"참돔,돌돔,감성돔,우럭,농어",1
985,125.196525299529,34.674787784974,홍도,방구서 우측 부근,암,3.5~4.7,"사리 전후, 초들물, 만조 전후",전라남도 신안군,"참돔,돌돔,감성돔,우럭,농어",1
986,125.192621099985,34.6736150008759,홍도,방구서 좌측 부근,암,5.9~4.7,"사리 전후, 초들물, 만조 전후",전라남도 신안군,"참돔,돌돔,감성돔,우럭,농어",1
987,125.187363900577,34.6725658282756,홍도,상금리굴 인근,암,4.1~5.9,"사리 전후, 초들물, 만조 전후",전라남도 신안군,"참돔,돌돔,감성돔,우럭,농어",1
988,125.184718599985,34.6676494408757,홍도,병풍바위 우측,암,2.9~3.7,"사리 전후, 초들물, 만조 전후",전라남도 신안군,"참돔,돌돔,감성돔,우럭,농어",1
989,125.180980799986,34.6695830608757,홍도,병풍바위 좌측,암,2.5~4.7,"사리 전후, 초들물, 만조 전후",전라남도 신안군,"참돔,돌돔,감성돔,우럭,농어",1
990,125.174797499985,34.6742930608756,홍도,상연서 상단,암,3.9~9.4,"사리 전후, 초들물, 만조 전후",전라남도 신안군,"참돔,돌돔,감성돔,우럭,농어",1
991,125.181302500323,34.6745725045458,홍도,기둥바위 인근,암,1.3~4.5,"사리 전후, 초들물, 만조 전후",전라남도 신안군,"참돔,돌돔,감성돔,우럭,농어",1
992,125.178313299985,34.6828508308757,홍도,주전자바위 인근,암,12.1~13.5,"사리 전후, 초들물, 만조 전후",전라남도 신안군,"참돔,돌돔,감성돔,우럭,농어",1
993,125.181086099914,34.6868180585806,홍도,단오도 우측,암,3~9.7,"사리 전후, 초들물, 만조 전후",전라남도 신안군,"참돔,돌돔,감성돔,우럭,농어",1
994,125.183426399778,34.6883663901732,홍도,도달바위 인근,암,2.9~4.5,"사리 전후, 초들물, 만조 전후",전라남도 신안군,"참돔,돌돔,감성돔,우럭,농어",1
995,125.192388299986,34.6934600008762,홍도,거북바위 인근,암,0.8~1.7,"사리 전후, 초들물, 만조 전후",전라남도 신안군,"참돔,돌돔,감성돔,우럭,농어",1
996,125.201067199986,34.7069211108765,홍도,탑섬 인근,암,0.3~2.7,"사리 전후, 초들물, 만조 전후",전라남도 신안군,"참돔,돌돔,감성돔,우럭,농어",1
997,125.199625599986,34.7105572208764,홍도,석화굴 인근,암,1.1~15.2,"사리 전후, 초들물, 만조 전후",전라남도 신안군,"참돔,돌돔,감성돔,우럭,농어",1
998,125.196614199986,34.7201325008764,홍도,모도 좌측부근,암,2.4~2.7,"사리 전후, 초들물, 만조 전후",전라남도 신안군,"참돔,돌돔,감성돔,우럭,농어",1
999,125.200734399986,34.7242672208766,홍도,탑서 우측,암,3.8~5.6,"사리 전후, 초들물, 만조 전후",전라남도 신안군,"참돔,돌돔,감성돔,우럭,농어",1
1000,125.203413099811,34.7182963888882,홍도,모도 우측 섬 부근,암,0.2~3,"사리 전후, 초들물, 만조 전후",전라남도 신안군,"참돔,돌돔,감성돔,우럭,농어",1
1001,125.208559399986,34.7165286108767,홍도,독립문 인근,암,3.3~7,"사리 전후, 초들물, 만조 전후",전라남도 신안군,"참돔,돌돔,감성돔,우럭,농어",1
1002,125.211931399986,34.7135566708767,홍도,수력말과종바위 인근,암,2.5~15.5,"사리 전후, 초들물, 만조 전후",전라남도 신안군,"참돔,돌돔,감성돔,우럭,농어",1
1003,125.214521099986,34.7052311108766,홍도,슬픈여 부근,암,1.1~4.8,"사리 전후, 초들물, 만조 전후",전라남도 신안군,"참돔,돌돔,감성돔,우럭,농어",1
1004,125.212502499646,34.6991397233287,홍도,공작새바위 상단,암,0.4~7.5,"사리 전후, 초들물, 만조 전후",전라남도 신안군,"참돔,돌돔,감성돔,우럭,농어",1
1005,125.212718899986,34.6954480608765,홍도,공작새바위 하단,암,3.6~4.9,"사리 전후, 초들물, 만조 전후",전라남도 신안군,"참돔,돌돔,감성돔,우럭,농어",1
1006,125.209352499986,34.6913758308764,홍도,홍어굴 부근,암,0.6~2.5,"사리 전후, 초들물, 만조 전후",전라남도 신안군,"참돔,돌돔,감성돔,우럭,농어",1
1007,125.206124999986,34.6850361108763,홍도,홍어굴 하단,암,3.3~3.9,"사리 전후, 초들물, 만조 전후",전라남도 신안군,"참돔,돌돔,감성돔,우럭,농어",1
1008,125.202420599986,34.6805650008762,홍도,노적봉 하단,암,0.6~9.3,"사리 전후, 초들물, 만조 전후",전라남도 신안군,"참돔,돌돔,감성돔,우럭,농어",1
1009,125.482536399993,34.2053513908745,만재도,남대문 부근,암,8~9.5,조금 전후,전라남도 신안군,"돌돔,참돔,감성돔,우럭,광어,농어,볼락,문어",1
1010,125.489436699712,34.207353059741,만재도,국도 상단,암,7~10,조금 전후,전라남도 신안군,"돌돔,참돔,감성돔,우럭,광어,농어,볼락,문어",1
1011,125.491131100119,34.2017630612813,만재도,방군여 좌측,암,7~19,조금 전후,전라남도 신안군,"돌돔,참돔,감성돔,우럭,광어,농어,볼락,문어",1
1012,125.477102200208,34.2032122188498,만재도,녹섬 우측,암,13~16,조금 전후,전라남도 신안군,"돌돔,참돔,감성돔,우럭,광어,농어,볼락,문어",1
1013,125.474365599993,34.2049800008744,만재도,치안센터 하단 부근,암,13~16,조금 전후,전라남도 신안군,"돌돔,참돔,감성돔,우럭,광어,농어,볼락,문어",1
1014,125.469321899541,34.2065913903696,만재도,보건소 하단 부근,암,13~16,조금 전후,전라남도 신안군,"돌돔,참돔,감성돔,우럭,광어,농어,볼락,문어",1
1015,125.469060599993,34.2034044408743,만재도,만재도 남측 해안,암,16~22,조금 전후,전라남도 신안군,"돌돔,참돔,감성돔,우럭,광어,농어,볼락,문어",1
1016,125.465526100423,34.2061513898311,만재도,내마도 하단 부근,암,10~16,조금 전후,전라남도 신안군,"돌돔,참돔,감성돔,우럭,광어,농어,볼락,문어",1
1017,125.466482499993,34.2100722208744,만재도,오동여 부근,암,10~16,조금 전후,전라남도 신안군,"돌돔,참돔,감성돔,우럭,광어,농어,볼락,문어",1
1018,125.464281699993,34.2105397208744,만재도,내마도상단,암,10.5~14,조금 전후,전라남도 신안군,"돌돔,참돔,감성돔,우럭,광어,농어,볼락,문어",1
1019,125.462785800116,34.2124999967257,만재도,외마도 상단,암,10.5~14,조금 전후,전라남도 신안군,"돌돔,참돔,감성돔,우럭,광어,농어,볼락,문어",1
1020,125.472191099993,34.2146308308745,만재도,등대 밑 부근,암,10.5~14,조금 전후,전라남도 신안군,"돌돔,참돔,감성돔,우럭,광어,농어,볼락,문어",1
1021,126.3043247,34.847405830885,목포 부근,꼬막섬,펄,-1~-0.2,"사리 전후, 초들물~중날물",전라남도 신안군,"감성돔,붕장어,우럭,노래미,농어,볼락",1
1022,126.3210533,34.8678652808853,목포 부근,모삼머리들,펄,-2.3~-1.9,"사리 전후, 초들물~중날물",전라남도 신안군,"감성돔,붕장어,우럭,노래미,농어,볼락",1
1023,126.3575481,34.8667850008852,목포 부근,가란도,펄,0.2~0.3,"사리 전후, 초들물~중날물",전라남도 신안군,"감성돔,붕장어,우럭,노래미,농어,볼락",1
1024,126.3668697,34.8622208308852,목포 부근,솔섬,펄,0.2~0.3,"사리 전후, 초들물~중날물",전라남도 신안군,"감성돔,붕장어,우럭,노래미,농어,볼락",1
1025,126.3670847,34.8575683308852,목포 부근,삼호제 북측,펄,0.2~0.3,"사리 전후, 초들물~중날물",전라남도 신안군,"감성돔,붕장어,우럭,노래미,농어,볼락",1
1026,126.386638099758,34.8606172230193,목포 부근,우도,펄,0.2~0.3,"사리 전후, 초들물~중날물",전라남도 무안군,"감성돔,붕장어,우럭,노래미,농어,볼락",1
1027,126.4049444,34.8491472208851,목포 부근,명지식품 해안길,펄,0.2~0.3,"사리 전후, 초들물~중날물",전라남도 무안군,"감성돔,붕장어,우럭,노래미,농어,볼락",1
1028,126.4002206,34.843557780885,목포 부근,지중해 카페 북측,펄,0.2~0.3,"사리 전후, 초들물~중날물",전라남도 목포시,"감성돔,붕장어,우럭,노래미,농어,볼락",1
1029,126.3338414,34.8182433308847,목포 부근,장감길 끝,펄,-4.2~3.9,"사리 전후, 초들물~중날물",전라남도 신안군,"감성돔,붕장어,우럭,노래미,농어,볼락",1
1030,126.3472681,34.8149375008847,목포 부근,도시촌 길 남측,펄,-0.8~7.3,"사리 전후, 초들물~중날물",전라남도 신안군,"감성돔,붕장어,우럭,노래미,농어,볼락",1
1031,126.3590433,34.8137047208846,목포 부근,정주도,펄,-3.2~6.6,"사리 전후, 초들물~중날물",전라남도 목포시,"감성돔,붕장어,우럭,노래미,농어,볼락",1
1032,126.363530799759,34.696943609906,목포 부근,금호바닷가펜션 부근,펄,0.9~1.5,"사리 전후, 초들물~중날물",전라남도 해남군,"감성돔,붕장어,우럭,노래미,농어,볼락",1
1033,126.274934399999,34.7173380608835,화원 부근,월래경로당 앞,펄,-1.2~3,"조금 전후, 초들물~중날물",전라남도 해남군,"감성돔,붕장어,농어",1
1034,126.2424569,34.7007419408833,화원 부근,시하도,암,-3.1~4.4,"조금 전후, 초들물~중날물",전라남도 해남군,"감성돔,붕장어,농어",1
1035,126.257815599999,34.6833555608831,화원 부근,"마리나공사장 남측
(*화원 마리나 포인트)",펄,0.7~1.5,"조금 전후, 초들물~중날물",전라남도 해남군,"감성돔,붕장어,농어",1
1036,126.251098899613,34.6758608317208,화원 부근,"닭섬
(*화원 마리나 포인트)",암,1.6~3.4,"조금 전후, 초들물~중날물",전라남도 해남군,"감성돔,붕장어,농어",1
1037,126.252806099586,34.6684652807012,화원 부근,고도,암,2.5~3.6,"조금 전후, 초들물~중날물",전라남도 해남군,"감성돔,붕장어,농어",1
1038,126.2525086,34.6534719408827,화원 부근,우도,암,1.6~2.7,"조금 전후, 초들물~중날물",전라남도 해남군,"감성돔,붕장어,농어",1
1039,126.2679961,34.6454761108826,화원 부근,석호앞들,펄,-0.4~0.3,"조금 전후, 초들물~중날물",전라남도 해남군,"감성돔,붕장어,농어",1
1040,126.2804283,34.6302538908824,화원 부근,증도리 북측,펄,-0.1~0.6,"조금 전후, 초들물~중날물",전라남도 해남군,"감성돔,붕장어,농어",1
1041,126.288532199999,34.6360033308826,화원 부근,증도리회관 동측,펄,-0.1~0.6,"조금 전후, 초들물~중날물",전라남도 해남군,"감성돔,붕장어,농어",1
1042,126.293104699922,34.6315280575426,화원 부근,월낭산 서측,펄,-0.1~0.6,"조금 전후, 초들물~중날물",전라남도 해남군,"감성돔,붕장어,농어",1
1043,125.917886099503,34.2600138932009,거차수도 부근,서거차 북쪽 홈통,암,1.8~4.1,10물~5물,전라남도 진도군,"참돔,감성돔,돌돔,우럭,농어,부시리",1
1044,125.926016099999,34.2517372208775,거차수도 부근,상하죽도 교량 부근,암,0.3~0.9,10물~5물,전라남도 진도군,"참돔,감성돔,돌돔,우럭,농어,부시리",1
1045,125.923134999728,34.2441750040921,거차수도 부근,상어여 갯바위,암,0.9~9.2,10물~5물,전라남도 진도군,"참돔,감성돔,돌돔,우럭,농어,부시리",1
1046,125.935784999999,34.2471380608775,거차수도 부근,동거차 둥근섬,암,1.9~2,10물~5물,전라남도 진도군,"참돔,감성돔,돌돔,우럭,농어,부시리",1
1047,125.953915800402,34.2447180578371,거차수도 부근,동거차 망도,암,2.7~12.8,10물~5물,전라남도 진도군,"참돔,감성돔,돌돔,우럭,농어,부시리",1
1048,125.933814700093,34.2326100025342,거차수도 부근,동거차 해수욕장,암,2.7~5,10물~5물,전라남도 진도군,"참돔,감성돔,돌돔,우럭,농어,부시리",1
1049,125.926794199999,34.2363919408773,거차수도 부근,동거차 수영장,암,1.9~3.2,10물~5물,전라남도 진도군,"참돔,감성돔,돌돔,우럭,농어,부시리",1
1050,125.930420299998,34.2454194408774,거차수도 부근,동거차 상송도,암,2~3.4,10물~5물,전라남도 진도군,"참돔,감성돔,돌돔,우럭,농어,부시리",1
1051,125.849229399998,34.2255066708769,거차수도 부근,죽도 등대 부근,암,3.4~6,10물~5물,전라남도 진도군,"참돔,감성돔,돌돔,우럭,농어,부시리",1
1052,125.846638300515,34.217089167858,거차수도 부근,맹골 돔바위,암,1.5~1.9,10물~5물,전라남도 진도군,"참돔,감성돔,돌돔,우럭,농어,부시리",1
1053,126.093720799999,34.2775750008782,독거군도 부근,하조도 매동여,"펄, 조개껍질",0.1~4.1,조금 전후,전라남도 진도군,"참돔,감성돔,돌돔,광어-릴찌,,농어",1
1054,126.096428099999,34.270770830878,독거군도 부근,죽항 북쪽 철탑 밑,"펄, 조개껍질",1.4~6.9,조금 전후,전라남도 진도군,"참돔,감성돔,돌돔,광어-릴찌,,농어",1
1055,126.115543899578,34.2575736076233,독거군도 부근,죽항 담추서,조개껍질,3.9~8.2,조금 전후,전라남도 진도군,"참돔,감성돔,돌돔,광어-릴찌,,농어",1
1056,126.110013599999,34.2611894408779,독거군도 부근,죽항 남쪽 갯바위,조개껍질,1.5~6.7,조금 전후,전라남도 진도군,"참돔,감성돔,돌돔,광어-릴찌,,농어",1
1057,126.092263899999,34.2682966708779,독거군도 부근,죽항 송도,"자갈, 조개껍질",6.1~8,조금 전후,전라남도 진도군,"참돔,감성돔,돌돔,광어-릴찌,,농어",1
1058,126.143866099999,34.2657052808781,독거군도 부근,슬도 북쪽 넓은자리,암,3.2~5.1,조금~4물,전라남도 진도군,"참돔,감성돔,돌돔,광어-릴찌,,농어",1
1059,126.150389700432,34.2662347168357,독거군도 부근,슬도 북단,암,3.2~4.7,조금~4물,전라남도 진도군,"참돔,감성돔,돌돔,광어-릴찌,,농어",1
1060,126.155721399581,34.2597597216593,독거군도 부근,슬도 선창 갯바위,암,1~4.7,조금~4물,전라남도 진도군,"참돔,감성돔,돌돔,광어-릴찌,,농어",1
1061,126.155688299999,34.254115830878,독거군도 부근,소슬도,암,1~2.2,조금~4물,전라남도 진도군,"참돔,감성돔,돌돔,광어-릴찌,,농어",1
1062,126.168272200135,34.2672105572911,독거군도 부근,변도,암,7.7~26,조금~4물,전라남도 진도군,"참돔,감성돔,돌돔,광어-릴찌,,농어",1
1063,126.172866899999,34.2638013908781,독거군도 부근,구도 북단,암,10.5~11.7,조금~4물,전라남도 진도군,"참돔,감성돔,돌돔,광어-릴찌,,농어",1
1064,126.177618899999,34.261485000878,독거군도 부근,구도 남단,암,3.3~11.7,조금~4물,전라남도 진도군,"참돔,감성돔,돌돔,광어-릴찌,,농어",1
1065,126.182404199999,34.262708330878,독거군도 부근,독거 북단,암,3.3~14.2,조금~4물,전라남도 진도군,"참돔,감성돔,돌돔,광어-릴찌,,농어",1
1066,126.1824703,34.253730830878,독거군도 부근,독거 동쪽 선창,펄,12~12.3,조금~4물,전라남도 진도군,"참돔,감성돔,돌돔,광어-릴찌,,농어",1
1067,126.149801899999,34.2211741708775,독거군도 부근,화단도,암,0.5~18.2,조금~3물,전라남도 진도군,"참돔,감성돔,돌돔,광어-릴찌,,농어",1
1068,126.164248599826,34.2276452807739,독거군도 부근,초도,암,0.2~9.5,조금~3물,전라남도 진도군,"참돔,감성돔,돌돔,광어-릴찌,,농어",1
1069,126.170482499999,34.2315372208777,독거군도 부근,간암여,암,17.6~23.5,조금~3물,전라남도 진도군,"참돔,감성돔,돌돔,광어-릴찌,,농어",1
1070,126.2844731,33.9687777808746,추자군도,다무래미 갯바위,암,0.8~1.1,"11물~5물, 정조전후",제주특별자치도 제주시,"감성돔,벵에돔,참돔,돌돔,볼락,부시리",1
1071,126.2944333,33.9659019408745,추자군도,최영장군 사당 앞,암,1.1~1.9,"11물~5물, 정조전후",제주특별자치도 제주시,"감성돔,벵에돔,참돔,돌돔,볼락,부시리",1
1072,126.303769200463,33.9527950052355,추자군도,추자대교,암,0.1~0.2,"11물~5물, 정조전후",제주특별자치도 제주시,"감성돔,벵에돔,참돔,돌돔,볼락,부시리",1
1073,126.3128417,33.9544452808744,추자군도,목리 인근 갯바위,암,0.1~1.5,"11물~5물, 정조전후",제주특별자치도 제주시,"감성돔,벵에돔,참돔,돌돔,볼락,부시리",1
1074,126.3415228,33.9536988908744,추자군도,신대산전망터 앞,암,1.1~2.1,"11물~5물, 정조전후",제주특별자치도 제주시,"감성돔,벵에돔,참돔,돌돔,볼락,부시리",1
1075,126.340947499455,33.946247501425,추자군도,모정의 쉼터 부근,암,1.2~3.1,"11물~5물, 정조전후",제주특별자치도 제주시,"감성돔,벵에돔,참돔,돌돔,볼락,부시리",1
1076,126.3006625,33.9518977808744,추자군도,모진해수욕장 갯바위,암,1.2~4.8,"11물~5물, 정조전후",제주특별자치도 제주시,"감성돔,벵에돔,참돔,돌돔,볼락,부시리",1
1077,126.328234199742,33.9352336115879,추자군도,석죽머리 부근,"모래, 조개껍질",0.1~1.8,"11물~5물, 정조전후",제주특별자치도 제주시,"감성돔,벵에돔,참돔,돌돔,볼락,부시리",1
1078,126.3287356,33.9298013908741,추자군도,오리똥여 부근,암,2.1~6.9,"11물~5물, 정조전후",제주특별자치도 제주시,"감성돔,벵에돔,참돔,돌돔,볼락,부시리",1
1079,126.3162442,33.9407338908742,추자군도,신양리 갯바위,암,2.5~2.2,"11물~5물, 정조전후",제주특별자치도 제주시,"감성돔,벵에돔,참돔,돌돔,볼락,부시리",1
1080,126.309316099999,33.9392133308742,추자군도,섬생이 좌측,암,2.5~9.4,"11물~5물, 정조전후",제주특별자치도 제주시,"감성돔,벵에돔,참돔,돌돔,볼락,부시리",1
1081,126.3028403,33.9502541708743,추자군도,발전소 부근,암,0.2~7.1,"11물~5물, 정조전후",제주특별자치도 제주시,"감성돔,벵에돔,참돔,돌돔,볼락,부시리",1
1082,126.285812499999,33.9615194408745,추자군도,새말 갯바위,암,0.8~1.1,"11물~5물, 정조전후",제주특별자치도 제주시,"감성돔,벵에돔,참돔,돌돔,볼락,부시리",1
1083,126.283700599999,33.9642858308745,추자군도,청석 갯바위,암,0.8~1.1,"11물~5물, 정조전후",제주특별자치도 제주시,"감성돔,벵에돔,참돔,돌돔,볼락,부시리",1
1084,126.306012499999,33.9742688908747,추자군도,염도 좌측,암,0.8~1.1,"11물~5물, 정조전후",제주특별자치도 제주시,"감성돔,벵에돔,참돔,돌돔,볼락,부시리",1
1085,126.3090122,33.9740019408746,추자군도,염도 우측,암,0.4~1.9,"11물~5물, 정조전후",제주특별자치도 제주시,"감성돔,벵에돔,참돔,돌돔,볼락,부시리",1
1086,126.3129733,33.9759191708747,추자군도,검둥여 부근,암,0.4~1.9,"11물~5물, 정조전후",제주특별자치도 제주시,"감성돔,벵에돔,참돔,돌돔,볼락,부시리",1
1087,126.315594700119,33.975337222458,추자군도,검둥여,암,0.4~1.9,"11물~5물, 정조전후",제주특별자치도 제주시,"감성돔,벵에돔,참돔,돌돔,볼락,부시리",1
1088,126.3211503,33.9857569408748,추자군도,추포도 남측 갯바위,암,3.0~17.1,"11물~5물, 정조전후",제주특별자치도 제주시,"감성돔,벵에돔,참돔,돌돔,볼락,부시리",1
1089,126.323771699999,33.9879886108748,추자군도,추포도 북측 갯바위,"거친모래, 조개껍질",1.0~3.6,"11물~5물, 정조전후",제주특별자치도 제주시,"감성돔,벵에돔,참돔,돌돔,볼락,부시리",1
1090,126.329828599834,34.0105625006848,추자군도,횡간도 좌측 끝,"거친모래, 조개껍질",2.3~2.4,"11물~5물, 정조전후",제주특별자치도 제주시,"감성돔,벵에돔,참돔,돌돔,볼락,부시리",1
1091,126.348097200381,34.0039716674762,추자군도,횡간도 우측 끝,"거친모래, 조개껍질",3.8~6.2,"11물~5물, 정조전후",제주특별자치도 제주시,"감성돔,벵에돔,참돔,돌돔,볼락,부시리",1
1092,126.462881399999,34.4270536108802,해남반도 부근,송평 해수욕장 죽도,"펄, 조개껍질",2.7~3.1,사리 전후,전라남도 해남군,"감성돔,고등어,볼락,노래미,숭어,우럭,농어",1
1093,126.4738114,34.3787655608796,해남반도 부근,어란리 서측,펄,0.6~1.7,사리 전후,전라남도 해남군,"감성돔,고등어,볼락,노래미,숭어,우럭,농어",1
1094,126.499221099501,34.3581483302715,해남반도 부근,대성식품 길 끝,펄,0.4~0.7,사리 전후,전라남도 해남군,"감성돔,고등어,볼락,노래미,숭어,우럭,농어",1
1095,126.5137833,34.3432980608793,해남반도 부근,소죽리 죽도,펄,0.8~1.3,사리 전후,전라남도 해남군,"감성돔,고등어,볼락,노래미,숭어,우럭,농어",1
1096,126.5167456,34.3391391708792,해남반도 부근,소죽리 중도,펄,0.3~0.6,사리 전후,전라남도 해남군,"감성돔,고등어,볼락,노래미,숭어,우럭,농어",1
1097,126.50915,34.2993150008787,해남반도 부근,양도,암,0.5~3.1,사리 전후,전라남도 완도군,"감성돔,고등어,볼락,노래미,숭어,우럭,농어",1
1098,126.617656099817,34.3386824977801,완도 부근,연초도 갯바위,펄,-0.4~0.3,들물,전라남도 해남군,"감성돔,농어,도다리,숭어,노래미,학꽁치",1
1099,126.6735803,34.4176988908801,완도 부근,만수리 남측 갯바위,펄,-1.1~-0.5,들물,전라남도 해남군,"감성돔,농어,도다리,숭어,노래미,학꽁치",1
1100,126.6968961,34.4384091708804,완도 부근,방산리 해안,펄,-0.8~-0.7,들물,전라남도 해남군,"감성돔,농어,도다리,숭어,노래미,학꽁치",1
1101,126.7339639,34.4458191708804,완도 부근,내도 갯바위,펄,-0.8~1.5,들물,전라남도 해남군,"감성돔,농어,도다리,숭어,노래미,학꽁치",1
1102,126.7393953,34.4616500008807,완도 부근,사내방조제,펄,0.2~0.4,들물,전라남도 강진군,"감성돔,농어,도다리,숭어,노래미,학꽁치",1
1103,126.7006875,34.4134708308801,완도 부근,고마도 서측 해안,펄,-0.7~-0.5,들물,전라남도 완도군,"감성돔,농어,도다리,숭어,노래미,학꽁치",1
1104,126.710860299451,34.4180163939572,완도 부근,고마도 북측 해안,펄,-0.8~-0.7,들물,전라남도 완도군,"감성돔,농어,도다리,숭어,노래미,학꽁치",1
1105,126.7248725,34.40614806088,완도 부근,고마도 동측 갯바위,펄,0~2,들물,전라남도 완도군,"감성돔,농어,도다리,숭어,노래미,학꽁치",1
1106,126.7327258,34.4015050008799,완도 부근,사후도 북측 갯바위,펄,0~2,들물,전라남도 완도군,"감성돔,농어,도다리,숭어,노래미,학꽁치",1
1107,126.745081900382,34.3992319376015,완도 부근,사후도 동측 갯바위,펄,-1.0~0.1,들물,전라남도 완도군,"감성돔,농어,도다리,숭어,노래미,학꽁치",1
1108,126.7429167,34.3905208308798,완도 부근,사후도 남측 갯바위,펄,-1.0~0.1,들물,전라남도 완도군,"감성돔,농어,도다리,숭어,노래미,학꽁치",1
1109,126.750893099472,34.4505294399477,강진만 부근,복도 갯바위,"펄, 모래",-3.4~1.2,들물,전라남도 강진군,"감성돔,숭어,도다리,망둥어,붕장어",1
1110,126.7574683,34.5657455608819,강진만 부근,만덕호 좌측,펄,0~2,들물,전라남도 강진군,"감성돔,숭어,도다리,망둥어,붕장어",1
1111,126.759095800566,34.5696808267596,강진만 부근,만덕호 갈대밭,펄,0~2,들물,전라남도 강진군,"감성돔,숭어,도다리,망둥어,붕장어",1
1112,126.764060300447,34.5675774965366,강진만 부근,만덕호 우측,펄,0~2,들물,전라남도 강진군,"감성돔,숭어,도다리,망둥어,붕장어",1
1113,126.7898617,34.5349680608815,강진만 부근,가우도 출렁다리 근처,펄,0~2,들물,전라남도 강진군,"감성돔,숭어,도다리,망둥어,붕장어",1
1114,126.778741899785,34.537058890655,강진만 부근,가우도 북측 갯바위,펄,0~2,들물,전라남도 강진군,"감성돔,숭어,도다리,망둥어,붕장어",1
1115,126.7830786,34.5303197208814,강진만 부근,가우도 남측 갯바위,펄,0~2,들물,전라남도 강진군,"감성돔,숭어,도다리,망둥어,붕장어",1
1116,126.7902369,34.4619252808806,강진만 부근,외호도 갯바위,"펄, 모래",0.2~0.6,들물,전라남도 강진군,"감성돔,숭어,도다리,망둥어,붕장어",1
1117,126.9784169,34.4716288908808,득량만 부근,정남진해양낚시공원,펄,0.1~1.2,"4물~12물, 들물",전라남도 장흥군,"감성돔,농어,우럭,노래미,도다리,학꽁치",1
1118,127.0024836,34.5575816708818,득량만 부근,장환마을하단,펄,1~1.4,"4물~12물, 들물",전라남도 장흥군,"감성돔,농어,우럭,노래미,도다리,학꽁치",1
1119,127.1434983,34.5879286108821,득량만 부근,신흥 부근,펄,1.2~1.9,"4물~12물, 들물",전라남도 고흥군,"감성돔,농어,우럭,노래미,도다리,학꽁치",1
1120,127.119001400057,34.5041722185078,득량만 부근,남생리 부근,암,0.3~0.6,"4물~12물, 들물",전라남도 고흥군,"감성돔,농어,우럭,노래미,도다리,학꽁치",1
1121,127.091276900044,34.5965383270036,득량만 부근,득량도 좌측,펄,1.8~3.5,"4물~12물, 들물",전라남도 고흥군,"감성돔,농어,우럭,노래미,도다리,학꽁치",1
1122,127.1102703,34.5964219408823,득량만 부근,득량도 우측하단끝,펄,1.4~3.1,"4물~12물, 들물",전라남도 고흥군,"감성돔,농어,우럭,노래미,도다리,학꽁치",1
1123,127.1077378,34.6024783308823,득량만 부근,득량도 우측,펄,0.5~0.8,"4물~12물, 들물",전라남도 고흥군,"감성돔,농어,우럭,노래미,도다리,학꽁치",1
1124,127.0116836,34.6126036108824,고흥호 부근,장재도 남측해안,펄,0.9~1,들물,전라남도 장흥군,"감성돔,농어,도다리,숭어,붕장어,학꽁치",1
1125,127.1465597,34.6934177808834,고흥호 부근,연동부근해안,펄,0.1~0.2,들물,전라남도 보성군,"감성돔,농어,도다리,숭어,붕장어,학꽁치",1
1126,127.2126611,34.7412538908839,고흥호 부근,득량만방조제,펄,0.3~0.5,들물,전라남도 보성군,"감성돔,농어,도다리,숭어,붕장어,학꽁치",1
1127,127.3078828,34.7269725008837,고흥호 부근,우도 상단,펄,0.2~1.5,들물,전라남도 고흥군,"감성돔,농어,도다리,숭어,붕장어,학꽁치",1
1128,127.224133099672,34.6535386064629,고흥호 부근,고흥만방조제,펄,0.8~1.6,들물,전라남도 고흥군,"감성돔,농어,도다리,숭어,붕장어,학꽁치",1
1129,127.2335617,34.4734244408808,거금수도 부근,한옥민박 옆,펄,2.3~2.9,초들물~만조,전라남도 고흥군,"감성돔,숭어,우럭,노래미,농어,볼락",1
1130,127.2385392,34.5164905608813,거금수도 부근,남촌휴양지 남측,펄,0.1~1.3,초들물~만조,전라남도 고흥군,"감성돔,숭어,우럭,노래미,농어,볼락",1
1131,127.2997408,34.4405200008804,거금수도 부근,지죽도 북측,"펄, 조개껍질",2.1~9,초들물~만조,전라남도 고흥군,"감성돔,숭어,우럭,노래미,농어,볼락",1
1132,127.3028661,34.4334527808804,거금수도 부근,지죽도 남서측,"펄, 조개껍질",3.2~7.9,초들물~만조,전라남도 고흥군,"감성돔,숭어,우럭,노래미,농어,볼락",1
1133,127.3290269001,34.435295829098,거금수도 부근,소염도,암,2.1~3.5,초들물~만조,전라남도 고흥군,"감성돔,숭어,우럭,노래미,농어,볼락",1
1134,127.321015000001,34.4689666708807,거금수도 부근,구암리 해안길,펄,0.1~0.2,초들물~만조,전라남도 고흥군,"감성돔,숭어,우럭,노래미,농어,볼락",1
1135,127.3819767,34.4791280608808,거금수도 부근,추도,펄,5.3~5.5,초들물~만조,전라남도 고흥군,"감성돔,숭어,우럭,노래미,농어,볼락",1
1136,127.387690300337,34.5052452852381,거금수도 부근,까치목골 앞,펄,1.3~1.5,초들물~만조,전라남도 고흥군,"감성돔,숭어,우럭,노래미,농어,볼락",1
1137,127.4138428,34.5111863908813,거금수도 부근,두리도 남측,펄,2.9~3.2,초들물~만조,전라남도 고흥군,"감성돔,숭어,우럭,노래미,농어,볼락",1
1138,127.4069633,34.5120694408812,거금수도 부근,달금골 동측,펄,0.5~2.7,초들물~만조,전라남도 고흥군,"감성돔,숭어,우럭,노래미,농어,볼락",1
1139,127.409725,34.5195225008813,거금수도 부근,남성리 해수욕장,펄,0.1~2.7,초들물~만조,전라남도 고흥군,"감성돔,숭어,우럭,노래미,농어,볼락",1
1140,127.425145300505,34.5113097171834,거금수도 부근,성두도 남측,펄,0.9~2.8,초들물~만조,전라남도 고흥군,"감성돔,숭어,우럭,노래미,농어,볼락",1
1141,127.2414908,34.4163516708801,거금수도 부근,시산도 북측,펄,0.5~2.9,초들물~만조,전라남도 고흥군,"감성돔,숭어,우럭,노래미,농어,볼락",1
1142,127.274373599565,34.3791974968392,거금수도 부근,대바래섬 북측,"펄, 모래",1.9~9,초들물~만조,전라남도 고흥군,"감성돔,숭어,우럭,노래미,농어,볼락",1
1143,127.4756111,34.6350833308827,낭도 부근,신기촌들 갯바위,"모래, 조개껍질",0.2~0.3,"사리 전후, 초날물",전라남도 고흥군,"감성돔,붕장어,농어,숭어",1
1144,127.5335167,34.6245558308825,낭도 부근,하과도 서측,암,2.3~8.5,"조금 전후, 5물~8물",전라남도 여수시,"감성돔,붕장어,농어,숭어",1
1145,127.540561900489,34.6232825046932,낭도 부근,둔병도 남측,암,6.8~17.9,"조금 전후, 5물~8물",전라남도 여수시,"감성돔,붕장어,농어,숭어",1
1146,127.5520125,34.6274197208827,낭도 부근,둔병도 동측,암,4.1~11.3,"조금 전후, 5물~8물",전라남도 여수시,"감성돔,붕장어,농어,숭어",1
1147,127.525763598226,34.6026547230283,낭도 부근,낭도 철탑 밑,암,1.6~6.3,"조금 전후, 5물~8물",전라남도 여수시,"감성돔,붕장어,농어,숭어",1
1148,127.5386964,34.6040733308823,낭도 부근,낭도 터미널 앞,암,1.1~1.8,"조금 전후, 5물~8물",전라남도 여수시,"감성돔,붕장어,농어,숭어",1
1149,127.5576506,34.6169694408825,낭도 부근,낭도산 남측,"펄, 조개껍질",4.3~8.1,"조금 전후, 5물~8물",전라남도 여수시,"감성돔,붕장어,농어,숭어",1
1150,127.5659031,34.6133411108824,낭도 부근,낭도산 동측,"펄, 조개껍질",10~17.5,"조금 전후, 5물~8물",전라남도 여수시,"감성돔,붕장어,농어,숭어",1
1151,127.557550602556,34.6023036117132,낭도 부근,낭도 해안가 옆,암,1~3,"조금 전후, 5물~8물",전라남도 여수시,"감성돔,붕장어,농어,숭어",1
1152,127.5507717,34.6011605608822,낭도 부근,낭도 해안,암,1~3,"조금 전후, 5물~8물",전라남도 여수시,"감성돔,붕장어,농어,숭어",1
1153,127.541178096719,34.5960302826046,낭도 부근,해안길 우측,암,2.6~4.9,"조금 전후, 5물~8물",전라남도 여수시,"감성돔,붕장어,농어,숭어",1
1154,127.5398875,34.5960713908823,낭도 부근,해안길 좌측,암,2.6~4.9,"조금 전후, 5물~8물",전라남도 여수시,"감성돔,붕장어,농어,숭어",1
1155,127.5534033,34.5925730608822,낭도 부근,사도 서측,암,1.3~2.2,"사리 전후, 초날물",전라남도 여수시,"감성돔,붕장어,농어,숭어",1
1156,127.55858309752,34.5898527788123,낭도 부근,사도 해안길,암,0.7~5.9,"사리 전후, 초날물",전라남도 여수시,"감성돔,붕장어,농어,숭어",1
1157,127.571049696789,34.5906241716972,낭도 부근,추도 남측,암,3.8~6,"사리 전후, 초날물",전라남도 여수시,"감성돔,붕장어,농어,숭어",1
1158,127.5938761,34.5970975008822,낭도 부근,상화도 서측,"모래, 조개껍질",1.2~8.5,"조금 전후, 13~5물",전라남도 여수시,"감성돔,붕장어,농어,숭어",1
1159,127.5964492,34.6001000008823,낭도 부근,상화도 해변가,"모래, 조개껍질",2.1~13.5,"조금 전후, 13~5물",전라남도 여수시,"감성돔,붕장어,농어,숭어",1
1160,127.6069089,34.6040525008823,낭도 부근,상화도 북측,펄,3.6~8.9,"조금 전후, 13~5물",전라남도 여수시,"감성돔,붕장어,농어,숭어",1
1161,127.6059094,34.5888127808822,낭도 부근,하화도 서측,펄,4.7~10.6,"조금 전후, 13~5물",전라남도 여수시,"감성돔,붕장어,농어,숭어",1
1162,127.6149036,34.5923941708821,낭도 부근,하화도 해안길,펄,1.8~3.2,"조금 전후, 13~5물",전라남도 여수시,"감성돔,붕장어,농어,숭어",1
1163,127.376749999856,34.7358888912862,순천만 부근,신작 부근,펄,0.1~0.9,초들물,전라남도 고흥군,"붕장어,망둑어,짱뚱어,숭어",1
1164,127.3896111,34.7511111108841,순천만 부근,선정 부근,펄,0.2~1,초들물,전라남도 고흥군,"붕장어,망둑어,짱뚱어,숭어",1
1165,127.561181397212,34.7752688868209,순천만 부근,궁항갯바위 부근,펄,1.1~2.6,초들물,전라남도 여수시,"붕장어,망둑어,짱뚱어,숭어",1
1166,127.5591578,34.7705547208843,순천만 부근,달천도 부근,펄,1.1~3.6,초들물,전라남도 여수시,"붕장어,망둑어,짱뚱어,숭어",1
1167,127.559241097647,34.7482044435478,순천만 부근,대운두도 부근,펄,0.7~6.1,초들물,전라남도 여수시,"붕장어,망둑어,짱뚱어,숭어",1
1168,127.5818258,34.745235000884,순천만 부근,이천리갯바위 끝,펄,0.2~1,초들물,전라남도 여수시,"붕장어,망둑어,짱뚱어,숭어",1
1169,127.5067764,34.7573186108841,순천만 부근,교량낚시터,펄,0.4~1.2,초들물,전라남도 여수시,"붕장어,망둑어,짱뚱어,숭어",1
1170,127.5105656,34.7574147208841,순천만 부근,소여자도 갯바위,펄,0.4~1.1,초들물,전라남도 여수시,"붕장어,망둑어,짱뚱어,숭어",1
1171,127.5045028,34.7553461108841,순천만 부근,대여자도 하단,펄,1.2~1.8,초들물,전라남도 여수시,"붕장어,망둑어,짱뚱어,숭어",1
1172,127.6365472,34.7189308308837,여수엑스포 부근,용주마을 부근,펄,1.3~3.4,조금,전라남도 여수시,"벵에돔,참돔,돌돔,감성돔,농어",1
1173,127.6652281,34.746795280884,여수엑스포 부근,장도 인근 다리,펄,2.4~2.7,조금,전라남도 여수시,"벵에돔,참돔,돌돔,감성돔,농어",1
1174,127.7254292,34.7219838908838,여수엑스포 부근,국동항 인근,"펄, 모래",6.3~8.4,조금,전라남도 여수시,"벵에돔,참돔,돌돔,감성돔,농어",1
1175,127.7425175,34.7099225008836,여수엑스포 부근,노도 인근,펄,1.9~7.1,조금,전라남도 여수시,"벵에돔,참돔,돌돔,감성돔,농어",1
1176,127.7879453,34.6941041708834,여수엑스포 부근,내치도 하단,펄,3.1~4.7,조금,전라남도 여수시,"벵에돔,참돔,돌돔,감성돔,농어",1
1177,127.792259198127,34.6859391688472,여수엑스포 부근,혈서 상단,펄,4.5~4.9,조금,전라남도 여수시,"벵에돔,참돔,돌돔,감성돔,농어",1
1178,127.7506453,34.7696338908842,여수엑스포 부근,검은모래해변 부근,펄,0.8~9.8,조금,전라남도 여수시,"벵에돔,참돔,돌돔,감성돔,농어",1
1179,127.748846701172,34.7807519390629,여수엑스포 부근,검은모래해변 부근,암,0.4~1.2,조금,전라남도 여수시,"벵에돔,참돔,돌돔,감성돔,농어",1
1180,127.757365794994,34.7936408288761,여수엑스포 부근,오천동해수욕장,암,8.4~9.9,조금,전라남도 여수시,"벵에돔,참돔,돌돔,감성돔,농어",1
1181,127.7699492,34.8139047208848,여수엑스포 부근,신덕해수욕장 부근,펄,0.7~7.8,조금,전라남도 여수시,"벵에돔,참돔,돌돔,감성돔,농어",1
1182,127.7577739,34.9596072208865,광양만 부근,배알도해수욕장 부근,"펄, 모래",0~2.0,5물~10물,전라남도 광양시,"붕장어,망둥어,숭어,감성돔,농어,노래미,볼락,",1
1183,127.7759444,34.9406250008862,광양만 부근,마도 갯바위,"펄, 모래",-2.2~2.0,5물~10물,경상남도 하동군,"붕장어,망둥어,숭어,감성돔,농어,노래미,볼락,",1
1184,127.8822167,34.9503380608863,광양만 부근,한려주유소 앞,암,0.1~6.5,5물~10물,경상남도 하동군,"붕장어,망둥어,숭어,감성돔,농어,노래미,볼락,",1
1185,127.8113961,34.8627230608853,광양만 부근,유포마을 부근,"펄, 모래",0~3.1,5물~10물,경상남도 남해군,"붕장어,망둥어,숭어,감성돔,농어,노래미,볼락,",1
1186,127.0761897,34.1959336108775,황제도,알매섬,암,3.1~8.2,"사리를 피한 물때, 1~3물, 9~13물",전라남도 완도군,"감성돔,참돔,돌돔,농어,광어,볼락",1
1187,127.0808906,34.1929627808775,황제도,황제도 등대 밑,암,4.1~6.9,"사리를 피한 물때, 1~3물, 9~13물",전라남도 완도군,"감성돔,참돔,돌돔,농어,광어,볼락",1
1188,127.082611900072,34.1894211083228,황제도,땅콩여 동측,"모래, 조개껍질",6.6~16,"사리를 피한 물때, 1~3물, 9~13물",전라남도 완도군,"감성돔,참돔,돌돔,농어,광어,볼락",1
1189,127.07529580039,34.1877497199564,황제도,황제도 남단,암,6.2~17.1,"사리를 피한 물때, 1~3물, 9~13물",전라남도 완도군,"감성돔,참돔,돌돔,농어,광어,볼락",1
1190,127.0698089,34.1907413908774,황제도,철탑,암,12.9~17.1,"사리를 피한 물때, 1~3물, 9~13물",전라남도 완도군,"감성돔,참돔,돌돔,농어,광어,볼락",1
1191,127.1330625,34.2164858308778,황제도,흰여,암,17.2~21.5,"사리를 피한 물때, 1~3물, 9~13물",전라남도 완도군,"감성돔,참돔,돌돔,농어,광어,볼락",1
1192,127.1523289,34.2039172208777,황제도,소마도,암,5.4~22,"사리를 피한 물때, 1~3물, 9~13물",전라남도 완도군,"감성돔,참돔,돌돔,농어,광어,볼락",1
1193,127.153537199723,34.2052786101763,황제도,장도 서측,암,5.2~10,3~5물,전라남도 완도군,"감성돔,참돔,돌돔,농어,광어,볼락",1
1194,127.1568144,34.2035252808775,황제도,장도 홈통,암,20~22,11~13물,전라남도 완도군,"감성돔,참돔,돌돔,농어,광어,볼락",1
1195,127.1659925,34.2024869408776,황제도,장도 남동측,암,20~26,5~10물,전라남도 완도군,"감성돔,참돔,돌돔,농어,광어,볼락",1
1196,127.177206699685,34.2078572190935,황제도,장도 동측,펄,23~41,5~10물,전라남도 완도군,"감성돔,참돔,돌돔,농어,광어,볼락",1
1197,127.363348300183,34.2933730634623,손죽열도 부근,반초섬 맞은편,펄,2.5~2.8,"사리 전후, 10~5물",전라남도 여수시,"감성돔,참돔,돌돔,우럭,노래미,농어,숭어,",1
1198,127.3647981,34.2947502808786,손죽열도 부근,반초섬 남측,펄,2.5~2.8,"사리 전후, 10~5물",전라남도 여수시,"감성돔,참돔,돌돔,우럭,노래미,농어,숭어,",1
1199,127.3711703,34.2872036108787,손죽열도 부근,손죽 동측,펄,14.9~15.4,"사리 전후, 10~5물",전라남도 여수시,"감성돔,참돔,돌돔,우럭,노래미,농어,숭어,",1
1200,127.348325,34.2846850008786,손죽열도 부근,손죽 서측,펄,9.1~12.7,"사리 전후, 10~5물",전라남도 여수시,"감성돔,참돔,돌돔,우럭,노래미,농어,숭어,",1
1201,127.3484408,34.2876841708786,손죽열도 부근,손죽 서측 낮은 자리,펄,9.1~12.7,"사리 전후, 10~5물",전라남도 여수시,"감성돔,참돔,돌돔,우럭,노래미,농어,숭어,",1
1202,127.351177500414,34.2955072210656,손죽열도 부근,손죽 등대 밑,펄,8.6~26,"사리 전후, 10~5물",전라남도 여수시,"감성돔,참돔,돌돔,우럭,노래미,농어,숭어,",1
1203,127.3544517,34.2917400008787,손죽열도 부근,손죽 해안,펄,6.3~8.6,"사리 전후, 10~5물",전라남도 여수시,"감성돔,참돔,돌돔,우럭,노래미,농어,숭어,",1
1204,127.354145799801,34.2878761149609,손죽열도 부근,손죽 해수욕장,펄,2.4~2.8,"사리 전후, 10~5물",전라남도 여수시,"감성돔,참돔,돌돔,우럭,노래미,농어,숭어,",1
1205,127.3712114,34.2954455608787,손죽열도 부근,잔거리 서측,펄,2.9~9.6,"사리 전후, 10~5물",전라남도 여수시,"감성돔,참돔,돌돔,우럭,노래미,농어,숭어,",1
1206,127.3738656,34.2946152808787,손죽열도 부근,잔거리 넓은 자리,펄,2.9~9.6,"사리 전후, 10~5물",전라남도 여수시,"감성돔,참돔,돌돔,우럭,노래미,농어,숭어,",1
1207,127.380405800133,34.2956377824469,손죽열도 부근,잔거리 홈통,펄,9.6~15.3,"사리 전후, 10~5물",전라남도 여수시,"감성돔,참돔,돌돔,우럭,노래미,농어,숭어,",1
1208,127.3819436,34.2959188908787,손죽열도 부근,잔거리 동측,펄,9.6~15.3,"사리 전후, 10~5물",전라남도 여수시,"감성돔,참돔,돌돔,우럭,노래미,농어,숭어,",1
1209,127.387656899735,34.2874575028771,손죽열도 부근,소거문 서측 인근,펄,4.7~7.6,"사리 전후, 10~5물",전라남도 여수시,"감성돔,참돔,돌돔,우럭,노래미,농어,숭어,",1
1210,127.3858878,34.2887958308786,손죽열도 부근,소거문 서측,펄,4.7~7.6,"사리 전후, 10~5물",전라남도 여수시,"감성돔,참돔,돌돔,우럭,노래미,농어,숭어,",1
1211,127.39651249995,34.2976072189562,손죽열도 부근,소거문 북단,암,7.3~9.9,"사리 전후, 10~5물",전라남도 여수시,"감성돔,참돔,돌돔,우럭,노래미,농어,숭어,",1
1212,127.399365,34.2960769408787,손죽열도 부근,소거문 계단,펄,7.9~9.9,"사리 전후, 10~5물",전라남도 여수시,"감성돔,참돔,돌돔,우럭,노래미,농어,숭어,",1
1213,127.402755,34.2901408308786,손죽열도 부근,소거문 동측,펄,6.8~9.9,"사리 전후, 10~5물",전라남도 여수시,"감성돔,참돔,돌돔,우럭,노래미,농어,숭어,",1
1214,127.3930481,34.2823513908785,손죽열도 부근,소거문 해안,펄,8.4~10.4,"사리 전후, 10~5물",전라남도 여수시,"감성돔,참돔,돌돔,우럭,노래미,농어,숭어,",1
1215,127.390584199865,34.2782333264054,손죽열도 부근,소거문 서코지,펄,10.4~20,"사리 전후, 10~5물",전라남도 여수시,"감성돔,참돔,돌돔,우럭,노래미,농어,숭어,",1
1216,127.38793,34.2801138908785,손죽열도 부근,소거문 서코지 좌측,펄,7.6~20,"사리 전후, 10~5물",전라남도 여수시,"감성돔,참돔,돌돔,우럭,노래미,농어,숭어,",1
1217,127.3883517,34.2826397208786,손죽열도 부근,소거문 홈통,펄,7.6~20,"사리 전후, 10~5물",전라남도 여수시,"감성돔,참돔,돌돔,우럭,노래미,농어,숭어,",1
1218,127.4482633,34.2573311108782,간수제도,소평도 서측 홈통,암,12.6~18.3,"사리 전후, 초들물",전라남도 여수시,"감성돔,참돔,돌돔,우럭,노래미,농어,숭어,",1
1219,127.4520006,34.2583197208782,간수제도,소평도 계단,암,18.3~20,"사리 전후, 초들물",전라남도 여수시,"감성돔,참돔,돌돔,우럭,노래미,농어,숭어,",1
1220,127.450537199601,34.256726940861,간수제도,소평도 남측,암,18.3~20,"사리 전후, 초들물",전라남도 여수시,"감성돔,참돔,돌돔,우럭,노래미,농어,숭어,",1
1221,127.449088599745,34.2565716707942,간수제도,소평도 남서측,암,12.3~18.3,"사리 전후, 초들물",전라남도 여수시,"감성돔,참돔,돌돔,우럭,노래미,농어,숭어,",1
1222,127.455192200039,34.2468263911389,간수제도,평도 우측 넓은 자리,암,12.3~16.5,"사리 전후, 초들물",전라남도 여수시,"감성돔,참돔,돌돔,우럭,노래미,농어,숭어,",1
1223,127.5326575,34.2697908308784,간수제도,광도 북측,암,4.7~10.4,"사리 전후, 초들물",전라남도 여수시,"감성돔,참돔,돌돔,우럭,노래미,농어,숭어,",1
1224,127.528308298599,34.2645188938798,간수제도,광도 서측 홈통,암,18.2~18.5,"사리 전후, 초들물",전라남도 여수시,"감성돔,참돔,돌돔,우럭,노래미,농어,숭어,",1
1225,127.530499397021,34.2607225036062,간수제도,광도 남측,암,18.2~18.5,"사리 전후, 초들물",전라남도 여수시,"감성돔,참돔,돌돔,우럭,노래미,농어,숭어,",1
1226,127.3842647,34.0599833308758,대삼부도,노루섬 갯바위,암,0.6~14.3,10물~13물,전라남도 여수시,"벵에돔,참돔,돌돔,감성돔,농어",1
1227,127.387956099611,34.0595072174472,대삼부도,절밑 갯바위,암,2~4.7,10물~13물,전라남도 여수시,"벵에돔,참돔,돌돔,감성돔,농어",1
1228,127.3860994,34.0567941708757,대삼부도,첫곶부리 갯바위,암,12.3~19.6,10물~13물,전라남도 여수시,"벵에돔,참돔,돌돔,감성돔,농어",1
1229,127.3847653,34.0540422208758,대삼부도,덜섬 끝바리 부근,암,0.1~13.8,10물~13물,전라남도 여수시,"벵에돔,참돔,돌돔,감성돔,농어",1
1230,127.3856456,34.0532888908757,대삼부도,덜섬 끝바리,암,0.1~13.8,10물~13물,전라남도 여수시,"벵에돔,참돔,돌돔,감성돔,농어",1
1231,127.3877911,34.0549327808757,대삼부도,덜섬사이 골창여,암,1~14.5,10물~13물,전라남도 여수시,"벵에돔,참돔,돌돔,감성돔,농어",1
1232,127.39162,34.0575177808758,대삼부도,남측 직벽,암,0.3~8.2,10물~13물,전라남도 여수시,"벵에돔,참돔,돌돔,감성돔,농어",1
1233,127.397049999573,34.0556358287818,대삼부도,구멍섬 갯바위,암,0.6~0.7,10물~13물,전라남도 여수시,"벵에돔,참돔,돌돔,감성돔,농어",1
1234,127.3980044,34.0554777808758,대삼부도,쌍굴 근처 갯바위,암,0.6~0.7,10물~13물,전라남도 여수시,"벵에돔,참돔,돌돔,감성돔,농어",1
1235,127.3973139,34.0566063908757,대삼부도,동측 갯바위,암,0.4~0.6,10물~13물,전라남도 여수시,"벵에돔,참돔,돌돔,감성돔,농어",1
1236,127.3982906,34.0572016708758,대삼부도,동측 갯바위,암,0.4~5.1,10물~13물,전라남도 여수시,"벵에돔,참돔,돌돔,감성돔,농어",1
1237,127.3957406,34.0588638908758,대삼부도,똥여부근 갯바위,암,0.3~3.1,10물~13물,전라남도 여수시,"벵에돔,참돔,돌돔,감성돔,농어",1
1238,127.3901678,34.0612219408758,대삼부도,동굴 좌측,암,0.2~0.8,10물~13물,전라남도 여수시,"벵에돔,참돔,돌돔,감성돔,농어",1
1239,127.3893811,34.0611027808759,대삼부도,동굴 우측,암,0.2~0.8,10물~13물,전라남도 여수시,"벵에돔,참돔,돌돔,감성돔,농어",1
1240,127.3872436,34.0623230608759,대삼부도,북동쪽 홈통,암,0.3~0.8,10물~13물,전라남도 여수시,"벵에돔,참돔,돌돔,감성돔,농어",1
1241,127.3865039,34.0627991708759,대삼부도,북쪽 끝바리,암,0.3~0.8,10물~13물,전라남도 여수시,"벵에돔,참돔,돌돔,감성돔,농어",1
1242,127.793695,34.4600883308806,연도,검등서 갯바위,암,2.3~2.9,"초들물, 초날물, 조금 전·후",전라남도 여수시,"참돔,감성돔,볼락,농어,,돌돔,갑오징어",1
1243,127.8045722,34.4611147208806,연도,철탑밑 갯바위,암,2.3~3.6,"초들물, 초날물, 조금 전·후",전라남도 여수시,"참돔,감성돔,볼락,농어,,돌돔,갑오징어",1
1244,127.8076539,34.4594786108806,연도,모경말 갯바위,암,2.8~3.6,"초들물, 초날물, 조금 전·후",전라남도 여수시,"참돔,감성돔,볼락,농어,,돌돔,갑오징어",1
1245,127.8168769,34.4511788908805,연도,배미말 갯바위,암,2.7~3.5,"초들물, 초날물, 조금 전·후",전라남도 여수시,"참돔,감성돔,볼락,농어,,돌돔,갑오징어",1
1246,127.8053581,34.4284066708802,연도,동부 근처 갯바위,암,0.1~9.7,"초들물, 초날물, 조금 전·후",전라남도 여수시,"참돔,감성돔,볼락,농어,,돌돔,갑오징어",1
1247,127.8094964,34.4249313908802,연도,연도 산태바위,암,0.2~1.6,"초들물, 초날물, 조금 전·후",전라남도 여수시,"참돔,감성돔,볼락,농어,,돌돔,갑오징어",1
1248,127.8080358,34.4171922208801,연도,만작굴,암,1.6~25,"초들물, 초날물, 조금 전·후",전라남도 여수시,"참돔,감성돔,볼락,농어,,돌돔,갑오징어",1
1249,127.8058336,34.4084113908801,연도,소룡단 갯바위,암,0.2~1.6,"초들물, 초날물, 조금 전·후",전라남도 여수시,"참돔,감성돔,볼락,농어,,돌돔,갑오징어",1
1250,127.7986967,34.4096263908801,연도,대룡단 갯바위,암,0.7~1.3,"초들물, 초날물, 조금 전·후",전라남도 여수시,"참돔,감성돔,볼락,농어,,돌돔,갑오징어",1
1251,127.7965389,34.4168941708801,연도,덕포 갯바위,암,0.7~1.3,"초들물, 초날물, 조금 전·후",전라남도 여수시,"참돔,감성돔,볼락,농어,,돌돔,갑오징어",1
1252,127.7888208,34.41282722088,연도,연도 대바위,암,1.3~3.1,"초들물, 초날물, 조금 전·후",전라남도 여수시,"참돔,감성돔,볼락,농어,,돌돔,갑오징어",1
1253,127.7850753,34.4301900008803,연도,절리서 근처 갯바위,암,1.1~1.5,"초들물, 초날물, 조금 전·후",전라남도 여수시,"참돔,감성돔,볼락,농어,,돌돔,갑오징어",1
1254,127.7941211,34.4535852808806,연도,역포 서측 갯바위,암,0.2~1.9,"초들물, 초날물, 조금 전·후",전라남도 여수시,"참돔,감성돔,볼락,농어,,돌돔,갑오징어",1
1255,127.9980314,35.0347086108872,사천대교 부근,조도마을 앞,펄,-1.7~-2.2,초들물~중날물,경상남도 사천시,"참돔,농어,우럭,볼락,노래미,붕장어",1
1256,128.0040086,35.0446319408873,사천대교 부근,덕진포교,펄,-1.5~-1.7,초들물~중날물,경상남도 사천시,"참돔,농어,우럭,볼락,노래미,붕장어",1
1257,128.009827794549,35.0500708300921,사천대교 부근,환덕리 묵곡천,펄,-1.7~-2.1,초들물~중날물,경상남도 사천시,"참돔,농어,우럭,볼락,노래미,붕장어",1
1258,128.0348883,35.0231141708871,사천대교 부근,화곡관광농원 앞,펄,0.1~3.4,초들물~중날물,경상남도 사천시,"참돔,농어,우럭,볼락,노래미,붕장어",1
1259,128.0378464,35.0195644408871,사천대교 부근,법도 맞은편,펄,0.1~1.5,초들물~중날물,경상남도 사천시,"참돔,농어,우럭,볼락,노래미,붕장어",1
1260,128.0427342,35.008429720887,사천대교 부근,금문들 앞,펄,0.1~1.5,초들물~중날물,경상남도 사천시,"참돔,농어,우럭,볼락,노래미,붕장어",1
1261,128.0321147,34.9588155608864,진주만 부근,"삼분갑 근처 갯바위
(*삼천포 마리나 포인트)",암,1.2~6.3,"13물-4물, 초들물",경상남도 사천시,"감성돔,노래미,볼락,농어,도다리,갑오징어",1
1262,128.0343575,34.9509902808863,진주만 부근,산분령 유료낚시터,암,2.0~4.0,"13물-4물, 초들물",경상남도 사천시,"감성돔,노래미,볼락,농어,도다리,갑오징어",1
1263,128.0337406,34.9350558308861,진주만 부근,산분령 앞 마동도,암,0.1~2.2,"13물-4물, 초들물",경상남도 사천시,"감성돔,노래미,볼락,농어,도다리,갑오징어",1
1264,128.045696403258,34.924701387797,진주만 부근,초양도 남동측,암,5.7~10.4,"13물-4물, 초들물",경상남도 사천시,"감성돔,노래미,볼락,농어,도다리,갑오징어",1
1265,128.049590003816,34.9256969451126,진주만 부근,삼천포대교 밑 갯바위,암,1.2~11.1,"13물-4물, 초들물",경상남도 사천시,"감성돔,노래미,볼락,농어,도다리,갑오징어",1
1266,128.1496417,34.9043694408858,진주만 부근,상족암 유람선 갯바위,암,1.5~3.8,"13물-4물, 초들물",경상남도 고성군,"감성돔,노래미,볼락,농어,도다리,갑오징어",1
1267,128.1496417,34.9043694408858,자란만 부근,상족암 유람선 뒷편,암,1.5~3.8,13물~6물,경상남도 고성군,"갑오징어,감성돔,노래미,벵에돔,참돔,볼락,농어",1
1268,128.2555833,34.9372888908861,자란만 부근,.솔섬 맞은편,펄,0.1~4.8,13물~6물,경상남도 고성군,"갑오징어,감성돔,노래미,벵에돔,참돔,볼락,농어",1
1269,128.3303361,34.9554611108864,자란만 부근,오토캠핑장 앞,펄,0.5~0.8,13물~6물,경상남도 고성군,"갑오징어,감성돔,노래미,벵에돔,참돔,볼락,농어",1
1270,128.3198361,34.9090722208858,자란만 부근,가오치 마을 앞,펄,0.6~2.9,13물~6물,경상남도 통영시,"갑오징어,감성돔,노래미,벵에돔,참돔,볼락,농어",1
1271,128.3085242,34.7557966708841,추도 부근,오리바위 끝,암,2.3~6.7,6물~8물,경상남도 통영시,"볼락,우럭,쭈꾸미,광어,감성돔,벵에돔,참돔",1
1272,128.3068667,34.751481110884,추도 부근,농바위 끝,암,3.6~6.3,6물~8물,경상남도 통영시,"볼락,우럭,쭈꾸미,광어,감성돔,벵에돔,참돔",1
1273,128.2990758,34.751612500884,추도 부근,구들빗등,암,4.3~4.5,6물~8물,경상남도 통영시,"볼락,우럭,쭈꾸미,광어,감성돔,벵에돔,참돔",1
1274,128.2926167,34.747758060884,추도 부근,물선치,암,4.3~4.5,6물~8물,경상남도 통영시,"볼락,우럭,쭈꾸미,광어,감성돔,벵에돔,참돔",1
1275,128.2896158,34.750888330884,추도 부근,북바위 근처,암,0.5~1.5,6물~8물,경상남도 통영시,"볼락,우럭,쭈꾸미,광어,감성돔,벵에돔,참돔",1
1276,128.2833778,34.754906110884,추도 부근,용머리치 끝,암,5.0~7.8,6물~8물,경상남도 통영시,"볼락,우럭,쭈꾸미,광어,감성돔,벵에돔,참돔",1
1277,128.2865764,34.755790280884,추도 부근,용두암 중앙,암,5.0~7.8,6물~8물,경상남도 통영시,"볼락,우럭,쭈꾸미,광어,감성돔,벵에돔,참돔",1
1278,128.2861844,34.7590197208841,추도 부근,돌 무너진 자리,암,2.5~2.9,6물~8물,경상남도 통영시,"볼락,우럭,쭈꾸미,광어,감성돔,벵에돔,참돔",1
1279,128.2942625,34.7630241708842,추도 부근,연등 끝,암,3.1~5.0,6물~8물,경상남도 통영시,"볼락,우럭,쭈꾸미,광어,감성돔,벵에돔,참돔",1
1280,128.2970653,34.7610155608841,추도 부근,높은여,암,3.1~5.0,6물~8물,경상남도 통영시,"볼락,우럭,쭈꾸미,광어,감성돔,벵에돔,참돔",1
1281,128.351169698094,34.6516469372898,연화도 부근,연화항 인근 갯바위,암,4.4~9.7,"초들물, 초날물, 5물~6물, 조금",경상남도 통영시,"참돔,감성돔,볼락,벵에돔,농어",1
1282,128.3533939,34.6518169408829,연화도 부근,연화도 반하도 골창,암,4.4~13.3,"초들물, 초날물, 5물~6물, 조금",경상남도 통영시,"참돔,감성돔,볼락,벵에돔,농어",1
1283,128.3620775,34.6484486108828,연화도 부근,십리골마을 동측 갯바위,암,9.7~15.8,"초들물, 초날물, 5물~6물, 조금",경상남도 통영시,"참돔,감성돔,볼락,벵에돔,농어",1
1284,128.3765528,34.6453466708828,연화도 부근,막끝 갯바위,암,8.8~10.2,"초들물, 초날물, 5물~6물, 조금",경상남도 통영시,"참돔,감성돔,볼락,벵에돔,농어",1
1285,128.3812111,34.6405600008828,연화도 부근,진등끝 갯바위,암,5.9~8.2,"초들물, 초날물, 5물~6물, 조금",경상남도 통영시,"참돔,감성돔,볼락,벵에돔,농어",1
1286,128.3768089,34.6348008308827,연화도 부근,네바위 사이 골창,암,7.2~12.2,"초들물, 초날물, 5물~6물, 조금",경상남도 통영시,"참돔,감성돔,볼락,벵에돔,농어",1
1287,128.3676828,34.6389333308827,연화도 부근,소쿠리강정 갯바위,암,7.9~10.7,"초들물, 초날물, 5물~6물, 조금",경상남도 통영시,"참돔,감성돔,볼락,벵에돔,농어",1
1288,128.3635606,34.6418047208828,연화도 부근,연화리 갯바위,암,10.1~10.7,"초들물, 초날물, 5물~6물, 조금",경상남도 통영시,"참돔,감성돔,볼락,벵에돔,농어",1
1289,128.3578814,34.6409802808828,연화도 부근,한숨자리 인근,암,3.9~8.4,"초들물, 초날물, 5물~6물, 조금",경상남도 통영시,"참돔,감성돔,볼락,벵에돔,농어",1
1290,128.3561811,34.6390391708827,연화도 부근,진강정 갯바위,암,3.9~7.9,"초들물, 초날물, 5물~6물, 조금",경상남도 통영시,"참돔,감성돔,볼락,벵에돔,농어",1
1291,128.3444814,34.6421319408828,연화도 부근,대바위 인근,암,3.8~4.6,"초들물, 초날물, 5물~6물, 조금",경상남도 통영시,"참돔,감성돔,볼락,벵에돔,농어",1
1292,128.3431189,34.6457444408828,연화도 부근,촛대바위 인근,암,5.4~6.8,"초들물, 초날물, 5물~6물, 조금",경상남도 통영시,"참돔,감성돔,볼락,벵에돔,농어",1
1293,128.3448889,34.6498152808828,연화도 부근,연화항 서측 끝,암,9.7~11.7,"초들물, 초날물, 5물~6물, 조금",경상남도 통영시,"참돔,감성돔,볼락,벵에돔,농어",1
1294,128.3414964,34.6578505608829,연화도 부근,아랫마을 갯바위,암,2.5~2.9,"초들물, 초날물, 5물~6물, 조금",경상남도 통영시,"참돔,감성돔,볼락,벵에돔,농어",1
1295,128.3391672,34.664429170883,연화도 부근,구멍섬 갯바위,암,2.9~7.1,"초들물, 초날물, 5물~6물, 조금",경상남도 통영시,"참돔,감성돔,볼락,벵에돔,농어",1
1296,128.3430994,34.663643330883,연화도 부근,목섬 갯바위,암,6~7.1,"초들물, 초날물, 5물~6물, 조금",경상남도 통영시,"참돔,감성돔,볼락,벵에돔,농어",1
1297,128.3481186,34.661539440883,연화도 부근,가마동섬,암,1.9~3.3,"초들물, 초날물, 5물~6물, 조금",경상남도 통영시,"참돔,감성돔,볼락,벵에돔,농어",1
1298,128.3532192,34.6542550008829,연화도 부근,반하도 갯바위,암,1.9~4.1,"초들물, 초날물, 5물~6물, 조금",경상남도 통영시,"참돔,감성돔,볼락,벵에돔,농어",1
1299,128.1886078,34.572401390882,갈도 부근,욕지끝바리,"모래, 조개껍질",11.6~11.8,"2물~8물, 사리 전후",경상남도 통영시,"감성돔,돌돔,볼락,무늬오징어",1
1300,128.1891831,34.5705530608819,갈도 부근,빗바위,"모래, 조개껍질",11.6~11.8,"2물~8물, 사리 전후",경상남도 통영시,"감성돔,돌돔,볼락,무늬오징어",1
1301,128.1899919,34.569194440882,갈도 부근,빗바위 근처,"모래, 조개껍질",11.6~11.8,"2물~8물, 사리 전후",경상남도 통영시,"감성돔,돌돔,볼락,무늬오징어",1
1302,128.1890081,34.5688838908819,갈도 부근,붉은바위,"모래, 조개껍질",11.6~11.8,"2물~8물, 사리 전후",경상남도 통영시,"감성돔,돌돔,볼락,무늬오징어",1
1303,128.188799700533,34.5657872195508,갈도 부근,삼각여,암,3.4~8.4,"2물~8물, 사리 전후",경상남도 통영시,"감성돔,돌돔,볼락,무늬오징어",1
1304,128.187665794647,34.5621663874726,갈도 부근,똥여,암,3.4~13.8,"2물~8물, 사리 전후",경상남도 통영시,"감성돔,돌돔,볼락,무늬오징어",1
1305,128.1833219,34.5588072208818,갈도 부근,매여 앞 갯바위,암,14.5~15.9,"2물~8물, 사리 전후",경상남도 통영시,"감성돔,돌돔,볼락,무늬오징어",1
1306,128.1827633,34.5569102808818,갈도 부근,매여,암,14.5~15.9,"2물~8물, 사리 전후",경상남도 통영시,"감성돔,돌돔,볼락,무늬오징어",1
1307,128.1814378,34.5583519408818,갈도 부근,미끄럼바위 근처,암,14.5~15.9,"2물~8물, 사리 전후",경상남도 통영시,"감성돔,돌돔,볼락,무늬오징어",1
1308,128.17922,34.5584208308819,갈도 부근,귀신여,암,14.5~15.9,"2물~8물, 사리 전후",경상남도 통영시,"감성돔,돌돔,볼락,무늬오징어",1
1309,128.1773106,34.5588691708818,갈도 부근,너부렁여 근처,암,14.5~15.9,"2물~8물, 사리 전후",경상남도 통영시,"감성돔,돌돔,볼락,무늬오징어",1
1310,128.1763769,34.5593727808819,갈도 부근,너부렁여,암,14.5~15.9,"2물~8물, 사리 전후",경상남도 통영시,"감성돔,돌돔,볼락,무늬오징어",1
1311,128.3884014,34.8625980608853,진해만 부근,문턱개 북측,펄,1.4~3.5,조금 전후,경상남도 통영시,"감성돔,넙치,도다리,볼락,붕장어,우럭,학꽁치,노래미",1
1312,128.4643606,34.9086900008858,진해만 부근,지도 서측 해안길 끝,암,3.5~4.4,조금 전후,경상남도 통영시,"감성돔,넙치,도다리,볼락,붕장어,우럭,학꽁치,노래미",1
1313,128.4497353,35.0713086108876,당항포 부근,해상펜션 앞,모래,0.3~0.5,초들물~중날물,경상남도 고성군,"도다리,노래미,볼락,감성돔,갑오징어",1
1314,128.5420408,35.1016108308879,진해항 부근,삼우골 서측,펄,0.6~1.1,초들물~중날물,경상남도 창원시,"도다리,노래미,볼락,감성돔,갑오징어",1
1315,128.6012261,35.1040725008879,진해항 부근,해돋이까페 부근,펄,1.3~2.5,초들물~중날물,경상남도 창원시,"도다리,노래미,볼락,감성돔,갑오징어",1
1316,128.599954700001,35.1375772208883,진해항 부근,막개도,펄,1.2~8.1,초들물~중날물,경상남도 창원시,"도다리,노래미,볼락,감성돔,갑오징어",1
1317,128.6630144,35.0598969408875,진해항 부근,잠도 서측,펄,0.1~3.9,초들물~중날물,경상남도 창원시,"도다리,노래미,볼락,감성돔,갑오징어",1
1318,128.6876347,35.0756155608876,진해항 부근,초리도 서측,펄,3.8~4.6,초들물~중날물,경상남도 창원시,"도다리,노래미,볼락,감성돔,갑오징어",1
1319,128.6961678,35.0973736108878,진해항 부근,합포마을 남측,펄,0.1~1.7,초들물~중날물,경상남도 창원시,"도다리,노래미,볼락,감성돔,갑오징어",1
1320,129.177253300002,35.1551069408875,수영만 부근,고두말 근처바위,암,0.3~0.1,6물~8물,부산광역시 해운대구,"붕장어,참돔,노래미,도다리,숭어,전어,부시리",1
