id,longitude,latitude,name,pointName,material,dpwt,address,category,obsCode,obsPostId
1,124.7294722,37.83177778,대청도·소청도,선진포항 앞바다,가는 모래,13~20,인천광역시 옹진군,0,IE_0062,웅진소청초
2,124.7802222,37.77727778,대청도·소청도,곽암 부근,"자갈, 조개껍질",23~29,인천광역시 옹진군,0,IE_0062,웅진소청초
3,124.73375,37.7515,대청도·소청도,가두암 부근,가는 모래,26~30,인천광역시 옹진군,0,IE_0062,웅진소청초
4,124.6640833,37.80127778,대청도·소청도,갑죽도 부근,"모래, 조개껍질",22~27,인천광역시 옹진군,0,IE_0062,웅진소청초
5,126.3179722,37.52283333,장봉도,비가지(날가지도) 부근,"모래, 펄",6~11,인천광역시 옹진군,0,IE_0062,웅진소청초
6,126.3976667,37.53811111,장봉도,부도 부근,모래,10~15,인천광역시 옹진군,0,IE_0062,웅진소청초
7,126.2794167,37.27786111,자월도,묵통도 부근,모래,12.5~14,인천광역시 옹진군,0,IE_0062,웅진소청초
8,126.3135556,37.26952778,자월도,입암두 앞바다,모래,8~10,인천광역시 옹진군,0,IE_0062,웅진소청초
9,126.3533056,37.25847222,자월도,굴뿌리 앞바다,모래,27~30,인천광역시 옹진군,0,IE_0062,웅진소청초
10,126.31875,37.23961111,자월도,월암두(부근여) 부근,"조개껍질, 펄",13~17,인천광역시 옹진군,0,IE_0062,웅진소청초
11,126.0732222,37.27838889,덕적도·소야도,선미도 부근,모래,10~15,인천광역시 옹진군,0,DT_0065,덕적도
12,126.0868889,37.25930556,덕적도·소야도,단탄 부근,모래,12~17,인천광역시 옹진군,0,DT_0065,덕적도
13,126.0808889,37.21611111,덕적도·소야도,용담갑 앞바다,가는모래,30~35,인천광역시 옹진군,0,DT_0065,덕적도
14,126.0998889,37.20563889,덕적도·소야도,감증탄 부근,바위,6~10,인천광역시 옹진군,0,DT_0065,덕적도
15,126.2106111,37.19452778,이작도·승봉도,벌도와 동백도 사이,가는 모래,20~27,인천광역시 옹진군,0,IE_0062,웅진소청초
16,126.2200833,37.19880556,이작도·승봉도,동백도 동측 앞바다,가는 모래,47~50,인천광역시 옹진군,0,IE_0062,웅진소청초
17,126.2604167,37.1855,이작도·승봉도,오형제바위 앞바다,펄,13~22,인천광역시 옹진군,0,IE_0062,웅진소청초
18,126.2879444,37.16138889,이작도·승봉도,송곳부리 앞바다,"모래, 펄, 조개껍질",8.4~10,인천광역시 옹진군,0,IE_0062,웅진소청초
19,126.2559722,37.16519444,이작도·승봉도,작은풀안해수욕장 앞바다,"모래, 펄",17~20,인천광역시 옹진군,0,IE_0062,웅진소청초
20,126.2463333,37.18022222,이작도·승봉도,선착장 앞바다,"모래, 펄",10~17,인천광역시 옹진군,0,IE_0062,웅진소청초
21,126.0893333,37.20363889,문갑도·선갑도,문갑도 감증탄 부근,가는 모래,14.5~18,인천광역시 옹진군,0,IE_0062,웅진소청초
22,126.12125,37.18672222,문갑도·선갑도,문갑도 할미취 부근,가는 모래,7.8~10,인천광역시 옹진군,0,IE_0062,웅진소청초
23,126.0436944,37.09236111,문갑도·선갑도,선갑도 서측 바다,가는 모래,35~40,인천광역시 옹진군,0,IE_0062,웅진소청초
24,126.0809722,37.05872222,문갑도·선갑도,선갑도 우두암 부근,"펄, 모래",36~39,인천광역시 옹진군,0,IE_0062,웅진소청초
25,125.9461389,37.06466667,백아도·굴업도,백아도 오도 부근,펄,6.2~10,인천광역시 옹진군,0,IE_0062,웅진소청초
26,125.9687222,37.05686111,백아도·굴업도,백아도 광대도 부근,"모래, 펄",3.8~5.2,인천광역시 옹진군,0,IE_0062,웅진소청초
27,125.9991944,37.19883333,백아도·굴업도,굴업도 동뿌리 앞바다,가는 모래,40~43,인천광역시 옹진군,0,IE_0062,웅진소청초
28,125.9805,37.18013889,백아도·굴업도,굴업도 항도 부근,펄,5~6.2,인천광역시 옹진군,0,IE_0062,웅진소청초
29,126.5273056,37.12244444,입파도·국화도,입파도 학산서 부근,"펄, 모래",15~18,경기도 화성시,0,DT_0002,평택
30,126.5227778,37.09291667,입파도·국화도,입파도 남서측 바다,"펄, 모래",31~34,경기도 화성시,0,DT_0002,평택
31,126.5634444,37.08072222,입파도·국화도,국화도 북동측 바다,모래,24.5~30,경기도 화성시,0,DT_0002,평택
32,126.5455556,37.04922222,입파도·국화도,국화도 등표 부근,펄,24~28,경기도 화성시,0,DT_0002,평택
33,126.4002778,37.12113889,풍도·난지도,풍도 북동측 바다,"자갈, 조개껍질",25~27,경기도 안산시,0,DT_0008,안산
34,126.4128611,37.08419444,풍도·난지도,풍도 남동측 바다,모래,26~28,경기도 안산시,0,DT_0008,안산
35,126.3785556,37.08530556,풍도·난지도,풍도 남서측 바다,모래,18~20,경기도 안산시,0,DT_0008,안산
36,126.4113056,37.05719444,풍도·난지도,대난지도 철도 부근,모래,12~16,경기도 안산시,0,DT_0008,안산
37,126.4495833,37.02822222,풍도·난지도,소난지도 우모도 부근,모래,23~24,경기도 안산시,0,DT_0008,안산
38,126.4298889,37.02825,풍도·난지도,소난지도 비경도 부근,모래,25~28,경기도 안산시,0,DT_0008,안산
39,126.4218889,36.39044444,원산도·삽시도,증도 부근,모래,3.8~5.6,충청남도 보령시,0,DT_0025,보령
40,126.3892222,36.34069444,원산도·삽시도,납작도 부근,"펄, 모래",6.3~8.3,충청남도 보령시,0,DT_0025,보령
41,126.3311389,36.34397222,원산도·삽시도,면삽지 앞바다,"모래, 조개껍질",5.2~6.1,충청남도 보령시,0,DT_0025,보령
42,126.3168333,36.36163889,원산도·삽시도,물건서 부근,"모래, 펄",15~19,충청남도 보령시,0,DT_0025,보령
43,126.2502222,36.31322222,호도·녹도·외연도,명덕도 부근,모래,17~22,충청남도 보령시,0,DT_0025,보령
44,126.2794722,36.26583333,호도·녹도·외연도,석도 부근,모래,6.8~9,충청남도 보령시,0,DT_0025,보령
45,126.2771111,36.25636111,호도·녹도·외연도,소화사도 부근,"펄, 모래",11~15,충청남도 보령시,0,DT_0025,보령
46,126.2473333,36.27177778,호도·녹도·외연도,모도 부근,모래,13.7~16,충청남도 보령시,0,DT_0025,보령
47,126.0645556,36.23161111,호도·녹도·외연도,흑서 부근,펄,14~16,충청남도 보령시,0,DT_0025,보령
48,126.0872222,36.20208333,호도·녹도·외연도,초망서 부근,"펄, 조개껍질",21.5~27.5,충청남도 보령시,0,DT_0025,보령
49,125.9729722,36.13222222,어청도·연도,어청도 등대 북쪽 부근,펄,44~50,전라북도 군산시,0,DT_0037,어청도
50,126.0016667,36.121,어청도·연도,어청도 한우담 앞바다,모래,41~47,전라북도 군산시,0,DT_0037,어청도
51,125.9947222,36.10583333,어청도·연도,어청도 가진서 부근,모래,22~30,전라북도 군산시,0,DT_0037,어청도
52,126.4265556,36.09052778,어청도·연도,연도 북서쪽 부근,모래,10~14,전라북도 군산시,0,DT_0037,어청도
53,126.2175833,36.00227778,십이동파도·비안도,십이동파도 북도 북서측 바다,"펄, 모래",51~53,전라북도 군산시,0,DT_0018,군산
54,126.2279167,35.97883333,십이동파도·비안도,십이동파도 소금도 남서측 바다,"펄, 조개껍질",27~29.3,전라북도 군산시,0,DT_0018,군산
55,126.4658611,35.74502778,십이동파도·비안도,비안도 두리도 부근,가는 모래,4.3~5.1,전라북도 군산시,0,DT_0018,군산
56,126.4573056,35.72819444,십이동파도·비안도,비안도 치두도 부근,"모래, 펄",8.3~9.2,전라북도 군산시,0,DT_0018,군산
57,126.3025278,35.85819444,말도·방축도,말도 서쪽 바다,"모래, 조개껍질",8.6~30,전라북도 군산시,0,DT_0018,군산
58,126.3160556,35.86275,말도·방축도,말도 등대 앞바다,"모래, 조개껍질",26~30.5,전라북도 군산시,0,DT_0018,군산
59,126.32825,35.85572222,말도·방축도,말도와 보농도 사이 바다,"모래, 조개껍질",7~10,전라북도 군산시,0,DT_0018,군산
60,126.3460833,35.86055556,말도·방축도,솔푼서 부근,바위,15.2~18,전라북도 군산시,0,DT_0018,군산
61,126.3903889,35.85519444,말도·방축도,방축도 동쪽 바다,펄,33~37,전라북도 군산시,0,DT_0018,군산
62,126.3771667,35.82797222,말도·방축도,흑도와 골서 부근,"자갈, 조개껍질",12~15,전라북도 군산시,0,DT_0018,군산
63,126.3836944,35.811,선유도·무녀도·장자도·신시도,1. 증서 부근,가는 모래,13.6~15,전라북도 군산시,0,DT_0018,군산
64,126.3955833,35.82727778,선유도·무녀도·장자도·신시도,2. 광서 부근,"자갈, 조개껍질",6~8,전라북도 군산시,0,DT_0018,군산
65,126.44,35.83452778,선유도·무녀도·장자도·신시도,3. 도토머리도 부근,"모래, 펄",13~15,전라북도 군산시,0,DT_0018,군산
66,126.4436389,35.79716667,선유도·무녀도·장자도·신시도,"만서, 만자서 부근","모래, 펄",9~12,전라북도 군산시,0,DT_0018,군산
67,126.4521111,35.78808333,선유도·무녀도·장자도·신시도,"만서, 만자서 앞바다","모래, 펄",18~21,전라북도 군산시,0,DT_0018,군산
68,126.4004167,35.79247222,선유도·무녀도·장자도·신시도,장구도 앞바다,가는 모래,8~12,전라북도 군산시,0,DT_0018,군산
69,126.1011667,35.63788889,왕등도·위도,하왕등도 서쪽 바다,펄,28~34,전라북도 부안군,0,DT_0068,위도
70,126.1188611,35.66130556,왕등도·위도,상왕등도 대구섬 부근,"가는 모래, 펄",17~23,전라북도 부안군,0,DT_0068,위도
71,126.1374444,35.65869444,왕등도·위도,상왕등도 열도 부근,"가는 모래, 펄",24~30,전라북도 부안군,0,DT_0068,위도
72,126.2158333,35.63691667,왕등도·위도,식도 북쪽 바다,펄,28~30,전라북도 부안군,0,DT_0068,위도
73,126.25775,35.61138889,왕등도·위도,위도 달루도 부근,펄,11~13,전라북도 부안군,0,DT_0068,위도
74,126.2274444,35.58333333,왕등도·위도,위도 외조도 부근,바위,16~19,전라북도 부안군,0,DT_0068,위도
75,125.9239444,34.79425,비금도·도초도,우세도 부근,펄,7~10,전라남도 신안군,0,DT_0007,목포
76,125.9541667,34.82438889,비금도·도초도,토막도 부근,펄,12~18,전라남도 신안군,0,DT_0007,목포
77,125.96875,34.652,비금도·도초도,가도 부근,펄,14~19,전라남도 신안군,0,DT_0007,목포
78,125.9215556,34.64677778,비금도·도초도,종달암 부근,펄,28~32,전라남도 신안군,0,DT_0007,목포
79,125.37075,34.68475,흑산도·삼태도,"대장도, 소장도 부근","펄, 모래",30~45,전라남도 신안군,0,DT_0035,흑산도
80,125.4112778,34.71097222,흑산도·삼태도,대흑산도 호장도 부근,"펄, 모래",26.5~30,전라남도 신안군,0,DT_0035,흑산도
81,125.4440833,34.61811111,흑산도·삼태도,대흑산도 서산말 남동쪽 바다,"모래, 펄",25.5~40,전라남도 신안군,0,DT_0035,흑산도
82,125.2482222,34.39375,흑산도·삼태도,삼태도 넓은여 부근,모래,35~50,전라남도 신안군,0,DT_0035,흑산도
83,126.5414167,34.21711111,노화도·보길도·소안도,송도 부근,펄,6~8.5,전라남도 완도군,0,DT_0027,완도
84,126.6577222,34.21794444,노화도·보길도·소안도,각씨여 부근,"펄, 조개껍질",38~42,전라남도 완도군,0,DT_0027,완도
85,126.6601389,34.09822222,노화도·보길도·소안도,소안도 거망치각 앞바다,"펄, 조개껍질",40~42,전라남도 완도군,0,DT_0027,완도
86,126.5830833,34.12702778,노화도·보길도·소안도,예작도 부근,"펄, 모래",9.1~12,전라남도 완도군,0,DT_0027,완도
87,126.5038611,34.11058333,노화도·보길도·소안도,보길도 보죽각 앞바다,조개껍질,37~40,전라남도 완도군,0,DT_0027,완도
88,126.4652778,34.16244444,노화도·보길도·소안도,토금도 부근,"펄, 조개껍질",30~33,전라남도 완도군,0,DT_0027,완도
89,126.7825278,34.27486111,신지도,완도 대구두 앞바다,"모래, 조개껍질",24.5~26,전라남도 완도군,0,DT_0027,완도
90,126.8490278,34.29508333,신지도,신지도 최남단 앞바다,"펄, 조개껍질",13.5~18,전라남도 완도군,0,DT_0027,완도
91,126.89825,34.30444444,신지도,제도 부근,펄,11~15,전라남도 완도군,0,DT_0027,완도
92,126.9143611,34.28933333,신지도,모황도 부근,"펄, 조개껍질",25.5~33,전라남도 완도군,0,DT_0027,완도
93,126.7284722,34.18436111,청산도·대모도,대모도 마도말 앞바다,펄,31~35,전라남도 완도군,0,DT_0027,완도
94,126.8381389,34.20588889,청산도·대모도,장도 부근,"조개껍질, 펄",19~20,전라남도 완도군,0,DT_0027,완도
95,126.9550833,34.18425,청산도·대모도,항도 서측 바다,"펄, 모래",24~27,전라남도 완도군,0,DT_0027,완도
96,126.7651667,34.14927778,청산도·대모도,불근도 부근,펄,24~30,전라남도 완도군,0,DT_0027,완도
97,127.0956111,34.45963889,거금도,연흥도 부근,펄,5~8,전라남도 고흥군,0,DT_0026,고흥발포
98,127.2398611,34.50202778,거금도,감등서 부근,펄,18~23,전라남도 고흥군,0,DT_0026,고흥발포
99,127.2193611,34.42588889,거금도,소독도 부근,펄,13~16,전라남도 고흥군,0,DT_0026,고흥발포
100,127.1208611,34.42530556,거금도,형제도 부근,펄,7~11,전라남도 고흥군,0,DT_0026,고흥발포
101,127.3091944,34.07216667,여서도·거문도,거문도 반여 부근,"침니, 모래",35~50,전라남도 완도군,0,DT_0031,거문도
102,127.3411389,34.03041667,여서도·거문도,거문도 오지여 앞바다,"자갈, 조개껍질",31~48,전라남도 완도군,0,DT_0031,거문도
103,127.3186944,34.00130556,여서도·거문도,거문도 배치바위 앞바다,"펄, 모래, 자갈",65~70,전라남도 완도군,0,DT_0031,거문도
104,127.2790556,34.01852778,여서도·거문도,만수용단 앞바다,펄,58~63,전라남도 완도군,0,DT_0031,거문도
105,127.5345278,34.52763889,나로도,보돌서 부근,펄,11~15,전라남도 고흥군,0,DT_0026,고흥발포
106,127.5189167,34.49205556,나로도,내나로도 등대 앞바다,펄,7~10,전라남도 고흥군,0,DT_0026,고흥발포
107,127.492,34.40475,나로도,외나로도 노랑바위 앞바다,펄,24~28,전라남도 고흥군,0,DT_0026,고흥발포
108,127.4345278,34.49286111,나로도,숨은여 부근,모래,5~7,전라남도 고흥군,0,DT_0026,고흥발포
109,127.6919167,34.54988889,금오도·안도,용두 앞바다,펄,30~45,전라남도 여수시,0,DT_0016,여수
110,127.77125,34.55194444,금오도·안도,문서 부근,"펄, 모래",25~30,전라남도 여수시,0,DT_0016,여수
111,127.80325,34.52705556,금오도·안도,배다서 부근,펄,27~32,전라남도 여수시,0,DT_0016,여수
112,127.7662778,34.475,금오도·안도,구몽암 부근,펄,30~35,전라남도 여수시,0,DT_0016,여수
113,128.1632778,34.83944444,사량도,농개도 부근,"펄, 모래",24~29,경상남도 통영시,0,DT_0014,통영
114,128.1732778,34.82441667,사량도,죽도 부근,"펄, 모래",25~29,경상남도 통영시,0,DT_0014,통영
115,128.2603889,34.80633333,사량도,화도 부근,펄,15~18,경상남도 통영시,0,DT_0014,통영
116,128.2218611,34.77044444,사량도,남무도 부근,"펄, 모래, 조개껍질",27~30,경상남도 통영시,0,DT_0014,통영
117,128.25275,34.65883333,욕지도,모도 부근,"펄, 모래, 조개껍질",37~46,경상남도 통영시,0,DT_0014,통영
118,128.2987222,34.62702778,욕지도,초도 부근,"펄, 조개껍질",18~20,경상남도 통영시,0,DT_0014,통영
119,128.2756667,34.61233333,욕지도,가동서 부근,펄,27~31,경상남도 통영시,0,DT_0014,통영
120,128.2594167,34.61013889,욕지도,흑초 부근,펄,36~40,경상남도 통영시,0,DT_0014,통영
121,128.3169278,34.83972222,미륵도,태도 부근,펄,12~17,경상남도 통영시,0,DT_0014,통영
122,128.3630833,34.78736111,미륵도,곤리도 부근,펄,14~16,경상남도 통영시,0,DT_0014,통영
123,128.3654722,34.76572222,미륵도,가마도 부근,펄,40~48,경상남도 통영시,0,DT_0014,통영
124,128.4196944,34.75825,미륵도,학림도 부근,펄,23~30,경상남도 통영시,0,DT_0014,통영
125,128.4555278,34.72088889,비진도·매물도,비진도 춘복도 부근,"펄, 모래",13~17,경상남도 통영시,0,DT_0014,통영
126,128.4551389,34.70027778,비진도·매물도,비진도 소장서(노루여) 부근,펄,39~52,경상남도 통영시,0,DT_0014,통영
127,128.5451111,34.64541667,비진도·매물도,대매물도 가익도 부근,"펄, 모래, 조개껍질",43~47,경상남도 통영시,0,DT_0014,통영
128,128.5969444,34.61277778,비진도·매물도,소매물도 등가도 부근,"펄, 모래",38~42,경상남도 통영시,0,DT_0014,통영
129,128.4962778,34.94863889,거제도 북서부,만금여 부근,펄,16~19,경상남도 거제시,0,DT_0029,거제도
130,128.4820278,34.92736111,거제도 북서부,수도 부근,펄,15~17,경상남도 거제시,0,DT_0029,거제도
131,128.4835278,34.90594444,거제도 북서부,지도 부근,펄,15~18,경상남도 거제시,0,DT_0029,거제도
132,128.4655556,34.81930556,거제도 북서부,화도 부근,펄,16~18,경상남도 거제시,0,DT_0029,거제도
133,128.7245833,35.04125,거제도 북동부,망와도 부근,펄,32~46,경상남도 거제시,0,DT_0029,거제도
134,128.7344722,34.97308333,거제도 북동부,이수도 부근,펄,13~18,경상남도 거제시,0,DT_0029,거제도
135,128.7629444,34.90544444,거제도 북동부,양지암취 앞바다,펄,23~27,경상남도 거제시,0,DT_0029,거제도
136,128.7508056,34.83288889,거제도 북동부,지세포항 앞바다,찰흙,13~18,경상남도 거제시,0,DT_0029,거제도
137,128.5443056,34.69230556,거제도 남부,대덕도 부근,"펄, 모래",55~60,경상남도 거제시,0,DT_0029,거제도
138,128.6180278,34.69811111,거제도 남부,소병태도 부근,조개껍질,47~52,경상남도 거제시,0,DT_0029,거제도
139,128.6891111,34.72705556,거제도 남부,갈곶도 부근,"자갈, 조개껍질",38~55,경상남도 거제시,0,DT_0029,거제도
140,128.712,34.77519444,거제도 남부,외조라도 부근,"자갈, 조개껍질",33~40,경상남도 거제시,0,DT_0029,거제도
141,125.6803889,37.62858333,연평도,구지둔턱,암,5.3~15.9,인천광역시 옹진군,0,IE_0062,웅진소청초
142,126.3785833,37.696,석모도,외포리선착장 입표 부근 해상,"펄, 모래",10.0~20.0,인천광역시 강화군,0,DT_0032,강화대교
143,126.28225,37.74402778,석모도,서도부근 해상,암,2.9~7.5,인천광역시 강화군,0,DT_0032,강화대교
144,126.3233333,37.71219444,석모도,선모도 부근 해상,펄,-0.8~0.6,인천광역시 강화군,0,DT_0032,강화대교
145,126.3945833,37.53283333,시도,부도 부근 해상,"자갈, 모래",-3.0~1.7,인천광역시 옹진군,0,IE_0062,웅진소청초
146,126.4778889,37.51169444,시도,노랑섬 서측 간출암 부근 해상,펄,-2.3~1.8,인천광역시 옹진군,0,IE_0062,웅진소청초
147,126.3530833,37.45852778,영종도·용유도,왕산해변 북서측 해상,"모래, 펄",6.0~9.9,인천광역시 중구,0,DT_0044,영종대교
148,126.3547778,37.47591667,영종도·용유도,영종도 북측수문 북서측 해상,"모래, 펄",20.2~26,인천광역시 중구,0,DT_0044,영종대교
149,126.4473611,37.36938889,무의도,소무의도 동측 해상,"펄, 모래",0.8~2.1,인천광역시 중구,0,DT_0044,영종대교
150,126.4404167,37.36319444,무의도,해녀도 부근 해상,"펄, 모래",2.3~3.6,인천광역시 중구,0,DT_0044,영종대교
151,126.3893611,37.39552778,무의도,실미도 남서측 해상,"펄, 모래",-1.0~1.0,인천광역시 중구,0,DT_0044,영종대교
152,126.32675,36.50275,안면도 북부,방포항 방파제 앞 해상,"모래, 펄",0.6~1.2,충청남도 태안군,0,DT_0050,태안
153,126.4161389,36.52180556,안면도 북부,죽도 부근 해상,"모래, 펄",6.7~9.5,충청남도 태안군,0,DT_0050,태안
154,126.3754722,36.59366667,안면도 북부,황도 연육교 부근 해상,"모래, 펄",-2.4~-1.4,충청남도 태안군,0,DT_0050,태안
155,126.4536111,36.41341667,안면도 남부,목도 부근 해상,모래,10.4~12.8,인천광역시 옹진군,0,IE_0062,웅진소청초
156,126.3123056,36.45227778,안면도 남부,외도 부근 해상,암,10.4~12.8,인천광역시 옹진군,0,IE_0062,웅진소청초
157,126.0842778,36.67547222,가의도,남측 곶부리 앞 해상,암,14.4~18.9,충청남도 태안군,0,DT_0050,태안
158,126.0377778,36.66763889,가의도,단도 부근 해상,암,6.8~12.6,충청남도 태안군,0,DT_0050,태안
159,126.0595556,36.6825,가의도,선착장 서축 갯바위 앞 해상,"펄, 모래",19.8~21.1,충청남도 태안군,0,DT_0050,태안
160,126.0735556,36.68347222,가의도,선착장 앞 입표 부근 해상,"펄, 모래",13.3~13.5,충청남도 태안군,0,DT_0050,태안
161,126.0131667,35.32958333,안마도·석만도,문 끝 앞바다,암,1.8~6.5,인천광역시 중구,0,DT_0044,영종대교
162,126.0323611,35.33175,안마도·석만도,쌀썩은여 앞바다,펄,27.0~31.0,인천광역시 중구,0,DT_0044,영종대교
163,126.0564444,35.35097222,안마도·석만도,감곽여 부근 해상,암,21.5~23.0,인천광역시 중구,0,DT_0044,영종대교
164,126.0583889,35.36352778,안마도·석만도,똥 섬 부근 해상,펄,2.6~4.8,인천광역시 중구,0,DT_0044,영종대교
165,126.0578611,35.37105556,안마도·석만도,쎄지기 사이 해상,암,5.5~11.6,인천광역시 중구,0,DT_0044,영종대교
166,126.019,35.36544444,안마도·석만도,대장재여 부근 해상,"자갈, 조개껍질",10.5~18.2,인천광역시 중구,0,DT_0044,영종대교
167,126.0094167,35.35997222,안마도·석만도,장재여 부근 해상,암,5.8~10.4,인천광역시 중구,0,DT_0044,영종대교
168,125.9991667,35.35638889,안마도·석만도,죽도 부근 해상,암,8.4~10.3,인천광역시 중구,0,DT_0044,영종대교
169,125.9947222,35.35772222,안마도·석만도,근여 부근 해상,암,20.0~25.0,인천광역시 중구,0,DT_0044,영종대교
170,126.1568889,35.28694444,송이도,양골 앞 바다,암,1.5~1.7,전라남도 영광군,0,DT_0003,영광
171,126.1363889,35.29527778,송이도,큰내기 앞 바다,암,2.0~2.9,전라남도 영광군,0,DT_0003,영광
172,126.1408333,35.26672222,송이도,민머리 앞 바다,암,-0.4~0.4,전라남도 영광군,0,DT_0003,영광
173,126.2727222,34.98766667,고이도·매화도·선도·증도,선도선창부근 해상,펄,0~2.0,전라남도 신안군,0,DT_0007,목포
174,126.125,34.96397222,고이도·매화도·선도·증도,면도부근 해상,펄,1.4~2.3,전라남도 신안군,0,DT_0007,목포
175,126.0506667,34.85058333,자은도,원도 부근,암,10~16.3,전라남도 신안군,0,DT_0007,목포
176,126.3437222,34.91141667,압해도,효지도 철탑아래 해상,펄,0.1~0.7,전라남도 신안군,0,DT_0007,목포
177,126.3378333,34.91275,압해도,대교 밑 해상,펄,2.1~5.0,전라남도 신안군,0,DT_0007,목포
178,126.3318889,34.91288889,압해도,대교동측 해상,펄,2.1~4.3,전라남도 신안군,0,DT_0007,목포
179,126.3705556,34.82069444,압해도,압해도 선착장 앞 해상,펄,12.9~19.6,전라남도 신안군,0,DT_0007,목포
180,126.1648333,34.67911111,장산도,신도 부근,암,0.3~4.9,전라남도 신안군,0,DT_0007,목포
181,126.0421111,34.22538889,상조도·하조도·관매도,고치서 북서측 간출암 부근 해상,펄,3.4~5.2,인천광역시 옹진군,0,IE_0062,웅진소청초
182,126.0366667,34.219,상조도·하조도·관매도,고치서 입표 부근 해상,"자갈, 조개껍질",18.5~20.8,인천광역시 옹진군,0,IE_0062,웅진소청초
183,125.0985556,34.10516667,가거도,두억서 부근 해상,암,11.2~17.9,전라남도 신안군,0,IE_0061,신안가거초
184,125.09375,34.09788889,가거도,"오동여, 검등여 사이 부근 해상",암,10.5~12.3,전라남도 신안군,0,IE_0061,신안가거초
185,126.7291944,34.38863889,완도,납당여 부근 해상,펄,3.0~6.0,전라남도 완도군,0,DT_0027,완도
186,126.7456667,34.37027778,완도,대야리 앞 해상,펄,10.9~18.2,전라남도 완도군,0,DT_0027,완도
187,126.7431111,34.35805556,완도,장도 앞 해상,암,9.8~10.2,전라남도 완도군,0,DT_0027,완도
188,127.0409722,34.43194444,금당도,서방여부근,암,5.4~13.6,전라남도 완도군,0,DT_0027,완도
189,127.0174444,34.32027778,금일도·생일도,낭도 부근,암,1.8~2.5,전라남도 완도군,0,DT_0027,완도
190,127.2147222,34.21408333,초 도,외항도 내항도 사이,펄,29.5~37,전라남도 여수시,0,DT_0016,여수
191,127.7304444,34.60758333,돌산도,예교마을 앞 입표 부근 해상,펄,8.7~12.8,전라남도 여수시,0,DT_0016,여수
192,127.73375,34.59902778,돌산도,신기마을 앞 노란색 부표 부근,펄,7.9~22,전라남도 여수시,0,DT_0016,여수
193,127.7501111,34.58213889,돌산도,화태도 대횡간도사이 입표 부근,펄,-0.9~14,전라남도 여수시,0,DT_0016,여수
194,127.7563333,34.59111111,돌산도,작금마을 동측 입표 부근,펄,4.9~7.5,전라남도 여수시,0,DT_0016,여수
195,127.7523333,34.60816667,돌산도,밤섬 남측 해상,펄,4.5~10.7,전라남도 여수시,0,DT_0016,여수
196,126.3547778,37.47591667,돌산도,백포 간출여 주변 해상,펄,9.7~10.5,전라남도 여수시,0,DT_0016,여수
197,127.7926111,34.68688889,돌산도,죽도 부근 해상,펄,4.5~10.7,전라남도 여수시,0,DT_0016,여수
198,127.7859444,34.69483333,돌산도,내치도 부근 해상,펄,0.7~4.7,전라남도 여수시,0,DT_0016,여수
199,127.8583889,34.93930556,남해도 북부,와도부근 해상,"펄, 조개껍질",3.3~8.5,경상남도 남해군,0,DT_0016,여수
200,127.8555,34.93330556,남해도 북부,차면리 방파제 북측 입표 부근,"펄, 조개껍질",3.3~8.5,경상남도 남해군,0,DT_0016,여수
201,127.8267778,34.90427778,남해도 북부,난초섬 부근,암,3.3~8.5,경상남도 남해군,0,DT_0016,여수
202,127.7994444,34.84233333,남해도 북부,남상리 앞바다,암,21.7~22.4,경상남도 남해군,0,DT_0016,여수
203,127.8026389,34.82361111,남해도 북부,작장리 앞바다,암,13.4~17.5,경상남도 남해군,0,DT_0016,여수
204,127.8115278,34.80919444,남해도 북부,서상리 앞바다,암,13.0~17.6,경상남도 남해군,0,DT_0016,여수
205,127.8971944,34.95086111,남해도 북부,노량수도,"펄, 모래",17.5~23.2,경상남도 남해군,0,DT_0016,여수
206,127.9158333,34.94566667,남해도 북부,왕지마을 앞바다,"펄, 모래",1.2~10.9,경상남도 남해군,0,DT_0016,여수
207,127.93775,34.92075,남해도 북부,상돈도 장도 사이 해상,"펄, 조개껍질",2.3~3.7,경상남도 남해군,0,DT_0016,여수
208,128.01075,34.83411111,남해도 동부·신수도·창선도,지족리 앞바다,암,0.4~1.5,경상남도 남해군,0,DT_0016,여수
209,128.0158333,34.92433333,남해도 동부·신수도·창선도,후박 방파제 앞 해상,"펄, 모래",6.4~11.7,경상남도 남해군,0,DT_0016,여수
210,127.9973056,34.91580556,남해도 동부·신수도·창선도,벽재마을 앞 입표부근 해상,암,3.5~16.4,경상남도 남해군,0,DT_0016,여수
211,128.0229444,34.83538889,남해도 동부·신수도·창선도,증초 부근 해상,암,0.2~3.1,경상남도 남해군,0,DT_0016,여수
212,128.0678333,34.86044444,남해도 동부·신수도·창선도,적량마을 앞 해상,암,3.5~16.4,경상남도 남해군,0,DT_0016,여수
213,128.0496667,34.90802778,남해도 동부·신수도·창선도,송도 부근 해상,암,5.2~14.5,경상남도 남해군,0,DT_0016,여수
214,127.85975,34.71625,남해도 남부,항도 앞바다,암,22.6~27.3,경상남도 남해군,0,DT_0016,여수
215,127.9035556,34.71713889,남해도 남부,가천마을 앞바다,암,21.9~24.0,경상남도 남해군,0,DT_0016,여수
216,128.0426944,34.69386111,남해도 남부,조도부근 해상,"모래, 조개껍질",22.6~24.3,경상남도 남해군,0,DT_0016,여수
217,125.6803889,37.62858333,두미도,청석골,펄,5.0~16.1,경상남도 통영시,0,DT_0014,통영
218,128.2040556,34.69466667,두미도,남구마을 남측 해상,펄,5.4~10.0,경상남도 통영시,0,DT_0014,통영
219,128.1843056,34.71113889,두미도,북구마을 앞 해상,펄,60,경상남도 통영시,0,DT_0014,통영
220,128.1778611,34.71213889,두미도,고운마을 앞 해상,펄,60,경상남도 통영시,0,DT_0014,통영
221,128.6355833,35.01883333,칠천도·가조도,수야방도 서측 해상,펄,7.0~10.2,경상남도 거제시,0,DT_0029,거제도
222,128.6279722,34.9735,칠천도·가조도,슬응도 부근 해상,"펄, 조개껍질",11.6~13.8,경상남도 거제시,0,DT_0029,거제도
223,128.6442222,34.97561111,칠천도·가조도,장안서 부근 해상,"펄, 조개껍질",2.7~13.9,경상남도 거제시,0,DT_0029,거제도
224,128.6238056,35.00583333,칠천도·가조도,황덕도 부근 해상,펄,6.0~13,경상남도 거제시,0,DT_0029,거제도
225,128.5011944,34.95972222,칠천도·가조도,돌끝여 부근 해상,펄,15.4~18.4,경상남도 거제시,0,DT_0029,거제도
226,128.5060556,34.968,칠천도·가조도,마당서 부근 해상,펄,15.3~16.7,경상남도 거제시,0,DT_0029,거제도
227,128.5048889,34.95022222,칠천도·가조도,만금여 부근 해상,펄,12.6~15.3,경상남도 거제시,0,DT_0029,거제도
228,128.4909722,34.73038889,한산도·용초도,용머리 부근 해상,모래,20.0~22.0,부산광역시 강서구,0,DT_0005,부산
229,128.5009722,34.73294444,한산도·용초도,호두마을 남측 해상,"펄, 모래",15.0~16.8,부산광역시 강서구,0,DT_0005,부산
230,128.5189167,34.72947222,한산도·용초도,죽도부근 해상,"펄, 모래",10.0~15.1,부산광역시 강서구,0,DT_0005,부산
231,128.4959444,34.75969444,한산도·용초도,의암마을 앞바다,"펄, 조개껍질",8.3~10.0,부산광역시 강서구,0,DT_0005,부산
232,128.8430278,35.02113889,가덕도,대항새바지에서 누릉여 사이 해상,암,10.0~11.6,부산광역시 강서구,0,DT_0063,가덕도
233,128.8528611,35.05011111,가덕도,동선새바지에서 기도원 사이 해상,암,5.0~6.6,부산광역시 강서구,0,DT_0005,부산
234,129.0916389,35.03802778,영도,생도 부근,암,4.1~4.9,부산광역시 영도구,0,DT_0005,부산
235,130.8541111,37.54297222,울릉도,코끼리 바위 부근 해상,암,14.2~22.5,경상북도 울릉군,0,DT_0013,울릉도
236,130.8464722,37.45672222,울릉도,남양항 부근 해상,암,14.2~22.5,경상북도 울릉군,0,DT_0013,울릉도
237,126.2955556,33.94858333,추자도,상추자도 남측 입표 부근,암,18.2~23.0,제주특별자치도 제주시,0,DT_0021,추자도
238,126.3140278,33.93791667,추자도,섬도 남측 해상,암,14.2~18.7,제주특별자치도 제주시,0,DT_0021,추자도
239,126.2863056,33.96925,추자도,다무레미 북측 해상,암,12.8~16.2,제주특별자치도 제주시,0,DT_0021,추자도
240,126.2845833,33.96263889,추자도,다무레미 남측 해상,암,9.3~19.6,제주특별자치도 제주시,0,DT_0021,추자도
241,126.6651944,33.55261111,제주도 북부,함덕 서우봉해변 앞 해상,암,6.8~10.0,제주특별자치도 제주시,0,DT_0004,제주
242,126.7017222,33.56011111,제주도 북부,달서 등대부근 해상,"펄, 모래",5.5~8.0,제주특별자치도 제주시,0,DT_0004,제주
243,126.7751389,33.57663889,제주도 북동부·우도,김녕리 앞 해상,암,15.4~20.5,제주특별자치도 제주시,0,DT_0004,제주
244,126.9330833,33.52430556,제주도 북동부·우도,반다여 부근,암,7.7~10.0,제주특별자치도 제주시,0,DT_0004,제주
245,126.9219167,33.50816667,제주도 북동부·우도,종달리 포구 앞 해상,암,11.7~16.9,제주특별자치도 제주시,0,DT_0004,제주
246,126.9413056,33.48547222,제주도 북동부·우도,천진항 앞 해상,암,12.0~12.4,제주특별자치도 제주시,0,DT_0004,제주
247,126.9345833,33.50130556,제주도 북동부·우도,산호샤홍조단괴해수욕장 앞 해상,암,7.9~13.3,제주특별자치도 제주시,0,DT_0004,제주
248,126.9471667,33.52986111,제주도 북동부·우도,독진곶 앞 해상,암,27.0~44.9,제주특별자치도 제주시,0,DT_0004,제주
249,126.9704167,33.52358333,제주도 북동부·우도,비양도 북측해상,암,22.0~30.0,제주특별자치도 제주시,0,DT_0004,제주
250,126.9521389,33.45580556,제주도 동부,성산일출봉 앞 해상,고운모래,22.0~48.0,제주특별자치도 서귀포시,0,DT_0022,성산포
251,126.9178889,33.39547222,제주도 동부,온평리 앞 해상,조개껍질,10.3~18.0,제주특별자치도 서귀포시,0,DT_0022,성산포
252,126.7402222,33.26661111,제주도 남동부,태흥리포구 앞 해상,고운모래,21.7~28.5,제주특별자치도 서귀포시,0,DT_0010,서귀포
253,126.7239722,33.27094444,제주도 남동부,비안포구 앞 해상,암,3.7~10.0,제주특별자치도 서귀포시,0,DT_0010,서귀포
254,126.5155556,33.22386111,제주도 남부,호도(범섬)부근 해상,암,32.0~38.0,제주특별자치도 서귀포시,0,DT_0010,서귀포
255,126.49375,33.22238889,제주도 남부,강정포구 앞 노란부표 부근,암,14.6~18.0,제주특별자치도 서귀포시,0,DT_0010,서귀포
256,126.4755,33.2195,제주도 남부,강정포구 앞 입표 부근,암,14.6~18.0,제주특별자치도 서귀포시,0,DT_0010,서귀포
257,126.28675,33.17433333,제주도 남서부·가파도·마라도,광포란 부근 해상,암,12.2~18.9,제주특별자치도 서귀포시,0,DT_0010,서귀포
258,126.3099722,33.21266667,제주도 남서부·가파도·마라도,형제도 부근 해상,암,4.2~9.5,제주특별자치도 서귀포시,0,DT_0010,서귀포
259,125.1956269,34.67288194,홍도,방구서 부근,암,3.5~4.7,전라남도 신안군,0,DT_0028,진도
260,125.1786072,34.66551889,홍도,제비여 부근,암,17.5~19,전라남도 신안군,0,DT_0028,진도
261,125.1758678,34.67272139,홍도,상연서 부근,암,23.5~33,전라남도 신안군,0,DT_0028,진도
262,125.18951,34.69505389,홍도,거북바위 인근,암,28~31,전라남도 신안군,0,DT_0028,진도
263,125.1864656,34.71596083,홍도,장도 부근,암,23~27,전라남도 신안군,0,DT_0028,진도
264,125.1929983,34.7238825,홍도,모도 부근,암,4.1~7.2,전라남도 신안군,0,DT_0028,진도
265,125.2153308,34.69644639,홍도,공작새바위 인근,암,26~31,전라남도 신안군,0,DT_0028,진도
266,125.2090475,34.68250722,홍도,흥어굴 인근,"펄,모래,조개껍질",5.5~9.4,전라남도 신안군,0,DT_0028,진도
267,125.4760003,34.22186389,만재도,백서 남측 선상,암,37~44,전라남도 신안군,0,DT_0028,진도
268,125.4863686,34.21336056,만재도,만재도 북동측 선상,암,28~37,전라남도 신안군,0,DT_0028,진도
269,125.4900686,34.21085028,만재도,국도 북측 선상,암,25~28,전라남도 신안군,0,DT_0028,진도
270,125.4854422,34.2050075,만재도,만재도 동측 선상,암,12~20,전라남도 신안군,0,DT_0028,진도
271,125.4755072,34.20311306,만재도,만재도 남측 선상,암,20.5~22,전라남도 신안군,0,DT_0028,진도
272,125.4626072,34.21003111,만재도,외마도 남측 선상,암,20.5~27,전라남도 신안군,0,DT_0028,진도
273,125.4648278,34.21330833,만재도,만재도 서측 선상,암,10.5~14,전라남도 신안군,0,DT_0028,진도
274,125.9435672,34.246265,거차수도 부근,동거차 선착장 해상,암,12.6~19.5,전라남도 진도군,0,DT_0028,진도
275,125.9302631,34.22714333,거차수도 부근,동거차 해수욕장 해상,암,23~24.5,전라남도 진도군,0,DT_0028,진도
276,125.8656383,34.21510833,거차수도 부근,명도 부근 해상,암,23.5~28.5,전라남도 진도군,0,DT_0028,진도
277,125.8416214,34.21589917,거차수도 부근,새여 부근 해상,암,21.5~29.5,전라남도 진도군,0,DT_0028,진도
278,126.0947228,34.26646833,독거군도 부근,죽항 송도 해상,"자갈, 조개껍질",13.4~17.7,전라남도 진도군,0,DT_0028,진도
279,126.1406786,34.26771917,독거군도 부근,슬도 북쪽 해상,암,23~28.5,전라남도 진도군,0,DT_0028,진도
280,126.151855,34.25653556,독거군도 부근,소슬도 해상,암,22.5~23,전라남도 진도군,0,DT_0028,진도
281,126.1890356,34.25067167,독거군도 부근,독거 동쪽 선창 해상,펄,27~29,전라남도 진도군,0,DT_0028,진도
282,126.1689344,34.26516222,독거군도 부근,구도 해상,암,26~27,전라남도 진도군,0,DT_0028,진도
283,126.1559367,34.22761083,독거군도 부근,초도앞 해상,암,14.9~17.5,전라남도 진도군,0,DT_0028,진도
284,126.1687439,34.22862167,독거군도 부근,간암여 해상,암,23.5~29,전라남도 진도군,0,DT_0028,진도
285,126.1725606,34.22516278,독거군도 부근,제주섬 해상,암,27.5~29,전라남도 진도군,0,DT_0028,진도
286,126.3305025,34.01715278,추자군도,횡간도 북측 해상,암,40~46,제주특별자치도 제주시,0,DT_0021,추자도
287,126.3545483,34.00794139,추자군도,곽도 앞 해상,암,7.6~16.1,제주특별자치도 제주시,0,DT_0021,추자도
288,126.3629803,33.99925583,추자군도,가인서 앞 해상,암,25~29,제주특별자치도 제주시,0,DT_0021,추자도
289,126.340775,33.98687972,추자군도,흑검도 앞 해상,암,8~26,제주특별자치도 제주시,0,DT_0021,추자도
290,126.3409886,33.96814778,추자군도,하추자도 북측 해상,"암, 자갈",31~32,제주특별자치도 제주시,0,DT_0021,추자도
291,126.3614022,33.95434278,추자군도,하추자도 동측 해상,"모래, 조개껍질",29~32,제주특별자치도 제주시,0,DT_0021,추자도
292,126.3290642,33.92188222,추자군도,하추자도와 청도 사이,암,20.2~21,제주특별자치도 제주시,0,DT_0021,추자도
293,126.2991586,33.94349417,추자군도,묵리 마을 앞 해상,암,16~38,제주특별자치도 제주시,0,DT_0021,추자도
294,126.3103517,33.95847222,추자군도,추자교 앞 해상,"모래, 펄",12.1~14.6,제주특별자치도 제주시,0,DT_0021,추자도
295,126.3063825,33.96969528,추자군도,추자항 북측 해상,암,22.5~28,제주특별자치도 제주시,0,DT_0021,추자도
296,126.2880972,33.97038694,추자군도,대서리 인근 해상,암,28.5~29.5,제주특별자치도 제주시,0,DT_0021,추자도
297,126.2573533,33.97515222,추자군도,상추자도와 직구도 사이,"모래, 펄",43~45,제주특별자치도 제주시,0,DT_0021,추자도
298,127.5379303,34.62180917,낭도 부근,하과도 남측 해상,암,6.3~6.8,전라남도 고흥군,0,DT_0026,고흥발포
299,127.5539778,34.62227722,낭도 부근,홍도 남측 해상,"펄, 조개껍질",8.3~12.8,전라남도 고흥군,0,DT_0026,고흥발포
300,127.540795,34.59442556,낭도 부근,목도 해상,암,7.1~9.1,전라남도 고흥군,0,DT_0026,고흥발포
301,127.5576089,34.60058194,낭도 부근,추도 북측 해상,암,3~3.9,전라남도 고흥군,0,DT_0026,고흥발포
302,127.5935761,34.59527944,낭도 부근,상화도 서측 해상,암,8.5~29,전라남도 고흥군,0,DT_0026,고흥발포
303,127.6055097,34.59204278,낭도 부근,장구도 동측 해상,암,4.7~23,전라남도 고흥군,0,DT_0026,고흥발포
304,127.8561828,34.72932694,여수엑스포 부근,향촌마을 부근,암,19.5~28,전라남도 여수시,0,DT_0016,여수
305,127.7959981,34.68761083,여수엑스포 부근,죽도 인근 해상,펄,10.6~15.7,전라남도 여수시,0,DT_0016,여수
306,127.7049028,34.89472222,광양만 부근,여수대교 부근,암,9.7~13,전라남도 광양시,0,DT_0049,광양
307,127.7782353,34.9446325,광양만 부근,마도 부근,"펄,모래",0.4~2.0,전라남도 광양시,0,DT_0049,광양
308,127.0637508,34.19380861,황제도,알매섬 해상,암,22~30,전라남도 완도군,0,DT_0027,완도
309,127.0891417,34.18997806,황제도,맞담 해상,"모래, 조개껍질",15.2~16,전라남도 완도군,0,DT_0027,완도
310,127.1402044,34.21774389,황제도,흰여 해상,펄,17.2~28,전라남도 완도군,0,DT_0027,완도
311,127.1412392,34.20340139,황제도,대마도 해상,암,23~27,전라남도 완도군,0,DT_0027,완도
312,127.1523456,34.20245944,황제도,소마도 해상,암,22~26,전라남도 완도군,0,DT_0027,완도
313,127.1906136,34.21457444,황제도,원도 해상,펄,28.5~41,전라남도 완도군,0,DT_0027,완도
314,127.3568578,34.29105361,손죽열도 부근,손죽 방파제 해상,펄,2.8~6.3,전라남도 여수시,0,DT_0016,여수
315,127.3866897,34.29780611,손죽열도 부근,잔거리 동쪽 해상,암,15.3~20.6,전라남도 여수시,0,DT_0016,여수
316,127.397645,34.29973417,손죽열도 부근,소거문도 북쪽 해상,암,9.9~20.6,전라남도 여수시,0,DT_0016,여수
317,127.4063517,34.28257111,손죽열도 부근,소거문도 동쪽 해상,펄,19.5~20.3,전라남도 여수시,0,DT_0016,여수
318,127.4459978,34.25531278,간수제도,소평도 해상,펄,12.6~29.5,전라남도 여수시,0,DT_0016,여수
319,127.4663047,34.23435667,간수제도,갈퀴섬 해상,"펄, 모래",14.8~29.5,전라남도 여수시,0,DT_0016,여수
320,127.5483258,34.25601306,간수제도,소두역서 해상,암,28~32,전라남도 여수시,0,DT_0016,여수
321,127.5336661,34.24928444,간수제도,대두역서 해상,펄,29~31,전라남도 여수시,0,DT_0016,여수
322,127.3828069,34.06126528,대삼부도,노루섬 인근 해상,암,14.8~16.8,전라남도 여수시,0,DT_0016,여수
323,127.3872136,34.05241222,대삼부도,무구여 인근 해상,암,13.8~19.6,전라남도 여수시,0,DT_0016,여수
324,127.8065253,34.46490444,연도,신강서 인근 해상,암,26~29.5,전라남도 여수시,0,DT_0016,여수
325,127.8085889,34.42974056,연도,동부앞 인근 해상,암,9.7~28,전라남도 여수시,0,DT_0016,여수
326,127.8069956,34.40797556,연도,소룡단 인근 해상,암,34~47,전라남도 여수시,0,DT_0016,여수
327,127.7934903,34.41411556,연도,덕포앞 해상,암,0.7~3.1,전라남도 여수시,0,DT_0016,여수
328,127.7965222,34.42959389,연도,역포항 인근 해상,암,0.8~1.1,전라남도 여수시,0,DT_0016,여수
329,127.7925775,34.44111361,연도,땅포앞 인근 해상,암,9.7~23.5,전라남도 여수시,0,DT_0016,여수
330,128.0517994,34.92781194,진주만 부근,삼천포대교 밑,암,10.4~11.1,경상남도 고성군,0,DT_0061,삼천포
331,128.2849456,34.88831083,자란만 부근,두도 해상,암,7.5~7.6,경상남도 고성군,0,DT_0061,삼천포
332,128.3035167,34.74614,추도 부근,개바위 끝 부근,암,21~23.5,경상남도 통영시,0,DT_0014,통영
333,128.3003,34.7587,추도 부근,대항승선장부근 해상,암,21~23.5,경상남도 통영시,0,DT_0014,통영
334,128.3053683,34.7580875,추도 부근,흰여 부근,암,4.0~13.5,경상남도 통영시,0,DT_0014,통영
335,128.3633197,34.67044278,연화도 부근,우서부근 해상,암,5.6~6.0,경상남도 통영시,0,DT_0014,통영
336,128.3710639,34.64433917,연화도 부근,연화도 방파제 인근해상,암,12~18.3,경상남도 통영시,0,DT_0014,통영
337,128.3489803,34.65253556,연화도 부근,연화항 부근 해상,암,9.7~18,경상남도 통영시,0,DT_0014,통영
338,128.3505564,34.65272167,연화도 부근,연화항 부근 해상,암,4.4~9.7,경상남도 통영시,0,DT_0014,통영
339,128.1826194,34.5729475,갈도 부근,갈도 북측,"모래, 조개껍질",11.6~11.8,경상남도 통영시,0,DT_0014,통영
340,128.1808831,34.55766167,갈도 부근,귀신여 우측 하단,암,14.5~15.9,경상남도 통영시,0,DT_0014,통영
341,128.468675,35.07754444,당항포 부근,동진교 해상,모래,7~15.8,경상남도 고성군,0,DT_0061,삼천포
342,128.4505306,35.072575,당항포 부근,카페이안펜션 해상,"펄, 모래",13.7~17,경상남도 고성군,0,DT_0061,삼천포
343,128.9737758,35.0332675,부산항 부근,몰운대 전망대 해상,펄,11.7~15,부산광역시 영도구,0,DT_0005,부산
344,129.1384519,35.1512875,수영만 부근,광안대교 인근 해상,"펄,모래",8.2~9.7,부산광역시 남구,0,DT_0005,부산
345,129.1706592,35.15127389,수영만 부근,앞산초 인근 해상,암,8.2~9.7,부산광역시 남구,0,DT_0005,부산
346,129.1945628,35.15926917,수영만 부근,청사포항 인근 해상,암,8.2~9.7,부산광역시 남구,0,DT_0005,부산
347,124.7278611,37.839,대청도·소청도,대청도 검은낭 갯바위,바위,3.1~3.4,인천광역시 옹진군,1,IE_0062,웅진소청초
348,124.7023889,37.80488889,대청도·소청도,대청도 독바위,모래,7.6~8,인천광역시 옹진군,1,IE_0062,웅진소청초
349,124.6944167,37.80655556,대청도·소청도,대청도 기름아가리(기름바다),모래,1.9~2.4,인천광역시 옹진군,1,IE_0062,웅진소청초
350,124.6829722,37.79866667,대청도·소청도,대청도 서풍받이 끝,바위,3.7~7,인천광역시 옹진군,1,IE_0062,웅진소청초
351,124.6797778,37.80172222,대청도·소청도,대청도 서풍받이 서쪽 갯바위,"모래, 조개껍질",5.3~6,인천광역시 옹진군,1,IE_0062,웅진소청초
352,124.67725,37.8135,대청도·소청도,대청도 사탄동해변 갯바위,"모래, 조개껍질",1.7~2.2,인천광역시 옹진군,1,IE_0062,웅진소청초
353,124.6797222,37.82225,대청도·소청도,대청도 지두리해변 갯바위,"모래, 조개껍질",1.4~2,인천광역시 옹진군,1,IE_0062,웅진소청초
354,124.7553889,37.76880556,대청도·소청도,소청도 예동항 동쪽 갯바위,"펄, 가는 모래",3.6~4.1,인천광역시 옹진군,1,IE_0062,웅진소청초
355,124.7488889,37.76902778,대청도·소청도,소청도 예동 갯바위,"펄, 가는 모래",2.8~3.4,인천광역시 옹진군,1,IE_0062,웅진소청초
356,126.3086944,37.56016667,장봉도,채석장 북갯바위(가막머리),"자갈, 모래",3~3.5,인천광역시 옹진군,1,IE_0062,웅진소청초
357,126.3125556,37.55955556,장봉도,채석장 부근,모래,1.3~3.7,인천광역시 옹진군,1,IE_0062,웅진소청초
358,126.3211667,37.54561111,장봉도,진촌 서갯바위,"모래, 펄",1.2~1.6,인천광역시 옹진군,1,IE_0062,웅진소청초
359,126.2921667,37.26891667,자월도,마바위,모래,1.2~1.9,인천광역시 옹진군,1,IE_0062,웅진소청초
360,126.3164444,37.26283333,자월도,입암두 부근 갯바위,모래,1.2~2.2,인천광역시 옹진군,1,IE_0062,웅진소청초
361,126.3352778,37.26297222,자월도,떡바위,모래,1.3~2,인천광역시 옹진군,1,IE_0062,웅진소청초
362,126.3483056,37.25977778,자월도,굴뿌리,모래,1.4~2.1,인천광역시 옹진군,1,IE_0062,웅진소청초
363,126.3303889,37.24588889,자월도,분모골,"조개껍질, 펄",1.3~3,인천광역시 옹진군,1,IE_0062,웅진소청초
364,126.2898889,37.2555,자월도,항도(목섬) 부근,모래,1.2~2,인천광역시 옹진군,1,IE_0062,웅진소청초
365,126.2784444,37.26338889,자월도,큰굴 부근,모래,1~4,인천광역시 옹진군,1,IE_0062,웅진소청초
366,126.1028889,37.26463889,덕적도·소야도,덕적도 능동자갈마당 갯바위,모래,2~3,인천광역시 옹진군,1,DT_0065,덕적도
367,126.1104167,37.26183333,덕적도·소야도,덕적도 소재해변 갯바위,"펄, 모래",2.2~5,인천광역시 옹진군,1,DT_0065,덕적도
368,126.1176111,37.25783333,덕적도·소야도,덕적도 파락금이 갯바위,"펄, 모래",2.2~5,인천광역시 옹진군,1,DT_0065,덕적도
369,126.1446944,37.24236111,덕적도·소야도,덕적도 목섬 부근,"펄, 모래",2~2.4,인천광역시 옹진군,1,DT_0065,덕적도
370,126.1653611,37.23172222,덕적도·소야도,덕적도 정자바위,"펄, 모래",1.7~2,인천광역시 옹진군,1,DT_0065,덕적도
371,126.1477778,37.21463889,덕적도·소야도,덕적도 밭지름해수욕장 갯바위,"펄, 모래",1.7~1.9,인천광역시 옹진군,1,DT_0065,덕적도
372,126.1241389,37.21175,덕적도·소야도,"덕적도 큰이마, 작은이마",가는 모래,1.2~1.6,인천광역시 옹진군,1,DT_0065,덕적도
373,126.1592222,37.22433333,덕적도·소야도,소야도 뒷장불,모래,1.2~1.5,인천광역시 옹진군,1,DT_0065,덕적도
374,126.1941389,37.20805557,덕적도·소야도,소야도 대금두(진대끝) 부근,"모래, 펄",20~25,인천광역시 옹진군,1,DT_0065,덕적도
375,126.1792222,37.20066667,덕적도·소야도,소야도 남서쪽 갯바위,모래,1.3~1.5,인천광역시 옹진군,1,DT_0065,덕적도
376,126.1695278,37.20944444,덕적도·소야도,소야도 떼뿌루해수욕장 갯바위,모래,1.1~1.4,인천광역시 옹진군,1,DT_0065,덕적도
377,126.2190833,37.18761111,이작도·승봉도,소이작도 돌살부리 부근,펄,1.2~1.8,인천광역시 옹진군,1,IE_0062,웅진소청초
378,126.2493611,37.18305556,이작도·승봉도,소이작도 손가락 바위 부근,"펄, 모래",1.2~1.7,인천광역시 옹진군,1,IE_0062,웅진소청초
379,126.2406944,37.17705556,이작도·승봉도,소이작도 해군기지 부근,"펄, 모래",1.5~2,인천광역시 옹진군,1,IE_0062,웅진소청초
380,126.2154722,37.18225,이작도·승봉도,소이작도 간뿌리 부근,가는 모래,1.1~1.8,인천광역시 옹진군,1,IE_0062,웅진소청초
381,126.2547222,37.18127778,이작도·승봉도,대이작도 오형제바위,"펄, 모래",3~5,인천광역시 옹진군,1,IE_0062,웅진소청초
382,126.2732222,37.15988889,이작도·승봉도,대이작도 토끼바위 부근,"펄, 모래",3~5,인천광역시 옹진군,1,IE_0062,웅진소청초
383,126.2596944,37.16844445,이작도·승봉도,대이작도 작은풀안해수욕장 정자 부근,가는 모래,1.2~1.9,인천광역시 옹진군,1,IE_0062,웅진소청초
384,126.2493333,37.17038889,이작도·승봉도,대이작도 유곶 부근,"펄, 모래",3~5,인천광역시 옹진군,1,IE_0062,웅진소청초
385,126.2910833,37.174,이작도·승봉도,승봉도 동양콘도 앞,"모래, 펄, 조개껍질",1.3~1.6,인천광역시 옹진군,1,IE_0062,웅진소청초
386,126.2939444,37.175,이작도·승봉도,승봉도 소각장 부근,펄,1.1~1.9,인천광역시 옹진군,1,IE_0062,웅진소청초
387,126.3034444,37.17275,이작도·승봉도,승봉도 부채바위,펄,1~1.8,인천광역시 옹진군,1,IE_0062,웅진소청초
388,126.3121111,37.17169444,이작도·승봉도,승봉도 남대문바위,펄,1.4~1.7,인천광역시 옹진군,1,IE_0062,웅진소청초
389,126.3183056,37.16536111,이작도·승봉도,승봉도 참나무골,펄,1.5~2,인천광역시 옹진군,1,IE_0062,웅진소청초
390,126.3246389,37.16161111,이작도·승봉도,승봉도 촛대바위,"모래, 조개껍질",1.2~2.2,인천광역시 옹진군,1,IE_0062,웅진소청초
391,126.3208889,37.15730556,이작도·승봉도,승봉도 목섬 부근,모래,1.2~2.2,인천광역시 옹진군,1,IE_0062,웅진소청초
392,126.2948056,37.16494444,이작도·승봉도,승봉도 철탑앞 갯바위,가는 모래,1.1~1.5,인천광역시 옹진군,1,IE_0062,웅진소청초
393,126.1047778,37.18202778,문갑도·선갑도,문갑도 한월리해수욕장 갯바위,가는 모래,1.4~1.7,인천광역시 옹진군,1,IE_0062,웅진소청초
394,126.1145278,37.18127778,문갑도·선갑도,문갑도 문갑해수욕장 갯바위,가는 모래,2.2~4.7,인천광역시 옹진군,1,IE_0062,웅진소청초
395,126.1103056,37.17705556,문갑도·선갑도,문갑도 문갑해수욕장 갯바위,"펄, 모래",1.3~2,인천광역시 옹진군,1,IE_0062,웅진소청초
396,126.1091667,37.16572222,문갑도·선갑도,문갑도 진뿌리,"펄, 모래",3~3.8,인천광역시 옹진군,1,IE_0062,웅진소청초
397,126.10125,37.16641667,문갑도·선갑도,문갑도 문턱뿌리 부근,"펄, 모래",11~13,인천광역시 옹진군,1,IE_0062,웅진소청초
398,125.9679722,37.08436111,백아도·굴업도,백아도 기차바위 부근,펄,2.3~3.8,인천광역시 옹진군,1,IE_0062,웅진소청초
399,125.9519444,37.07500001,백아도·굴업도,백아도 목가지 부근,바위,2.1~3,인천광역시 옹진군,1,IE_0062,웅진소청초
400,125.9415833,37.08122222,백아도·굴업도,백아도 서쪽 곶부리,바위,7.6~8,인천광역시 옹진군,1,IE_0062,웅진소청초
401,125.9814722,37.19438889,백아도·굴업도,굴업도 마을 북쪽 갯바위,가는 모래,1.7~2.5,인천광역시 옹진군,1,IE_0062,웅진소청초
402,125.9836667,37.19447222,백아도·굴업도,굴업도 해수욕장 북쪽 갯바위,가는 모래,1.8~2.5,인천광역시 옹진군,1,IE_0062,웅진소청초
403,125.9923333,37.19511111,백아도·굴업도,굴업도 해수욕장 동쪽 갯바위,"모래, 펄",2.5~3,인천광역시 옹진군,1,IE_0062,웅진소청초
404,125.9818056,37.18697222,백아도·굴업도,굴업도 마을 동쪽 갯바위,"모래, 펄",1.2~1.8,인천광역시 옹진군,1,IE_0062,웅진소청초
405,125.9751944,37.18694444,백아도·굴업도,굴업도 마을 서쪽 갯바위,"모래, 펄",1.3~1.8,인천광역시 옹진군,1,IE_0062,웅진소청초
406,126.4297778,37.26338889,영흥도·선재도·대부도·구봉도,영흥도 양로봉 갯바위(신노루),"펄, 모래",2.3~4.1,인천광역시 옹진군,1,DT_0043,영흥도
407,126.4353056,37.27438889,영흥도·선재도·대부도·구봉도,영흥도 비석바위,"펄, 모래",2.2~4.3,인천광역시 옹진군,1,DT_0043,영흥도
408,126.4556667,37.28433333,영흥도·선재도·대부도·구봉도,영흥도 농어바위,모래,1.2~2,인천광역시 옹진군,1,DT_0043,영흥도
409,126.4706667,37.28730556,영흥도·선재도·대부도·구봉도,영흥도 진여,"펄, 모래",1.5~2.3,인천광역시 옹진군,1,DT_0043,영흥도
410,126.4890278,37.28322222,영흥도·선재도·대부도·구봉도,영흥도 십리포해수욕장 갯바위,"펄, 모래",1.2~2,인천광역시 옹진군,1,DT_0043,영흥도
411,126.4811389,37.24183333,영흥도·선재도·대부도·구봉도,영흥도 용담리해수욕장 부근,"펄, 모래",1.4~2.2,인천광역시 옹진군,1,DT_0043,영흥도
412,126.52425,37.25680556,영흥도·선재도·대부도·구봉도,신지도 대량곶 부근 갯바위,펄,1.8~2.5,인천광역시 옹진군,1,DT_0043,영흥도
413,126.5423611,37.21438889,영흥도·선재도·대부도·구봉도,대부도 쪽박섬 부근,펄,1~1.3,경기도 안산시,1,DT_0043,영흥도
414,126.6219722,37.16302778,제부도,제부도 소방서 앞,펄,1~1.3,경기도 화성시,1,DT_0002,평택
415,126.61825,37.15652778,제부도,제부도 매(삼형제)바위 부근,펄,1.1~1.4,경기도 화성시,1,DT_0002,평택
416,126.5351111,37.11433333,입파도·국화도,입파도 북서측 끝단,모래,1.4~3,경기도 화성시,1,DT_0002,평택
417,126.5406944,37.11116667,입파도·국화도,입파도 북동측 끝단,모래,2.2~4.1,경기도 화성시,1,DT_0002,평택
418,126.5397222,37.09772222,입파도·국화도,입파도 동남측 돌출부,모래,1.2~2,경기도 화성시,1,DT_0002,평택
419,126.5380278,37.09372222,입파도·국화도,입파도 남측 곶부리,모래,3.7~5,경기도 화성시,1,DT_0002,평택
420,126.5370833,37.10244444,입파도·국화도,입파도 서측 갯바위,"펄, 모래",1.2~1.5,경기도 화성시,1,DT_0002,평택
421,126.5544167,37.07141667,입파도·국화도,국화도 매박섬(토끼섬),모래,5~5.2,경기도 화성시,1,DT_0002,평택
422,126.5568611,37.064,입파도·국화도,국화도 해수욕장 서측 갯바위,모래,1.3~2.3,경기도 화성시,1,DT_0002,평택
423,126.5587222,37.06180556,입파도·국화도,국화도 해수욕장 동측 갯바위,모래,1.2~2.3,경기도 화성시,1,DT_0002,평택
424,126.54975,37.05452778,입파도·국화도,국화도 도지섬 부근,펄,2.3~4,경기도 화성시,1,DT_0002,평택
425,126.5512778,37.05822222,입파도·국화도,국화도 서쪽 곶부리,펄,1.3~2.1,경기도 화성시,1,DT_0002,평택
426,126.3799444,37.10577778,풍도·난지도,풍도 채석장 남측,바위,4~6,경기도 안산시,1,DT_0008,안산
427,126.38025,37.11419444,풍도·난지도,풍도 채석장 북측,"펄, 자갈",4~5,경기도 안산시,1,DT_0008,안산
428,126.3900556,37.11569444,풍도·난지도,풍도 북동측 돌출부,"펄, 자갈",1.5~2.6,경기도 안산시,1,DT_0008,안산
429,126.3947222,37.10741667,풍도·난지도,풍도 남쪽 마을 부근,"펄, 자갈",1.3~2.1,경기도 안산시,1,DT_0008,안산
430,126.4212222,37.04988889,풍도·난지도,대난지도 해수욕장 갯바위,모래,1.5~2.2,충청남도 당진시,1,DT_0002,평택
431,126.4495278,37.04427778,풍도·난지도,대난지도 도끝이 부근,펄,1.7~3,충청남도 당진시,1,DT_0002,평택
432,126.4411667,37.03830556,풍도·난지도,소난지도 서쪽 갯바위,바위,1.5~2.4,충청남도 당진시,1,DT_0002,평택
433,126.4343889,36.36058333,원산도·삽시도,원산도해수욕장 동측 소록도,"펄, 모래",1.4~2.1,충청남도 보령시,1,DT_0025,보령
434,126.4203333,36.36325,원산도·삽시도,원산도해수욕장 서측 갯바위,"펄, 모래",1.9~2.5,충청남도 보령시,1,DT_0025,보령
435,126.4082778,36.36461111,원산도·삽시도,원산도 용뿌리 갯바위,"펄, 모래",1.1~1.6,충청남도 보령시,1,DT_0025,보령
436,126.3844444,36.37097222,원산도·삽시도,원산도 개간지,자갈,1.8~2.3,충청남도 보령시,1,DT_0025,보령
437,126.3701389,36.33530556,원산도·삽시도,삽시도 야의곶 부근,"펄, 모래",2~2.3,충청남도 보령시,1,DT_0025,보령
438,126.3398889,36.32911111,원산도·삽시도,삽시도 촛대바위,"모래, 조개껍질",3~3.4,충청남도 보령시,1,DT_0025,보령
439,126.3406667,36.33366667,원산도·삽시도,삽시도 물망터,"모래, 조개껍질",1.6~2.5,충청남도 보령시,1,DT_0025,보령
440,126.3413611,36.33783333,원산도·삽시도,삽시도 면삽지,"모래, 조개껍질",2.1~3.7,충청남도 보령시,1,DT_0025,보령
441,126.3513611,36.34916667,원산도·삽시도,삽시도 거멀너머해수욕장 부근,"모래, 조개껍질",1.3~2.2,충청남도 보령시,1,DT_0025,보령
442,126.2575833,36.29572222,호도·녹도·외연도,호도 안통,펄,2.2~3,충청남도 보령시,1,DT_0025,보령
443,126.2692778,36.30263889,호도·녹도·외연도,호도 북동쪽 갯바위,모래,3.2~4.3,충청남도 보령시,1,DT_0025,보령
444,126.2636111,36.29252778,호도·녹도·외연도,호도해수욕장 갯바위,바위,1.5~2.2,충청남도 보령시,1,DT_0025,보령
445,126.2623056,36.27636111,호도·녹도·외연도,녹도 북서쪽 갯바위,바위,3.2~5,충청남도 보령시,1,DT_0025,보령
446,126.2654167,36.26538889,호도·녹도·외연도,녹도 동두말 부근,모래,3~5,충청남도 보령시,1,DT_0025,보령
447,126.0710556,36.22794444,호도·녹도·외연도,외연도 서측 갯바위,"자갈, 펄",1.6~3,충청남도 보령시,1,DT_0025,보령
448,126.075,36.23086111,호도·녹도·외연도,외연도 누적금 부근,"자갈, 펄",1.7~3,충청남도 보령시,1,DT_0025,보령
449,126.0824167,36.23119444,호도·녹도·외연도,외연도 작은 명금 부근,자갈,1.3~2.7,충청남도 보령시,1,DT_0025,보령
450,125.9668611,36.12613889,어청도·연도,어청도 등대 부근,펄,3.8~5.2,전라북도 군산시,1,DT_0037,어청도
451,125.9947222,36.11811111,어청도·연도,어청도 한우담 부근,모래,1.8~3,전라북도 군산시,1,DT_0037,어청도
452,125.9916389,36.11055556,어청도·연도,어청도 세미치말 부근,펄,4.4~6.2,전라북도 군산시,1,DT_0037,어청도
453,125.9858611,36.11977778,어청도·연도,어청도 농배,펄,3~4.5,전라북도 군산시,1,DT_0037,어청도
454,125.9785,36.11036111,어청도·연도,어청도 시목서 부근,바위,3.7~5,전라북도 군산시,1,DT_0037,어청도
455,125.9723056,36.11297222,어청도·연도,어청도 불탄서 부근,바위,3.4~5,전라북도 군산시,1,DT_0037,어청도
456,126.4445556,36.07588889,어청도·연도,연도 해녀막(멸치막),바위,1.7~2.2,전라북도 군산시,1,DT_0037,어청도
457,126.4392778,36.07775,어청도·연도,연도 자갈밭,자갈,1.9~2.3,전라북도 군산시,1,DT_0037,어청도
458,126.4330278,36.07902778,어청도·연도,연도 채석장,자갈,1.6~2.5,전라북도 군산시,1,DT_0037,어청도
459,126.22425,36.00194444,십이동파도·비안도,십이동파도 땅콩여,"펄, 모래",9~18,전라북도 군산시,1,DT_0018,군산
460,126.24,35.99705556,십이동파도·비안도,십이동파도 사자섬,"펄, 모래",7.5~12,전라북도 군산시,1,DT_0018,군산
461,126.2408333,35.99363889,십이동파도·비안도,십이동파도 작은 쌍섬,"펄, 모래",7~11,전라북도 군산시,1,DT_0018,군산
462,126.2351667,35.9935,십이동파도·비안도,십이동파도 큰 쌍섬,"펄, 모래",7.5~12,전라북도 군산시,1,DT_0018,군산
463,126.2398333,35.98291667,십이동파도·비안도,십이동파도 똥섬,"펄, 조개껍질",7.6~8.1,전라북도 군산시,1,DT_0018,군산
464,126.2371389,35.98286111,십이동파도·비안도,십이동파도 벌린여,"펄, 조개껍질",4.7~6,전라북도 군산시,1,DT_0018,군산
465,126.2214722,35.98775,십이동파도·비안도,십이동파도 등대섬 덜컥바위,"펄, 모래",19.7~21,전라북도 군산시,1,DT_0018,군산
466,126.2196111,35.99802778,십이동파도·비안도,십이동파도 병풍도 북쪽 곶부리,"펄, 모래",21~22.3,전라북도 군산시,1,DT_0018,군산
467,126.4483056,35.74805556,십이동파도·비안도,비안도 남쪽 갯바위,"펄, 모래",4.3~5.1,전라북도 군산시,1,DT_0018,군산
468,126.4579444,35.735,십이동파도·비안도,비안도 제방,조개껍질,1.5~2,전라북도 군산시,1,DT_0018,군산
469,126.4522778,35.72880556,십이동파도·비안도,비안도 남쪽 직벽지대,"모래, 펄",5~8,전라북도 군산시,1,DT_0018,군산
470,126.4496944,35.73036111,십이동파도·비안도,비안도 남서쪽 직벽 홈통,"모래, 펄",5.3~8.2,전라북도 군산시,1,DT_0018,군산
471,126.4484444,35.73402778,십이동파도·비안도,비안도 서쪽 돌출여 부근,"모래, 펄",5~7,전라북도 군산시,1,DT_0018,군산
472,126.4395,35.74005556,십이동파도·비안도,비안도 북서쪽 떨어진여 부근,조개껍질,5.1~5.6,전라북도 군산시,1,DT_0018,군산
473,126.3158889,35.85880556,말도·방축도,말도 등대 부근 갯바위,"모래, 조개껍질",11.8~13,전라북도 군산시,1,DT_0018,군산
474,126.32575,35.85886111,말도·방축도,말도 북동쪽 곶부리,"펄, 모래",7~10,전라북도 군산시,1,DT_0018,군산
475,126.31425,35.85580556,말도·방축도,말도 단도 부근,"모래, 조개껍질",6.4~8,전라북도 군산시,1,DT_0018,군산
476,126.3675833,35.85291667,말도·방축도,방축도 북서바위,"모래, 조개껍질",7~9,전라북도 군산시,1,DT_0018,군산
477,126.3866111,35.85619444,말도·방축도,방축도 북동쪽 곶부리,가는 모래,6.7~8,전라북도 군산시,1,DT_0018,군산
478,126.37275,35.84647222,말도·방축도,방축도 남서쪽 작은 홈통,"모래, 조개껍질",7~8.6,전라북도 군산시,1,DT_0018,군산
479,126.3682222,35.84613889,말도·방축도,방축도 남서쪽 큰 홈통,가는 모래,8.3~10,전라북도 군산시,1,DT_0018,군산
480,126.3658611,35.84661111,말도·방축도,방축도 독립문바위,가는 모래,2.3~3,전라북도 군산시,1,DT_0018,군산
481,126.4000556,35.81294444,선유도·무녀도·장자도·신시도,장자도 연육교 부근,"모래, 펄",1.7~2.5,전라북도 군산시,1,DT_0018,군산
482,126.4068333,35.82077778,선유도·무녀도·장자도·신시도,선유도해수욕장 앞 갯바위,"모래, 펄",1.3~1.8,전라북도 군산시,1,DT_0018,군산
483,126.4235,35.81975,선유도·무녀도·장자도·신시도,선유도 북도 동쪽 갯바위,"모래, 펄",1.2~1.5,전라북도 군산시,1,DT_0018,군산
484,126.4087778,35.80508333,선유도·무녀도·장자도·신시도,선유도 남도 갯바위,가는 모래,3~4.2,전라북도 군산시,1,DT_0018,군산
485,126.4154722,35.80194444,선유도·무녀도·장자도·신시도,무녀도 남들포인트,가는 모래,2~2.5,전라북도 군산시,1,DT_0018,군산
486,126.44,35.80577778,선유도·무녀도·장자도·신시도,무녀도 제방,"모래, 펄",1.4~1.8,전라북도 군산시,1,DT_0018,군산
487,126.43825,35.80058333,선유도·무녀도·장자도·신시도,무녀도 구마을 백사장 부근,"모래, 펄",1.6~1.9,전라북도 군산시,1,DT_0018,군산
488,126.4435,35.83177778,선유도·무녀도·장자도·신시도,신시도 북단 곶부리,"모래, 펄",2.7~4,전라북도 군산시,1,DT_0018,군산
489,126.44875,35.80997222,선유도·무녀도·장자도·신시도,신시도 남단 간출여 부근,"모래, 펄",1.3~1.8,전라북도 군산시,1,DT_0018,군산
490,126.1108056,35.66680556,왕등도·위도,상왕등도 북쪽 끝바리,펄,7~10,전라북도 부안군,1,DT_0068,위도
491,126.10725,35.65616667,왕등도·위도,상왕등도 터널바위,펄,2.5~5,전라북도 부안군,1,DT_0068,위도
492,126.115,35.64494444,왕등도·위도,하왕등도 북쪽 갯바위,"펄, 모래, 조개껍질",3.6~5,전라북도 부안군,1,DT_0068,위도
493,126.1299167,35.63675,왕등도·위도,하왕등도 코구렁,"펄, 모래, 조개껍질",6~10,전라북도 부안군,1,DT_0068,위도
494,126.1243333,35.63458333,왕등도·위도,하왕등도 오지바위,"펄, 모래, 조개껍질",3.6~6,전라북도 부안군,1,DT_0068,위도
495,126.2759722,35.61594444,왕등도·위도,위도 용멀 갯바위,펄,9.7~12,전라북도 부안군,1,DT_0068,위도
496,126.3151111,35.61052778,왕등도·위도,위도 대멀 부근,펄,1.7~2,전라북도 부안군,1,DT_0068,위도
497,126.2535556,35.57741667,왕등도·위도,위도 철탑 부근,펄,2.4~3.3,전라북도 부안군,1,DT_0068,위도
498,126.2514444,35.58083333,왕등도·위도,위도 논금해수욕장 갯바위,펄,2.3~3.2,전라북도 부안군,1,DT_0068,위도
499,126.2599722,35.58886111,왕등도·위도,위도 미영금해수욕장 갯바위,펄,2.7~3.5,전라북도 부안군,1,DT_0068,위도
500,126.2580556,35.59819444,왕등도·위도,위도 모여 부근,펄,8~12,전라북도 부안군,1,DT_0068,위도
501,125.8895556,34.73669444,비금도·도초도,비금도 성목골 부근 갯바위,"펄, 모래",2.5~3,전라남도 신안군,1,DT_0028,진도
502,125.8927222,34.74780556,비금도·도초도,비금도 하누넘해수욕장 갯바위,모래,3.3~4.7,전라남도 신안군,1,DT_0028,진도
503,125.8916111,34.75858333,비금도·도초도,비금도 이미해수욕장 갯바위,바위,3.5~5,전라남도 신안군,1,DT_0028,진도
504,125.8916111,34.76641667,비금도·도초도,비금도 용머리바위,바위,4.2~6.1,전라남도 신안군,1,DT_0028,진도
505,125.9528333,34.78861111,비금도·도초도,비금도 명사십리해수욕장 갯바위,펄,5.2~6.1,전라남도 신안군,1,DT_0028,진도
506,125.9711667,34.79988889,비금도·도초도,비금도 계남서 부근,펄,1.7~3,전라남도 신안군,1,DT_0028,진도
507,125.9936389,34.80658333,비금도·도초도,비금도 통섭바위 부근,펄,9.4~10,전라남도 신안군,1,DT_0028,진도
508,126,34.79008333,비금도·도초도,비금도 큰당두리 갯바위,"펄, 모래",1.4~2.1,전라남도 신안군,1,DT_0028,진도
509,125.9991389,34.7735,비금도·도초도,비금도 가산리 진골 갯바위,"펄, 모래",1.3~1.7,전라남도 신안군,1,DT_0028,진도
510,125.9524167,34.66411111,비금도·도초도,시목해수욕장 부근 갯바위,"펄, 조개껍질",2.1~3,전라남도 신안군,1,DT_0028,진도
511,125.9248056,34.66983333,비금도·도초도,도초도 지남리 남쪽 곶부리,"펄, 조개껍질",1.9~3.4,전라남도 신안군,1,DT_0028,진도
512,125.9145833,34.68641667,비금도·도초도,도초도 문바위 부근,"모래, 조개껍질",3~5.3,전라남도 신안군,1,DT_0028,진도
513,125.4484444,34.69063889,흑산도·삼태도,대흑산도 예리 갯바위,바위,1.3~2.7,전라남도 신안군,1,DT_0035,흑산도
514,125.4391944,34.67161111,흑산도·삼태도,대흑산도 정촌리 홈통 부근,"모래, 조개껍질",2.2~3.7,전라남도 신안군,1,DT_0035,흑산도
515,125.4241389,34.66066667,흑산도·삼태도,대흑산도 섯개해수욕장 갯바위,"모래, 조개껍질",3.3~5,전라남도 신안군,1,DT_0035,흑산도
516,125.2815,34.43502778,흑산도·삼태도,상태도 마을 앞 갯바위,바위,5.1~6.8,전라남도 신안군,1,DT_0035,흑산도
517,125.2898611,34.39252778,흑산도·삼태도,하태도 기둥바위 부근,바위,6~9,전라남도 신안군,1,DT_0035,흑산도
518,126.5606111,34.23394444,노화도·보길도·소안도,노화도 북쪽 목부분 홈통,펄,8~10,전라남도 완도군,1,DT_0027,완도
519,126.5555556,34.213,노화도·보길도·소안도,노화도 갈미각 부근 갯바위,펄,3.8~4.5,전라남도 완도군,1,DT_0027,완도
520,126.6244444,34.15694444,노화도·보길도·소안도,보길도 글쓴바위 부근,바위,6.3~7,전라남도 완도군,1,DT_0027,완도
521,126.6161944,34.14883333,노화도·보길도·소안도,보길도 동쪽 곶부리,"펄, 모래",5.7~8,전라남도 완도군,1,DT_0027,완도
522,126.6040833,34.14608333,노화도·보길도·소안도,보길도 치마끝 갯바위,"펄, 모래",3.7~4.5,전라남도 완도군,1,DT_0027,완도
523,126.5798056,34.15238889,노화도·보길도·소안도,보길도 장항각 부근 갯바위,"펄, 모래",4.8~5.4,전라남도 완도군,1,DT_0027,완도
524,126.5755,34.14508333,노화도·보길도·소안도,보길도 예송리해수욕장 곶부리,"펄, 모래",3.6~4.2,전라남도 완도군,1,DT_0027,완도
525,126.5195556,34.12622222,노화도·보길도·소안도,보길도 보옥리 몽돌해안,조개껍질,2.1~2.6,전라남도 완도군,1,DT_0027,완도
526,126.5046667,34.13933333,노화도·보길도·소안도,보길도 망월각 갯바위,바위,6.3~7,전라남도 완도군,1,DT_0027,완도
527,126.5042222,34.1485,노화도·보길도·소안도,보길도 선창리 갯바위,바위,1.3~1.9,전라남도 완도군,1,DT_0027,완도
528,126.6558611,34.19741667,노화도·보길도·소안도,소안도 월항리 양식장부근,"가는 모래, 조개껍질",2.5~4.4,전라남도 완도군,1,DT_0027,완도
529,126.68425,34.18152778,노화도·보길도·소안도,소안도 청변각 갯바위(코바위),"펄, 모래, 조개껍질",3.1~5,전라남도 완도군,1,DT_0027,완도
530,126.6622222,34.17508333,노화도·보길도·소안도,소안도 비자리 해안갯바위,펄,1.5~2.2,전라남도 완도군,1,DT_0027,완도
531,126.6825556,34.14836112,노화도·보길도·소안도,소안도 밖고래여 부근,펄,3.2~3.8,전라남도 완도군,1,DT_0027,완도
532,126.6802222,34.14080556,노화도·보길도·소안도,소안도 탁구진 부근 갯바위,펄,4.9~5.5,전라남도 완도군,1,DT_0027,완도
533,126.6696944,34.1205,노화도·보길도·소안도,소안도 담축끝 갯바위,펄,12~14,전라남도 완도군,1,DT_0027,완도
534,126.6382222,34.12286111,노화도·보길도·소안도,소안도 농서 부근 갯바위,"가는 모래, 자갈",5.5~6.3,전라남도 완도군,1,DT_0027,완도
535,126.6284167,34.14586111,노화도·보길도·소안도,소안도 돈암각 부근 갯바위,펄,5.5~6.1,전라남도 완도군,1,DT_0027,완도
536,126.6351111,34.18702778,노화도·보길도·소안도,소안도 산호도 부근 갯바위,펄,11.6~12.2,전라남도 완도군,1,DT_0027,완도
537,126.787,34.34575,신지도,송곡리 호안로 갯바위,"펄, 모래",1.5~2.1,전라남도 완도군,1,DT_0027,완도
538,126.8244167,34.35236111,신지도,대곡항 북쪽 갯바위,펄,1~1.3,전라남도 완도군,1,DT_0027,완도
539,126.8429722,34.35216667,신지도,대곡리 남쪽 양식장 배수구 부근,펄,1.2~1.5,전라남도 완도군,1,DT_0027,완도
540,126.89625,34.34425,신지도,방죽포 철탑 부근 갯바위,"펄, 조개껍질",2.1~2.6,전라남도 완도군,1,DT_0027,완도
541,126.8988611,34.34188889,신지도,덕구미 부근,"펄, 조개껍질",8.5~9,전라남도 완도군,1,DT_0027,완도
542,126.89375,34.33052778,신지도,동고리 남쪽 갯바위,펄,1.5~3,전라남도 완도군,1,DT_0027,완도
543,126.8824444,34.31025,신지도,무생끝 부근,펄,7.7~9,전라남도 완도군,1,DT_0027,완도
544,126.8724722,34.30980556,신지도,도트럼끝 부근,펄,2.8~3.6,전라남도 완도군,1,DT_0027,완도
545,126.8658056,34.31461111,신지도,가인항 양식장 부근 갯바위,펄,4.6~5,전라남도 완도군,1,DT_0027,완도
546,126.8547222,34.30630556,신지도,내동리 양식장 부근 갯바위,"펄, 조개껍질",1.4~1.8,전라남도 완도군,1,DT_0027,완도
547,126.8391667,34.30897222,신지도,월양항 부근 제방,"펄, 조개껍질",1.8~2.5,전라남도 완도군,1,DT_0027,완도
548,126.7939444,34.31663889,신지도,무인등대 부근,펄,14.3~6,전라남도 완도군,1,DT_0027,완도
549,126.78625,34.32338889,신지도,노랑바위 부근,"모래, 조개껍질",2.3~3.8,전라남도 완도군,1,DT_0027,완도
550,126.7639444,34.21058334,청산도·대모도,대모도 북곧말 갯바위,"펄, 모래, 조개껍질",2.7~5,전라남도 완도군,1,DT_0027,완도
551,126.7731667,34.19580556,청산도·대모도,대모도 외라이말 갯바위,"펄, 모래",7.2~10.1,전라남도 완도군,1,DT_0027,완도
552,126.8600278,34.20036111,청산도·대모도,대모도 동리말 갯바위,"펄, 모래",14.6~16,전라남도 완도군,1,DT_0027,완도
553,126.7611667,34.17752778,청산도·대모도,대모도 소로지말 갯바위,"펄, 모래",2~3.1,전라남도 완도군,1,DT_0027,완도
554,126.7504722,34.18780556,청산도·대모도,대모도 마도말 갯바위,"펄, 모래, 조개껍질",8.5~10,전라남도 완도군,1,DT_0027,완도
555,126.8600278,34.20036111,청산도·대모도,청산도 황산말 철탑 부근,"조개껍질, 펄",1.9~2.5,전라남도 완도군,1,DT_0027,완도
556,126.8726389,34.20894444,청산도·대모도,청산도 촛대바위 부근,"조개껍질, 펄",1.7~2.9,전라남도 완도군,1,DT_0027,완도
557,126.91975,34.18608333,청산도·대모도,청산도 항도 제방 부근 갯바위,자갈,8.5~8.7,전라남도 완도군,1,DT_0027,완도
558,126.9238333,34.18008333,청산도·대모도,청산도 동촌리 갯바위,모래,11.5~13,전라남도 완도군,1,DT_0027,완도
559,126.9141389,34.15363889,청산도·대모도,청산도 코바위,"조개껍질, 펄, 모래",18.8~21,전라남도 완도군,1,DT_0027,완도
560,126.9083611,34.151,청산도·대모도,청산도 노랑바위,펄,8.2~10.3,전라남도 완도군,1,DT_0027,완도
561,126.9000556,34.156,청산도·대모도,청산도 장기미 해변길 갯바위,"조개껍질, 모래, 펄",1.7~2.3,전라남도 완도군,1,DT_0027,완도
562,126.8562222,34.15188889,청산도·대모도,침몰선 갯바위 포인트,"펄, 조개껍질",1.7~2.3,전라남도 완도군,1,DT_0027,완도
563,127.1155,34.48944444,거금도,금진리 철탑 부근 선창,펄,5.1~6,전라남도 고흥군,1,DT_0026,고흥발포
564,127.2372222,34.47416667,거금도,주이정(주름목) 부근 갯바위,펄,6~10,전라남도 고흥군,1,DT_0026,고흥발포
565,127.1626111,34.42897222,거금도,금장 끝바리,펄,1.2~2.8,전라남도 고흥군,1,DT_0026,고흥발포
566,127.1435278,34.42255556,거금도,공고지 갯바위,펄,3.5~6.4,전라남도 고흥군,1,DT_0026,고흥발포
567,127.1251944,34.43152778,거금도,옥룡마을 갯바위,펄,1.5~2.3,전라남도 고흥군,1,DT_0026,고흥발포
568,127.1021389,34.44161111,거금도,우두마을 곶부리,펄,2~3.5,전라남도 고흥군,1,DT_0026,고흥발포
569,127.09325,34.47075,거금도,배천마을 곶부리,펄,1.6~2.3,전라남도 고흥군,1,DT_0026,고흥발포
570,127.1083889,34.47541667,거금도,선촌항 부근 갯바위,펄,1.1~1.9,전라남도 고흥군,1,DT_0026,고흥발포
571,126.9153056,33.98861111,여서도·거문도,여서도 등대 부근 갯바위,"펄, 모래, 조개껍질",4.7~6,전라남도 완도군,1,DT_0031,거문도
572,127.2799167,34.06022222,여서도·거문도,거문도 코바위,"모래, 자갈",14 ~ 16,전라남도 여수시,1,DT_0031,거문도
573,127.2923889,34.06327778,여서도·거문도,거문도 녹산곶 등대 부근,"침니, 모래",13.1 ~ 15.3,전라남도 여수시,1,DT_0031,거문도
574,127.3230278,34.00641667,여서도·거문도,거문도 배치바위 부근,바위,16~20,전라남도 여수시,1,DT_0031,거문도
575,127.3211111,34.00705556,여서도·거문도,거문도 선바위 부근,펄,9~14,전라남도 여수시,1,DT_0031,거문도
576,127.2949722,34.015,여서도·거문도,거문도 대매지끝(용무늬 절벽),"침니, 모래",6~13.1,전라남도 여수시,1,DT_0031,거문도
577,127.2826111,34.03486111,여서도·거문도,거문도 송곡단 부근 갯바위,"침니, 모래",7~8.1,전라남도 여수시,1,DT_0031,거문도
578,127.2758889,34.05286111,여서도·거문도,거문도 취곶 부근 갯바위,"침니, 모래",3.7~5.1,전라남도 여수시,1,DT_0031,거문도
579,127.3158611,34.05847222,여서도·거문도,거문도 대린포 갯바위,"자갈, 모래",5~6.2,전라남도 여수시,1,DT_0031,거문도
580,127.3258056,34.05513889,여서도·거문도,거문도 칼바위,"침니, 모래",6.6~8.1,전라남도 여수시,1,DT_0031,거문도
581,127.3276111,34.0485,여서도·거문도,거문도 산굴산 부근 갯바위,"자갈, 조개껍질",15.1~16.3,전라남도 여수시,1,DT_0031,거문도
582,127.4536944,34.54369444,나로도,내나로도 구룡마을 갯바위,펄,1.5~2.4,전라남도 고흥군,1,DT_0026,고흥발포
583,127.4669722,34.52358333,나로도,내나로도 덕흥해수욕장 갯바위,펄,2~3.4,전라남도 고흥군,1,DT_0026,고흥발포
584,127.4900556,34.50833333,나로도,내나로도 고막포 부근 갯바위,바위,4.8~5,전라남도 고흥군,1,DT_0026,고흥발포
585,127.5068333,34.47461111,나로도,내나로도 등대 밑 갯바위,펄,7~9,전라남도 고흥군,1,DT_0026,고흥발포
586,127.4567222,34.47594444,나로도,외나로도 나로대교 철탑 부근,바위,1.5~2.1,전라남도 고흥군,1,DT_0026,고흥발포
587,127.5064167,34.47116667,나로도,외나로도 창포골 갯바위,펄,8~10,전라남도 고흥군,1,DT_0026,고흥발포
588,127.5013333,34.41572222,나로도,외나로도 부채바위,펄,5.4~6,전라남도 고흥군,1,DT_0026,고흥발포
589,127.4915278,34.41216667,나로도,외나로도 노랑바위,바위,12.3~14,전라남도 고흥군,1,DT_0026,고흥발포
590,127.7251111,34.54938889,금오도·안도,금오도 송고마을 갯바위,펄,4.7~8,전라남도 여수시,1,DT_0016,여수
591,127.7699722,34.53163889,금오도·안도,금오도 소유마을 갯바위,펄,3.5~4.2,전라남도 여수시,1,DT_0016,여수
592,127.7531389,34.50163889,금오도·안도,금오도 학동마을 이장바위,펄,2~2.3,전라남도 여수시,1,DT_0016,여수
593,127.7349444,34.50375,금오도·안도,금오도 매봉산 직벽,펄,28~30,전라남도 여수시,1,DT_0016,여수
594,127.7088611,34.53180556,금오도·안도,금오도 야외음악당 부근,펄,7.5~9,전라남도 여수시,1,DT_0016,여수
595,127.69725,34.53822222,금오도·안도,금오도 용두 갯바위,펄,17~19,전라남도 여수시,1,DT_0016,여수
596,127.8181667,34.49705556,금오도·안도,안도 동고지 해안갯바위,펄,5~7,전라남도 여수시,1,DT_0016,여수
597,127.8249722,34.48447222,금오도·안도,안도 칼바위,펄,4.7~5.2,전라남도 여수시,1,DT_0016,여수
598,127.8210556,34.47616667,금오도·안도,안도 벼락바위,바위,3.3~4,전라남도 여수시,1,DT_0016,여수
599,127.8023889,34.47183333,금오도·안도,안도 철탑 아래 갯바위,바위,5.3~6,전라남도 여수시,1,DT_0016,여수
600,127.7965556,34.48244444,금오도·안도,안도 서고지 북쪽 제방 끝,펄,3.1~5,전라남도 여수시,1,DT_0016,여수
601,128.2063056,34.85905556,사량도,상사량도 술미도,펄,8~10,경상남도 통영시,1,DT_0014,통영
602,128.2249722,34.84352778,사량도,상사량도 진촌항 수협 앞 선창,"자갈, 조개껍질",7.2~10.1,경상남도 통영시,1,DT_0014,통영
603,128.1896944,34.82672222,사량도,상사량도 염소자리,자갈,7~8,경상남도 통영시,1,DT_0014,통영
604,128.1828889,34.82722222,사량도,상사량도 한탄여 부근,"자갈, 조개껍질",7~9,경상남도 통영시,1,DT_0014,통영
605,128.1799167,34.83147222,사량도,상사량도 돈지마을 남쪽 곶부리,"자갈, 조개껍질",4~5.2,경상남도 통영시,1,DT_0014,통영
606,128.1784167,34.83613889,사량도,상사량도 돈지항 부근 갯바위,"조개껍질, 펄",7.5~10,경상남도 통영시,1,DT_0014,통영
607,128.1678056,34.84277778,사량도,상사량도 옥바위 부근,"펄, 모래",6.5~8.1,경상남도 통영시,1,DT_0014,통영
608,128.2417778,34.83505556,사량도,하사량도 동포 해안도로 제방,펄,2.1~3,경상남도 통영시,1,DT_0014,통영
609,128.2412778,34.79525,사량도,하사량도 레이더기지 부근 갯바위,펄,4.8~6.3,경상남도 통영시,1,DT_0014,통영
610,128.2269444,34.80058333,사량도,하사량도 말목섬 부근,"조개껍질, 모래, 펄",2.8~3.6,경상남도 통영시,1,DT_0014,통영
611,128.2167222,34.80819444,사량도,하사량도 은포마을 갯바위,펄,5.9~6.3,경상남도 통영시,1,DT_0014,통영
612,128.2003611,34.81983333,사량도,하사량도 모자섬 부근,펄,2.7~3.5,경상남도 통영시,1,DT_0014,통영
613,128.234,34.65258333,욕지도,대송끝 곶부리,"펄, 모래, 조개껍질",2.8~4,경상남도 통영시,1,DT_0014,통영
614,128.2425556,34.65244444,욕지도,목가동섬,"펄, 모래, 조개껍질",2.2~3.3,경상남도 통영시,1,DT_0014,통영
615,128.2649444,34.64616667,욕지도,모개도 부근 갯바위,"펄, 모래",7.2~10.1,경상남도 통영시,1,DT_0014,통영
616,128.2799722,34.63480556,욕지도,야포마을 갯바위,펄,1.1~1.5,경상남도 통영시,1,DT_0014,통영
617,128.2988611,34.63933333,욕지도,통곶지비 부근 갯바위,펄,3.1~5,경상남도 통영시,1,DT_0014,통영
618,128.2878889,34.62208333,욕지도,노적마을 쇠고락 갯바위,바위,4~5,경상남도 통영시,1,DT_0014,통영
619,128.2726389,34.62144444,욕지도,낮은목 부근 갯바위,바위,6~7.7,경상남도 통영시,1,DT_0014,통영
620,128.2561111,34.62111111,욕지도,삼여(뽕나무강정) 부근 갯바위,바위,7~8,경상남도 통영시,1,DT_0014,통영
621,128.2415,34.61186111,욕지도,양판구미 일대,펄,12~15,경상남도 통영시,1,DT_0014,통영
622,128.2355278,34.62875,욕지도,고래바위 끝바리,펄,1.2~2,경상남도 통영시,1,DT_0014,통영
623,128.2287222,34.63183333,욕지도,총바위 부근,펄,7.1~7.6,경상남도 통영시,1,DT_0014,통영
624,128.3721667,34.83036111,미륵도,대양화 제방,펄,1.1~1.5,경상남도 통영시,1,DT_0014,통영
625,128.4410833,34.82625,미륵도,진송말 부근 갯바위,바위,2.8~3.5,경상남도 통영시,1,DT_0014,통영
626,128.4415,34.80297222,미륵도,이운항 동쪽 해안 갯바위,펄,1.7~2.2,경상남도 통영시,1,DT_0014,통영
627,128.4342778,34.78269444,미륵도,매암말 부근 갯바위,바위,3.5~4.1,경상남도 통영시,1,DT_0014,통영
628,128.3643333,34.79666667,미륵도,수암말(에름바우) 부근,펄,1.2~1.5,경상남도 통영시,1,DT_0014,통영
629,128.3355556,34.81825,미륵도,풍화리 남서측 곶부리,펄,1.9~2.6,경상남도 통영시,1,DT_0014,통영
630,128.4695556,34.73141667,비진도·매물도,비진도 동북쪽 곶부리,"펄, 조개껍질",3.2~5,경상남도 통영시,1,DT_0014,통영
631,128.4670278,34.72355556,비진도·매물도,비진도 비둘기강정 부근 갯바위,"펄, 조개껍질",3.6~5.3,경상남도 통영시,1,DT_0014,통영
632,128.4674167,34.70833334,비진도·매물도,비진도 상투바위,"펄, 조개껍질",8~10,경상남도 통영시,1,DT_0014,통영
633,128.4523611,34.7045,비진도·매물도,비진도 노루여 들머리 부근,펄,7.5~8.2,경상남도 통영시,1,DT_0014,통영
634,128.4474444,34.70941667,비진도·매물도,비진도 설품단 부근 갯바위,펄,2.5~5.8,경상남도 통영시,1,DT_0014,통영
635,128.5854167,34.64011111,비진도·매물도,대매물도 동섬치,"펄, 모래",2.6~4.7,경상남도 통영시,1,DT_0014,통영
636,128.5705833,34.63361111,비진도·매물도,대매물도 수리바위,"펄, 모래",1.4~2.1,경상남도 통영시,1,DT_0014,통영
637,128.5656944,34.63269444,비진도·매물도,대매물도 촛대바위 부근,펄,5.1~5.8,경상남도 통영시,1,DT_0014,통영
638,128.5581389,34.63516667,비진도·매물도,대매물도 설풍자리,"펄, 조개껍질",5~5.6,경상남도 통영시,1,DT_0014,통영
639,128.569,34.64041667,비진도·매물도,매물도 대항 선창,"펄, 조개껍질",3.1~4.2,경상남도 통영시,1,DT_0014,통영
640,128.5467778,34.62369444,비진도·매물도,소매물도 남쪽 취끝,"펄, 조개껍질",3.4~4.1,경상남도 통영시,1,DT_0014,통영
641,128.54575,34.62886111,비진도·매물도,소매물도 마을 서측 갯바위,"펄, 조개껍질",2.6~3.5,경상남도 통영시,1,DT_0014,통영
642,128.7152778,34.95875,거제도 북동부,흥남해수욕장 몽돌밭,펄,1.1~1.9,경상남도 거제시,1,DT_0029,거제도
643,128.7200556,34.91055556,거제도 북동부,덕포 초소밑 갯바위,바위,1.5~2,경상남도 거제시,1,DT_0029,거제도
644,128.7507778,34.89408333,거제도 북동부,양지암 북바위,펄,3.2~4,경상남도 거제시,1,DT_0029,거제도
645,128.7392778,34.86563889,거제도 북동부,장승포 나래바위,펄,2.4~3.1,경상남도 거제시,1,DT_0029,거제도
646,128.5847222,34.72297222,거제도 남부,근포마을 곶부리,바위,2.9~3.7,경상남도 거제시,1,DT_0029,거제도
647,128.5756111,34.70694444,거제도 남부,대포 계단바위,펄,10~16,경상남도 거제시,1,DT_0029,거제도
648,128.6162222,34.70613889,거제도 남부,오포 흑산태,조개껍질,5.2~6,경상남도 거제시,1,DT_0029,거제도
649,128.6248056,34.71369444,거제도 남부,여차항 몽돌해수욕장 갯바위,조개껍질,3.3~5.1,경상남도 거제시,1,DT_0029,거제도
650,128.6358333,34.70933333,거제도 남부,여차 남쪽끝 갯바위,바위,8.5~10,경상남도 거제시,1,DT_0029,거제도
651,128.6513889,34.73452778,거제도 남부,함목해수욕장 갯바위,가는 모래,23~25,경상남도 거제시,1,DT_0029,거제도
652,128.6812778,34.73716667,거제도 남부,해금강 도세치 끝,가는 모래,3.3~4,경상남도 거제시,1,DT_0029,거제도
653,128.6439444,34.75669444,거제도 남부,오지막 해안 끝바리,펄,6.8~7.3,경상남도 거제시,1,DT_0029,거제도
654,128.6387778,34.76883333,거제도 남부,학동 용바위,펄,1.7~2.2,경상남도 거제시,1,DT_0029,거제도
655,128.6688056,34.80577778,거제도 남부,망치마을 곶부리,펄,2~3.2,경상남도 거제시,1,DT_0029,거제도
656,128.6920556,34.80325,거제도 남부,구조라해수욕장 호안로 갯바위,펄,1.6~2,경상남도 거제시,1,DT_0029,거제도
657,128.71475,34.79983333,거제도 남부,예구마을 제방 끝 갯바위,펄,1~1.4,경상남도 거제시,1,DT_0029,거제도
658,128.7404444,34.79038889,거제도 남부,서이말 갯바위 일대,펄,2.9~6.1,경상남도 거제시,1,DT_0029,거제도
659,125.7258611,37.61311111,연평도,시노도 갯바위,모래,0~6.3,인천광역시 옹진군,1,IE_0062,웅진소청초
660,125.7194722,37.60438889,연평도,얼굴바위 앞,암,1.5~2.4,인천광역시 옹진군,1,IE_0062,웅진소청초
661,125.7065278,37.60516667,연평도,감마금뿌리,암,1.5~2.0,인천광역시 옹진군,1,IE_0062,웅진소청초
662,125.6828889,37.63961111,연평도,구지도 북측 갯바위,암,1.2~5.0,인천광역시 옹진군,1,IE_0062,웅진소청초
663,125.6835556,37.66388889,연평도,금능해수욕장 남측 갯바위,암,-0.8~0.4,인천광역시 옹진군,1,IE_0062,웅진소청초
664,125.7049722,37.64144444,연평도,검은서,펄,0~0.5,인천광역시 옹진군,1,IE_0062,웅진소청초
665,125.7176667,37.64411111,연평도,모이도 갯바위,암,0.2~0.9,인천광역시 옹진군,1,IE_0062,웅진소청초
666,126.3343056,37.65002778,석모도,민머루해수욕장 앞 갯바위,"펄, 모래",0~2.0,인천광역시 강화군,1,DT_0032,강화대교
667,126.2883333,37.74083333,석모도,하리낚시터 북측,펄,-3.2~-0.2,인천광역시 강화군,1,DT_0032,강화대교
668,126.3255556,37.7085,석모도,섬돌모루,펄,-0.8~2.5,인천광역시 강화군,1,DT_0032,강화대교
669,126.4145833,37.5365,시도,시모도 연육교,펄,-3.7~-4.5,인천광역시 옹진군,1,IE_0062,웅진소청초
670,126.4079722,37.52633333,시도,조각공원 동측 갯바위,펄,-1.7~-1.5,인천광역시 옹진군,1,IE_0062,웅진소청초
671,126.4043611,37.52844444,시도,조각공원 서측 갯바위,펄,-1.7~-1.5,인천광역시 옹진군,1,IE_0062,웅진소청초
672,126.4017222,37.53055556,시도,조각공원 북측 갯바위,"자갈, 모래",0.6~3.3,인천광역시 옹진군,1,IE_0062,웅진소청초
673,126.4273889,37.54586111,시도,수기해변 서측 갯바위,펄,-2.6~-2.1,인천광역시 옹진군,1,IE_0062,웅진소청초
674,126.438,37.54605556,시도,수기해변 동측 갯바위,펄,-0.5~-0.1,인천광역시 옹진군,1,IE_0062,웅진소청초
675,126.4726389,37.53463889,시도,신도 동측 끝단 갯바위,"펄, 모래",-4.7~-1.3,인천광역시 옹진군,1,IE_0062,웅진소청초
676,126.4666944,37.51113889,시도,신도 남측 끝단 갯바위,펄,-3.2~-2.8,인천광역시 옹진군,1,IE_0062,웅진소청초
677,126.4726389,37.49869444,영종도·용유도,삼목수문,펄,-2.9~2.1,인천광역시 중구,1,DT_0044,영종대교
678,126.4401944,37.49833333,영종도·용유도,모래 채집장,펄,-1.3~2.0,인천광역시 중구,1,DT_0044,영종대교
679,126.3613889,37.45736111,영종도·용유도,왕산 갯바위,펄,-2.4~-1.1,인천광역시 중구,1,DT_0044,영종대교
680,126.3651667,37.44394444,영종도·용유도,을왕리 갯바위,펄,-1.7~0.1,인천광역시 중구,1,DT_0044,영종대교
681,126.38125,37.43558333,영종도·용유도,선녀바위,펄,-0.5~-0.2,인천광역시 중구,1,DT_0044,영종대교
682,126.4146667,37.42038889,영종도·용유도,잠진도 연육교,바위,-0.5~-0.8,인천광역시 중구,1,DT_0044,영종대교
683,126.435,37.42197222,영종도·용유도,영종도 남측수문,펄,-0.5~-0.8,인천광역시 중구,1,DT_0044,영종대교
684,126.4425278,37.42105556,영종도·용유도,영종도 남측제방 초소,펄,-3.1~-0.5,인천광역시 중구,1,DT_0044,영종대교
685,126.4081111,37.41236111,무의도,무의도 곶부리,"모래, 펄",-2.0~0.3,인천광역시 중구,1,DT_0001,인천
686,126.3940833,37.40083333,무의도,실미도해변 갯바위,"모래, 펄",-2.5~-1.0,인천광역시 중구,1,DT_0001,인천
687,126.3891944,37.40261111,무의도,실미도북서측 갯바위,"모래, 펄",-2.5~0.4,인천광역시 중구,1,DT_0001,인천
688,126.4428611,37.37458333,무의도,때무리 동측 갯바위,"펄, 모래",0.1~2.5,인천광역시 중구,1,DT_0001,인천
689,126.3233611,36.59891667,안면도 북부,연육교,펄,-2.3~-3.3,충청남도 태안군,1,DT_0050,태안
690,126.3251389,36.50933333,안면도 북부,방포해변 북측 갯바위,암,1.1~1.4,충청남도 태안군,1,DT_0050,태안
691,126.3310556,36.5015,안면도 북부,할미할아비 바위,"모래, 펄",-3.5~-3.7,충청남도 태안군,1,DT_0050,태안
692,126.3751944,36.59688889,안면도 북부,황도 연육교 아래,펄,-6.2~-2.8,충청남도 태안군,1,DT_0050,태안
693,126.33375,36.44316667,안면도 남 부,샛별 해수욕장 남측 갯바위,암,0.4~0.9,충청남도 태안군,1,DT_0050,태안
694,126.3323333,36.43805556,안면도 남 부,망재,"모래, 펄",0.4~0.9,충청남도 태안군,1,DT_0050,태안
695,126.33625,36.43916667,안면도 남 부,망재 곶부리,"모래, 펄",0.4~0.9,충청남도 태안군,1,DT_0050,태안
696,126.3514722,36.42552778,안면도 남 부,운여 해변 남측 갯바위,"모래, 펄",0.4~0.9,충청남도 태안군,1,DT_0050,태안
697,126.36225,36.41552778,안면도 남 부,장삼포 해변 남측 갯바위,"모래, 펄",0.4~0.9,충청남도 태안군,1,DT_0050,태안
698,126.3700278,36.41227778,안면도 남 부,장곳 갯바위,모래,0.4~0.9,충청남도 태안군,1,DT_0050,태안
699,126.4349167,36.46413889,안면도 남 부,사도 갯바위,암,0.6~1.5,충청남도 태안군,1,DT_0050,태안
700,126.4309444,36.39805556,안면도 남 부,소도 갯바위,모래,0.3~1.8,충청남도 보령시,1,DT_0025,보령
701,126.4363611,36.40516667,안면도 남 부,추도 갯바위,암,0.1~0.9,충청남도 보령시,1,DT_0025,보령
702,126.0874167,36.68066667,가의도,코끼리 바위 남측 갯바위,암,1.8~2.0,충청남도 태안군,1,DT_0050,태안
703,126.0814722,36.67240833,가의도,동남측 첫번째 곶부리,암,2.2~5.0,충청남도 태안군,1,DT_0050,태안
704,126.0745833,36.67027778,가의도,동남측 두번째 곶부리,암,2.4~2.5,충청남도 태안군,1,DT_0050,태안
705,126.0715278,36.67308333,가의도,작은 마을 동측 안통,암,2.4~5.0,충청남도 태안군,1,DT_0050,태안
706,126.0546667,36.66797222,가의도,남측 해변 동측 갯바위,암,2.8~4.1,충청남도 태안군,1,DT_0050,태안
707,126.0508611,36.66797222,가의도,남측 끝단 갯바위,암,2.8~3.1,충청남도 태안군,1,DT_0050,태안
708,126.0481389,36.67197222,가의도,서측 끝단 갯바위,"펄, 모래",3.1~7.2,충청남도 태안군,1,DT_0050,태안
709,126.0804722,36.68863889,가의도,북측 갯바위,"펄, 모래",2.1~7.0,충청남도 태안군,1,DT_0050,태안
710,126.0825556,36.69202778,가의도,북측 끝단 갯바위,"펄, 모래",4.0~7.0,충청남도 태안군,1,DT_0050,태안
711,126.0864444,36.69019444,가의도,북측 해변 옆 갯바위,암,0.4~3.1,충청남도 태안군,1,DT_0050,태안
712,126.0896389,36.68252778,가의도,코끼리 바위,암,1.3~2.4,충청남도 태안군,1,DT_0050,태안
713,126.5520278,36.03302778,개야도,발전소 아래 갯바위,"모래, 펄",1.7~1.4,전라북도 군산시,1,DT_0018,군산
714,126.5584167,36.02625,개야도,작은여 등대 갯바위,"모래, 펄",1.3~4.3,전라북도 군산시,1,DT_0018,군산
715,126.5477778,36.03436111,개야도,작은철탑부근 묘지 아래 갯바위,"모래, 펄",1.4~2.0,전라북도 군산시,1,DT_0018,군산
716,126.5388056,36.03708333,개야도,사수건 철탑 갯바위,"모래, 펄",1.2~2.0,전라북도 군산시,1,DT_0018,군산
717,126.5344444,36.03491667,개야도,개야 사수건 등대,"모래, 펄",2.0~4.0,전라북도 군산시,1,DT_0018,군산
718,126.5309167,36.03608333,개야도,죽도 동측 갯바위,암,1.2~1.5,전라북도 군산시,1,DT_0018,군산
719,126.5225556,36.03430556,개야도,치도 남측 갯바위,"모래, 펄",1.9~4.4,전라북도 군산시,1,DT_0018,군산
720,126.5137222,36.03591667,개야도,에게이 등대 남측 갯바위,"모래, 펄",1.3~1.7,전라북도 군산시,1,DT_0018,군산
721,126.5130833,36.03641667,개야도,에게이 서측 갯바위,"모래, 펄",1.3~1.7,전라북도 군산시,1,DT_0018,군산
722,126.5254167,36.03938889,개야도,치섬 북측 갯바위,"모래, 펄",1.2~2.0,전라북도 군산시,1,DT_0018,군산
723,126.5226667,36.03580556,개야도,죽도 서측 갯바위,"모래, 펄",0~1.9,전라북도 군산시,1,DT_0018,군산
724,126.52875,36.04152778,개야도,죽도 북측 등대 부근 갯바위,"모래, 펄",0~2.3,전라북도 군산시,1,DT_0018,군산
725,126.5406944,36.03833333,개야도,작은 철탑 북측 갯바위,암,0~0.4,전라북도 군산시,1,DT_0018,군산
726,126.5435556,36.04255556,개야도,장골 갯바위,암,-0.2~-0.3,전라북도 군산시,1,DT_0018,군산
727,126.5442778,36.045,개야도,장골 북측 갯바위,암,-0.3~-0.9,전라북도 군산시,1,DT_0018,군산
728,126.5396111,36.04505556,개야도,장구섬 서측 갯바위,암,0~1.0,전라북도 군산시,1,DT_0018,군산
729,126.5421111,36.05251667,개야도,안청강여 등대 갯바위,암,0~1.8,전라북도 군산시,1,DT_0018,군산
730,126.0123611,35.33977778,안마도·석만도,긴 둑 밑 갯바위,"펄, 모래",1.2~1.5,전라남도 영광군,1,DT_0003,영광
731,126.014,35.33175,안마도·석만도,문 끝 갯바위,암,1.9~3.3,전라남도 영광군,1,DT_0003,영광
732,126.0214444,35.33608333,안마도·석만도,쌀썩은여 갯바위,암,0.1~0.3,전라남도 영광군,1,DT_0003,영광
733,126.0307222,35.33494444,안마도·석만도,쌀썩은여 좌측부근 갯바위,펄,0.4~5.3,전라남도 영광군,1,DT_0003,영광
734,126.0415,35.34680556,안마도·석만도,노랑여(옛멸터) 부근,펄,3.8~5.2,전라남도 영광군,1,DT_0003,영광
735,126.06,35.36244444,안마도·석만도,똥섬 갯바위,펄,4.8~5.8,전라남도 영광군,1,DT_0003,영광
736,126.06025,35.36477778,안마도·석만도,똥섬 부근 갯바위,펄,2.6~6.0,전라남도 영광군,1,DT_0003,영광
737,126.435,37.42197222,안마도·석만도,나룻방 밑 갯바위,암,2.6~6.0,인천광역시 중구,1,DT_0001,인천
738,126.0575278,35.3725,안마도·석만도,쎄지기 앞 갯바위,암,2.6~6.0,전라남도 영광군,1,DT_0003,영광
739,126.0538333,35.3755,안마도·석만도,우물밑 우측 갯바위,펄,2.6~6.0,전라남도 영광군,1,DT_0003,영광
740,126.0423333,35.37361111,안마도·석만도,우물밑 갯바위,고운모래,5.6~9.4,전라남도 영광군,1,DT_0003,영광
741,126.0412778,35.37072222,안마도·석만도,우물밑 좌측 갯바위,펄,6.2~6.8,전라남도 영광군,1,DT_0003,영광
742,126.0300556,35.35983333,안마도·석만도,철탑 밑 갯바위,펄,4.1~9.5,전라남도 영광군,1,DT_0003,영광
743,126.0208611,35.36413889,안마도·석만도,논골 끝 갯바위,"자갈, 조개껍질",6.4~8.0,전라남도 영광군,1,DT_0003,영광
744,126.0070278,35.36041667,안마도·석만도,장재여 부근 갯바위,암,13.9~14.0,전라남도 영광군,1,DT_0003,영광
745,125.996,35.3567,안마도·석만도,근여 부근 갯바위,"펄, 모래",6.8~17.0,전라남도 영광군,1,DT_0003,영광
746,126.1529167,35.28325,송이도,검은바위 갯바위,암,1.4~1.5,전라남도 영광군,1,DT_0003,영광
747,126.1517222,35.28886111,송이도,양골앞 갯바위,암,1.5~2.5,전라남도 영광군,1,DT_0003,영광
748,126.1388611,35.29275,송이도,큰내기 좌측 갯바위,암,0~2.0,전라남도 영광군,1,DT_0003,영광
749,126.14025,35.29516667,송이도,큰내기 우측 갯바위,암,0~2.0,전라남도 영광군,1,DT_0003,영광
750,126.1411111,35.3,송이도,큰매리 갯바위,암,2.0~5.0,전라남도 영광군,1,DT_0003,영광
751,126.1420556,35.27780556,송이도,이미 앞바다,펄,-0.4~-0.2,전라남도 영광군,1,DT_0003,영광
752,126.1443056,35.27027778,송이도,민머리,펄,-0.4~0.4,전라남도 영광군,1,DT_0003,영광
753,126.1636667,35.14516667,임자도·사옥도,삼봉끝 등대,암,0.1~5.3,전라남도 신안군,1,DT_0028,진도
754,126.1016389,35.13113889,임자도·사옥도,어유미도,모래,1.4~5.0,전라남도 신안군,1,DT_0028,진도
755,126.1233056,35.07661111,임자도·사옥도,광산리 서측끝단,펄,2.1~5.1,전라남도 신안군,1,DT_0028,진도
756,126.0581111,35.05694444,임자도·사옥도,임자도 남서측 곶부리,모래,0.8~2.9,전라남도 신안군,1,DT_0028,진도
757,126.0769167,35.05330556,임자도·사옥도,옥섬,모래,0.1~0.9,전라남도 신안군,1,DT_0028,진도
758,126.0851667,35.05219444,임자도·사옥도,대중끝,모래,0.2~0.3,전라남도 신안군,1,DT_0028,진도
759,126.0953889,35.04797222,임자도·사옥도,딴섬 부근,암,0.9~2.0,전라남도 신안군,1,DT_0028,진도
760,126.1065556,35.05141667,임자도·사옥도,대두끝 갯바위,암,1.7~3.6,전라남도 신안군,1,DT_0028,진도
761,126.1260556,35.03752778,임자도·사옥도,외교도 등대포인트,암,0.6~2.0,전라남도 신안군,1,DT_0028,진도
762,126.0581111,35.05694444,임자도·사옥도,고동섬 갯바위,암,0.5~2.0,전라남도 신안군,1,DT_0028,진도
763,126.0581111,35.05694444,임자도·사옥도,고래미,암,2.0~2.8,전라남도 신안군,1,DT_0028,진도
764,126.1687222,35.02602778,임자도·사옥도,증도대교 북단,암,2.8~5.0,전라남도 신안군,1,DT_0028,진도
765,126.2959444,34.9294,고이도·매화도·선도·증도,대식도 갯바위,모래,0.4~1.9,전라남도 신안군,1,DT_0028,진도
766,126.276,34.927,고이도·매화도·선도·증도,소정섬 포인트,자갈,0.4~1.9,전라남도 신안군,1,DT_0028,진도
767,126.2521389,34.96152778,고이도·매화도·선도·증도,삼섬 포인트,"펄, 모래",1.6~2.3,전라남도 신안군,1,DT_0028,진도
768,126.2735833,34.97030556,고이도·매화도·선도·증도,고이도 북측 끝단여,"펄, 모래",0~2.0,전라남도 신안군,1,DT_0028,진도
769,126.288,34.96344444,고이도·매화도·선도·증도,고이도 서측 철탑밑,"펄, 모래",0.8~1.7,전라남도 신안군,1,DT_0028,진도
770,126.3004722,34.93822222,고이도·매화도·선도·증도,고이도 남측 철탑 밑,모래,0.8~2.7,전라남도 신안군,1,DT_0028,진도
771,126.2125556,34.91852778,고이도·매화도·선도·증도,마당여 갯바위,"모래, 조개껍질",0~2.5,전라남도 신안군,1,DT_0028,진도
772,126.2126667,34.92097222,고이도·매화도·선도·증도,둔벙여 갯바위,"모래, 조개껍질",0~3.6,전라남도 신안군,1,DT_0028,진도
773,126.2098611,34.923,고이도·매화도·선도·증도,침해섬 포인트,"모래, 조개껍질",0~3.5,전라남도 신안군,1,DT_0028,진도
774,126.2493889,34.95255556,고이도·매화도·선도·증도,마산도 선창,"펄, 모래",0~2.9,전라남도 신안군,1,DT_0028,진도
775,126.2468611,35.00622222,고이도·매화도·선도·증도,부사도 갯바위,펄,2.0~6.2,전라남도 신안군,1,DT_0028,진도
776,126.2597222,35.00683333,고이도·매화도·선도·증도,선도북측 선창,펄,0~5.0,전라남도 신안군,1,DT_0028,진도
777,126.1149444,35.01791667,고이도·매화도·선도·증도,나룻구지,"펄, 모래",0.8~1.7,전라남도 신안군,1,DT_0028,진도
778,126.1011389,35.00805556,고이도·매화도·선도·증도,도둑섬 포인트,"펄, 모래",0.1~1.7,전라남도 신안군,1,DT_0028,진도
779,126.0976111,35,고이도·매화도·선도·증도,해저유물 포인트,펄,0~3.8,전라남도 신안군,1,DT_0028,진도
780,126.1070556,34.9935,고이도·매화도·선도·증도,검산항,펄,0.3~1.5,전라남도 신안군,1,DT_0028,진도
781,126.12125,34.99772222,고이도·매화도·선도·증도,오산항,펄,0~1.2,전라남도 신안군,1,DT_0028,진도
782,126.1331389,34.96336111,고이도·매화도·선도·증도,오징어바위,펄,1.1~1.4,전라남도 신안군,1,DT_0028,진도
783,126.1271667,34.95475,고이도·매화도·선도·증도,왕바위,펄,1.7~2.0,전라남도 신안군,1,DT_0028,진도
784,126.1813611,34.99672222,고이도·매화도·선도·증도,염산 선창,펄,0~3.2,전라남도 신안군,1,DT_0028,진도
785,126.12475,35.02388889,고이도·매화도·선도·증도,버지 선창,펄,0~0.3,전라남도 신안군,1,DT_0028,진도
786,126.0655833,34.85680556,자은도,남진 선창,암,0~1.5,전라남도 신안군,1,DT_0028,진도
787,126.0572222,34.93427778,자은도,상장고지단 갯바위,펄,1.8~1.9,전라남도 신안군,1,DT_0028,진도
788,125.9689167,34.87147222,자은도,진서말,"펄, 모래",0~5.0,전라남도 신안군,1,DT_0028,진도
789,126.1219444,34.88127778,암태도,익금해변 갯바위,펄,0.2~0.7,전라남도 신안군,1,DT_0028,진도
790,126.1086389,34.8775,암태도,익금마을 선창,암,0.4~3.4,전라남도 신안군,1,DT_0028,진도
791,126.1184167,34.80058333,암태도,중앙대교 북단,암,0~5.5,전라남도 신안군,1,DT_0028,진도
792,126.3500278,34.8985,압해도,복용리해안 철탑 밑,펄,1.7~2.1,전라남도 신안군,1,DT_0028,진도
793,126.3436389,34.89925,압해도,복용리 해안,펄,0.7~2.1,전라남도 신안군,1,DT_0028,진도
794,126.0876944,34.78702778,안좌도·팔금도,사근마을 곶부리,펄,0~4.1,전라남도 신안군,1,DT_0028,진도
795,126.1321667,34.76763889,안좌도·팔금도,신안교 동단,암,3.9~9.0,전라남도 신안군,1,DT_0028,진도
796,126.14125,34.76097222,안좌도·팔금도,우이산 철탑 아래,"펄, 모래",-1.1~0,전라남도 신안군,1,DT_0028,진도
797,126.12775,34.76661111,안좌도·팔금도,신안교 서단,암,0~1.3,전라남도 신안군,1,DT_0028,진도
798,125.8564722,34.62830556,우이도,달밭밑,암,0.3~3.4,전라남도 신안군,1,DT_0028,진도
799,125.8091944,34.62236111,우이도,성촌,암,5.0~7.6,전라남도 신안군,1,DT_0028,진도
800,125.8030556,34.61788889,우이도,소래등대 밑,암,4.4~5.0,전라남도 신안군,1,DT_0028,진도
801,125.8114444,34.59669444,우이도,큰밭 갯바위,"자갈, 암",10.1~11.2,전라남도 신안군,1,DT_0028,진도
802,125.8620278,34.60580556,우이도,딴목섬 갯바위,펄,9.5~10.0,전라남도 신안군,1,DT_0028,진도
803,125.8598333,34.61125,우이도,선창구미,"펄, 자갈",0.3~0.9,전라남도 신안군,1,DT_0028,진도
804,125.8641667,34.62333333,우이도,가도 북측 갯바위,암,4.4~8.8,전라남도 신안군,1,DT_0028,진도
805,125.8676667,34.61727778,우이도,송도 북측 갯바위,자갈,8.1~8.5,전라남도 신안군,1,DT_0028,진도
806,125.8690556,34.61358333,우이도,송도 남측 갯바위,자갈,1.5~5.4,전라남도 신안군,1,DT_0028,진도
807,126.1551944,34.67230556,장산도,발막금,자갈,0.1~2.0,전라남도 신안군,1,DT_0028,진도
808,126.1885833,34.66155556,장산도,차돌이,암,2.1~5.0,전라남도 신안군,1,DT_0028,진도
809,126.2040833,34.63533333,장산도,진섬 갯바위,자갈,-1.2~-0.9,전라남도 신안군,1,DT_0028,진도
810,126.1271389,34.6145,장산도,소류지,펄,-0.6~2.0,전라남도 신안군,1,DT_0028,진도
811,126.1106944,34.64936111,장산도,가세 섬,"펄, 모래",-1.9~2.9,전라남도 신안군,1,DT_0028,진도
812,126.002,34.64058333,개도·하의도·신의도,개도 서측 갯바위,펄,0~4.0,전라남도 신안군,1,DT_0028,진도
813,126.1026667,34.55519444,개도·하의도·신의도,버러기미,"펄, 암",3.8~5.0,전라남도 신안군,1,DT_0028,진도
814,126.0285833,34.53358333,개도·하의도·신의도,깊은기미,"펄, 모래",0~6.4,전라남도 신안군,1,DT_0028,진도
815,126.0226389,34.56458333,개도·하의도·신의도,파장여,"펄, 자갈",4.3~6.1,전라남도 신안군,1,DT_0028,진도
816,126.0549167,34.60436111,개도·하의도·신의도,거북바위,펄,2.2~5.8,전라남도 신안군,1,DT_0028,진도
817,126.0546667,34.49813889,가사도,가사도 북측 갯바위,암,2.1~4.5,전라남도 진도군,1,DT_0028,진도
818,126.0478611,34.49419444,가사도,채석장 갯바위,암,2.1~3.3,전라남도 진도군,1,DT_0028,진도
819,126.0326389,34.48402778,가사도,작은모래땅 갯바위,암,3.5~8.2,전라남도 진도군,1,DT_0028,진도
820,126.0419722,34.45947222,가사도,항로표지관리소 밑,암,-0.2~1.8,전라남도 진도군,1,DT_0028,진도
821,126.2335833,34.53516667,진도 북부,군내방조제,펄,0~0.6,전라남도 진도군,1,DT_0028,진도
822,126.2675278,34.37952778,진도 남동부,현목항 선창,암,-0.4~0.2,전라남도 진도군,1,DT_0028,진도
823,126.2836389,34.38897222,진도 남동부,접도리 선창,펄,0~0.7,전라남도 진도군,1,DT_0028,진도
824,126.1318611,34.35938889,진도 남서부,백미도 부근 갯바위,암,2.4~3.2,전라남도 진도군,1,DT_0028,진도
825,126.0549,34.3216,상조도·하조도·관매도,당도 안통,암,0~0.2,전라남도 진도군,1,DT_0028,진도
826,126.0266111,34.34261111,상조도·하조도·관매도,상조도 북측 철탑 아래,고운모래,1.4~2.5,전라남도 진도군,1,DT_0028,진도
827,126.0214167,34.35744444,상조도·하조도·관매도,옥도 동쪽 곶부리,"자갈, 모래",1.7~4.6,전라남도 진도군,1,DT_0028,진도
828,126.0149722,34.36038889,상조도·하조도·관매도,옥도 북측 갯바위,"자갈, 모래",3.7~4.1,전라남도 진도군,1,DT_0028,진도
829,125.9957778,34.32663889,상조도·하조도·관매도,상조도 서쪽 둥근바위,"자갈, 모래",4.0~7.8,전라남도 진도군,1,DT_0028,진도
830,126.0390833,34.31902778,상조도·하조도·관매도,조도대교 남단,"자갈, 조개껍질",1.2~4.1,전라남도 진도군,1,DT_0028,진도
831,126.0881667,34.31158333,상조도·하조도·관매도,하조도 등대,암,1.9~5.4,전라남도 진도군,1,DT_0028,진도
832,126.0968056,34.302,상조도·하조도·관매도,흑여(낚시배),암,1.9~5.1,전라남도 진도군,1,DT_0028,진도
833,126.095,34.2755,상조도·하조도·관매도,하조도 매동여(낚시배),"펄, 조개껍질",0.6~2.2,전라남도 진도군,1,DT_0028,진도
834,126.0551389,34.27219444,상조도·하조도·관매도,수옥도 갯바위,"자갈, 조개껍질",0.8~1.6,전라남도 진도군,1,DT_0028,진도
835,126.0158333,34.29202778,상조도·하조도·관매도,하조도 물치끝(낚시배 이용),암,0.1~3.,전라남도 진도군,1,DT_0028,진도
836,126.0269444,34.31222222,상조도·하조도·관매도,명지마을 해안도로,"자갈, 조개껍질",0~0.1,전라남도 진도군,1,DT_0028,진도
837,126.0541111,34.25719444,상조도·하조도·관매도,각흘도 갯바위(낚시배),암,0.2~4.1,전라남도 진도군,1,DT_0028,진도
838,126.0673056,34.23775,상조도·하조도·관매도,장산넘어 어장줄 자리,펄,0.5~3.7,전라남도 진도군,1,DT_0028,진도
839,126.0729722,34.23308333,상조도·하조도·관매도,신의도 갯바위,펄,0.8~5.5,전라남도 진도군,1,DT_0028,진도
840,126.0571667,34.22497222,상조도·하조도·관매도,형제도 앞,펄,2.2~3.2,전라남도 진도군,1,DT_0028,진도
841,126.03675,34.22183333,상조도·하조도·관매도,고치여 하늘다리 주변,자갈,3.6~4.2,전라남도 진도군,1,DT_0028,진도
842,126.0254722,34.23063889,상조도·하조도·관매도,관매도 서측 곶부리,자갈,0.9~3.1,전라남도 진도군,1,DT_0028,진도
843,126.0487222,34.25252778,상조도·하조도·관매도,관매도 해수욕장 갯바위,암,2.7~5.0,전라남도 진도군,1,DT_0028,진도
844,125.1229167,34.04711111,가거도,녹섬 갯바위,펄,1.7~4.6,전라남도 신안군,1,IE_0061,신안가거초
845,125.1186389,34.05119444,가거도,큰여,펄,10.6~16.9,전라남도 신안군,1,IE_0061,신안가거초
846,125.1115278,34.06430556,가거도,오구멍박벌 갯바위,"펄, 모래",1.8~3.3,전라남도 신안군,1,IE_0061,신안가거초
847,125.0951944,34.06319444,가거도,간서 갯바위,암,5.7~13.7,전라남도 신안군,1,IE_0061,신안가거초
848,125.0980556,34.07136111,가거도,목난개 갯바위,암,4.5~7.6,전라남도 신안군,1,IE_0061,신안가거초
849,125.0946389,34.07036111,가거도,대리취,암,9.6~13.3,전라남도 신안군,1,IE_0061,신안가거초
850,125.0880556,34.07308333,가거도,노랑섭날 갯바위,암,3.0~9.7,전라남도 신안군,1,IE_0061,신안가거초
851,125.0835278,34.07538889,가거도,성건여,암,1.3~5.2,전라남도 신안군,1,IE_0061,신안가거초
852,125.0956944,34.08563889,가거도,바둑바위,"펄, 모래",1.0~5.8,전라남도 신안군,1,IE_0061,신안가거초
853,125.098,34.09627778,가거도,칼바위,암,4.0~7.8,전라남도 신안군,1,IE_0061,신안가거초
854,125.1036944,34.09483333,가거도,멍신여,암,2.6~9.4,전라남도 신안군,1,IE_0061,신안가거초
855,125.1115556,34.09177778,가거도,장개다랑 갯바위,암,3.9~4.1,전라남도 신안군,1,IE_0061,신안가거초
856,125.1231111,34.08730556,가거도,빈지박 갯바위,암,2.3~5.0,전라남도 신안군,1,IE_0061,신안가거초
857,125.124,34.0714,가거도,복여,암,4.0~4.1,전라남도 신안군,1,IE_0061,신안가거초
858,125.1386944,34.05855556,가거도,물등개 갯바위,암,4.0~5.0,전라남도 신안군,1,IE_0061,신안가거초
859,125.143,34.05433333,가거도,물성밑 갯바위,암,3.8~4.2,전라남도 신안군,1,IE_0061,신안가거초
860,125.1396944,34.05055556,가거도,거북바위,펄,2.2~5.0,전라남도 신안군,1,IE_0061,신안가거초
861,125.1355556,34.04794444,가거도,큰납닥여,펄,1.4~5.9,전라남도 신안군,1,IE_0061,신안가거초
862,125.09225,34.11436111,가거도,신여,암,7.5~14.2,전라남도 신안군,1,IE_0061,신안가거초
863,125.0828611,34.11736111,가거도,대국흘도 갯바위,암,6.0~11.6,전라남도 신안군,1,IE_0061,신안가거초
864,126.6431944,34.32705556,완도,칠암각 갯바위,"펄, 조개껍질",3.6~4.6,전라남도 완도군,1,DT_0027,완도
865,127.0366111,34.42833333,금당도,육산리 해변,모래,1.2~1.6,전라남도 완도군,1,DT_0027,완도
866,127.0606389,34.39997222,금당도,금당도 목섬 철탑밑,암,0.4~4.2,전라남도 완도군,1,DT_0027,완도
867,127.0845,34.40622222,금당도,비견도엿도,암,4.3~5.8,전라남도 완도군,1,DT_0027,완도
868,127.0514444,34.42972222,금당도,신흥리제방수문,펄,-0.1~0,전라남도 완도군,1,DT_0027,완도
869,127.0339167,34.42113889,금당도,송아지목,암,1.3~4.5,전라남도 완도군,1,DT_0027,완도
870,127.0103333,34.36883333,금일도·생일도,도지항,암,0.9~2.0,전라남도 완도군,1,DT_0027,완도
871,127.0179444,34.33911111,금일도·생일도,신구리 철탑 앞,암,0.9~2.0,전라남도 완도군,1,DT_0027,완도
872,127.0826111,34.35361111,금일도·생일도,용황리 해안,펄,0.9~2.0,전라남도 완도군,1,DT_0027,완도
873,126.9619167,34.30861111,금일도·생일도,금곡 해수욕장 북측 갯바위,"모래, 조개껍질",3.0~3.9,전라남도 완도군,1,DT_0027,완도
874,126.9681944,34.30411111,금일도·생일도,금곡 해수욕장 남측 갯바위,암,4.2~5.0,전라남도 완도군,1,DT_0027,완도
875,127.0140833,34.3195,금일도·생일도,생일도 목섬,암,0.1~1.2,전라남도 완도군,1,DT_0027,완도
876,127.0159444,34.32452778,금일도·생일도,생일도 헬기장 앞,암,1.2~2.0,전라남도 완도군,1,DT_0027,완도
877,127.2432778,34.24777778,초도,막두,"펄, 조개껍질",29.5~37,전라남도 여수시,1,DT_0016,여수
878,127.2565833,34.25169445,초도,수리망태,암,6.7~10.0,전라남도 여수시,1,DT_0016,여수
879,127.2623889,34.24544444,초도,파랑끝,암,7.1~10.0,전라남도 여수시,1,DT_0016,여수
880,127.2622222,34.23888889,초도,딴작부치,암,0.3~1.6,전라남도 여수시,1,DT_0016,여수
881,127.2607222,34.23072222,초도,오밖끝,암,1.6~4.4,전라남도 여수시,1,DT_0016,여수
882,127.2613056,34.21269444,초도,솔거섬,조개껍질,14.1~14.3,전라남도 여수시,1,DT_0016,여수
883,127.2368611,34.21283333,초도,넙데기,조개껍질,6.4~8.4,전라남도 여수시,1,DT_0016,여수
884,127.22225,34.21083333,초도,외항도,펄,9.2~10.0,전라남도 여수시,1,DT_0016,여수
885,127.2245556,34.22319444,초도,내항도,펄,0.1~2.5,전라남도 여수시,1,DT_0016,여수
886,127.2345278,34.23683333,초도,석머리,펄,0~9.0,전라남도 여수시,1,DT_0016,여수
887,127.8075833,34.59675,돌산도,향일암 갯바위,펄,1.8~2.2,전라남도 여수시,1,DT_0016,여수
888,127.8060278,34.66036111,돌산도,계동등대 옆 갯바위,펄,0.6~0.9,전라남도 여수시,1,DT_0016,여수
889,127.7859167,34.69913889,돌산도,월전포 동측 갯바위,펄,0~0.4,전라남도 여수시,1,DT_0016,여수
890,127.8236667,34.81933333,남해도 북부,여계마을 해안 갯바위,암,0.2~1.3,경상남도 남해군,1,DT_0016,여수
891,127.8346111,34.79277778,남해도 북부,서상리 갯바위,암,0.5~1.0,경상남도 남해군,1,DT_0016,여수
892,127.8908889,34.94666667,남해도 북부,수원늘 등대,암,0.0~3.3,경상남도 남해군,1,DT_0016,여수
893,128.0871944,34.82813889,남해도 동부·신수도·창선도,모상개 해수욕장 우측 갯바위,"펄, 조개껍질",1.5~6.7,경상남도 남해군,1,DT_0016,여수
894,128.0777778,34.8435,남해도 동부·신수도·창선도,모상개 돌섬,펄,1.2~4.8,경상남도 남해군,1,DT_0016,여수
895,128.0736667,34.91022222,남해도 동부·신수도·창선도,신수도 북쪽 갯바위,암,0.9~4.3,경상남도 사천시,1,DT_0061,삼천포
896,128.0828333,34.897,남해도 동부·신수도·창선도,잘푸여 갯바위,암,0.5~1.0,경상남도 사천시,1,DT_0061,삼천포
897,128.0805278,34.88936111,남해도 동부·신수도·창선도,신수도 남쪽 갯바위(구 초소),암,0.2~0.6,경상남도 사천시,1,DT_0061,삼천포
898,128.0737778,34.88630556,남해도 동부·신수도·창선도,신수도 남쪽 갯바위,암,1.0~2.7,경상남도 사천시,1,DT_0061,삼천포
899,127.8379167,34.74922222,남해도 남부,유구마을 해안 갯바위,암,0.6~1.6,경상남도 남해군,1,DT_0016,여수
900,127.8776667,34.72430556,남해도 남부,가천 갯바위(레이다기지),펄,13.1~18.4,경상남도 남해군,1,DT_0016,여수
901,127.8994167,34.72597222,남해도 남부,가천 갯바위(다랭이마을),펄,9.8~10.0,경상남도 남해군,1,DT_0016,여수
902,128.1685278,34.70680556,두미도,번자리,펄,3.3~3.4,경상남도 통영시,1,DT_0014,통영
903,128.1683889,34.70261111,두미도,고래등,펄,39,경상남도 통영시,1,DT_0014,통영
904,128.1730278,34.69697222,두미도,염소자리,펄,3.4~5.0,경상남도 통영시,1,DT_0014,통영
905,128.1768333,34.69577778,두미도,의자여,펄,2.0~5.0,경상남도 통영시,1,DT_0014,통영
906,128.1877222,34.69169444,두미도,물내려오는곳,펄,2.0~3.8,경상남도 통영시,1,DT_0014,통영
907,128.1948611,34.68708333,두미도,용머리,펄,0.4~3.0,경상남도 통영시,1,DT_0014,통영
908,128.1991944,34.68994444,두미도,얼굴바위,펄,3.0~5.0,경상남도 통영시,1,DT_0014,통영
909,128.1753333,34.71133333,두미도,등대포인트,펄,3.3~5.0,경상남도 통영시,1,DT_0014,통영
910,128.5133889,34.97641667,칠천도·가조도,계도 어촌 체험 낚시터,펄,3.9~4.6,경상남도 거제시,1,DT_0029,거제도
911,128.5134167,34.96225,칠천도·가조도,창촌마을 북쪽 끝 선창,펄,1.2~2.7,경상남도 거제시,1,DT_0029,거제도
912,128.51425,34.735,한산도·용초도,"용초도 철탑 동측 갯바위 
","펄, 모래",-0.9~1.1,경상남도 통영시,1,DT_0014,통영
913,128.5045,34.73230556,한산도·용초도,"호두마을 뒤등 
","펄, 모래",1.7~2.0,경상남도 통영시,1,DT_0014,통영
914,128.4885556,34.73297222,한산도·용초도,용머리,모래,4.6~6.2,경상남도 통영시,1,DT_0014,통영
915,128.4820231,34.73491667,한산도·용초도,"용두단
",모래,4.6~7.0,경상남도 통영시,1,DT_0014,통영
916,128.4668333,34.73938889,한산도·용초도,"용초 뒤등 갯바위
",모래,3.4~3.7,경상남도 통영시,1,DT_0014,통영
917,130.9202222,37.50163889,울릉도,북저바위 갯바위,암,2.4~3.6,경상북도 울릉군,1,DT_0013,울릉도
918,130.7937222,37.51561111,울릉도,태하 갯바위,암,5.0~9.5,경상북도 울릉군,1,DT_0013,울릉도
919,130.8471389,37.54025,울릉도,코끼리바위 갯바위,암,3.5~5.0,경상북도 울릉군,1,DT_0013,울릉도
920,130.8928611,37.54725,울릉도,딴바위 갯바위,암,3.9~4.6,경상북도 울릉군,1,DT_0013,울릉도
921,130.9084722,37.54938889,울릉도,삼선암 갯바위,암,2.0~3.1,경상북도 울릉군,1,DT_0013,울릉도
922,130.9195278,37.54313889,울릉도,관음도 갯바위,암,2.2~3.3,경상북도 울릉군,1,DT_0013,울릉도
923,126.3343611,33.94480556,추자도,모진 해수욕장,"모래, 자갈",0.8~2.0,제주특별자치도 제주시,1,DT_0004,제주
924,126.3365833,33.95686111,추자도,예초리 해안도로 갯바위,암,0~4.3,제주특별자치도 제주시,1,DT_0004,제주
925,126.3132778,33.95358333,추자도,하추자도 오지박 입구,"펄, 모래",0~2.0,제주특별자치도 제주시,1,DT_0004,제주
926,126.3039444,33.95319444,추자도,추자대교 아래,"펄, 모래",2.0~3.2,제주특별자치도 제주시,1,DT_0004,제주
927,126.2928056,33.96594444,추자도,대서리 갯바위,암,2.8~5.0,제주특별자치도 제주시,1,DT_0004,제주
928,126.2848333,33.96747222,추자도,상추자도 다무레미 앞 갯바위,암,2.7~5.0,제주특별자치도 제주시,1,DT_0004,제주
929,126.2853056,33.96394444,추자도,상추자도 청석 갯바위,암,1.2~2.0,제주특별자치도 제주시,1,DT_0004,제주
930,126.2856944,33.96186111,추자도,상추자도 목개 해안,암,1.8~2.0,제주특별자치도 제주시,1,DT_0004,제주
931,126.3028611,33.95013889,추자도,하추자도 양식장 앞 해안,암,5.4~8.0,제주특별자치도 제주시,1,DT_0004,제주
932,126.3305,33.93016667,추자도,하추자도 남동측 끝단,암,2.1~5.,제주특별자치도 제주시,1,DT_0004,제주
933,126.3281111,33.93516667,추자도,신양리 해안 갯바위,"모래, 조개껍질",1.8~2.0,제주특별자치도 제주시,1,DT_0004,제주
934,126.2120278,33.24205556,제주도 서부·차귀도·비양도,영락리 장원수산 앞 갯바위,"모래, 조개껍질",5.9~8.2,제주특별자치도 서귀포시,1,DT_0010,서귀포
935,126.1953056,33.25080556,제주도 서부·차귀도·비양도,영락리 큰산물 낚시터,"모래, 조개껍질",8.2~9.1,제주특별자치도 서귀포시,1,DT_0010,서귀포
936,126.1861667,33.25702778,제주도 서부·차귀도·비양도,무릉리 해안도로 갯바위,"모래, 조개껍질",5.7~9.1,제주특별자치도 서귀포시,1,DT_0010,서귀포
937,126.1624722,33.29580556,제주도 서부·차귀도·비양도,수월봉 갯바위,"모래, 조개껍질",12~12.8,제주특별자치도 제주시,1,DT_0004,제주
938,126.1667222,33.30088889,제주도 서부·차귀도·비양도,6.수월약수터 앞 갯바위,"모래, 조개껍질",12~12.8,제주특별자치도 제주시,1,DT_0004,제주
939,126.163,33.33680556,제주도 서부·차귀도·비양도,풍력발전소 앞 갯바위,"모래, 조개껍질",0.5~1.2,제주특별자치도 제주시,1,DT_0004,제주
940,126.1535833,33.31144444,제주도 서부·차귀도·비양도,차귀도 등측 갯바위,"모래, 조개껍질",0.5~5.0,제주특별자치도 제주시,1,DT_0004,제주
941,126.2228333,33.40594444,제주도 서부·차귀도·비양도,비양도 초소 밑 갯바위,"모래, 조개껍질",0.9~2.9,제주특별자치도 제주시,1,DT_0004,제주
942,126.2224444,33.40872222,제주도 서부·차귀도·비양도,비양도 코끼리바위 부근 갯바위,"모래, 조개껍질",0.1~0.9,제주특별자치도 제주시,1,DT_0004,제주
943,126.22375,33.41169444,제주도 서부·차귀도·비양도,비양도 북측 큰여,"모래, 조개껍질",0.1~1.6,제주특별자치도 제주시,1,DT_0004,제주
944,126.23175,33.40994444,제주도 서부·차귀도·비양도,비양도 동측 갯바위,"모래, 조개껍질",1.6~2.2,제주특별자치도 제주시,1,DT_0004,제주
945,126.5079722,33.51672222,제주도 북서부,용두암 낚시터,암,0~4.5,제주특별자치도 제주시,1,DT_0004,제주
946,126.5174722,33.51930556,제주도 북서부,라마다호텔 앞 해안도로 좌측,암,1.5~2.0,제주특별자치도 제주시,1,DT_0004,제주
947,126.5240833,33.51861111,제주도 북서부,라마다호텔 앞 해안도로 우측,암,1.1~1.5,제주특별자치도 제주시,1,DT_0004,제주
948,126.7308889,33.56372222,제주도 북부,김녕 목지코지 갯바위,"펄, 모래",3.6~6.5,제주특별자치도 제주시,1,DT_0004,제주
949,126.8515,33.53297222,제주도 북동부·우도,동등 갯바위,암,1.5~10.0,제주특별자치도 제주시,1,DT_0004,제주
950,126.905,33.51055556,제주도 북동부·우도,하도해수욕장 우측 갯바위,암,1.4~2.0,제주특별자치도 제주시,1,DT_0004,제주
951,126.9485833,33.52294444,제주도 북동부·우도,세배코지 갯바위,암,1.1~2.0,제주특별자치도 제주시,1,DT_0004,제주
952,126.9581111,33.52322222,제주도 북동부·우도,우도치안센터 앞,암,0.7~2.0,제주특별자치도 제주시,1,DT_0004,제주
953,126.9620833,33.51722222,제주도 북동부·우도,독진곶 갯바위,암,1.1~2.0,제주특별자치도 제주시,1,DT_0004,제주
954,126.9714142,33.51497379,제주도 북동부·우도,비양도 등대부근,암,0~2.5,제주특별자치도 제주시,1,DT_0004,제주
955,126.9693056,33.49675,제주도 북동부·우도,검멀레해수욕장 좌측갯바위,암,1.4~2.0,제주특별자치도 제주시,1,DT_0004,제주
956,126.964,33.48938889,제주도 북동부·우도,우두곶 갯바위,암,16.7~20.0,제주특별자치도 제주시,1,DT_0004,제주
957,126.9611944,33.49055556,제주도 북동부·우도,우두곶 우측 갯바위,암,2.3~2.4,제주특별자치도 제주시,1,DT_0004,제주
958,126.9290833,33.43461111,제주도 동부,방두곶 좌측 갯바위,암,0.9~4.1,제주특별자치도 서귀포시,1,DT_0010,서귀포
959,126.9347222,33.42694444,제주도 동부,방두곶 흰등대앞 갯바위,암,1.7~5.0,제주특별자치도 서귀포시,1,DT_0010,서귀포
960,126.9320556,33.42336111,제주도 동부,당두곶 우측 갯바위,암,8.0~8.2,제주특별자치도 서귀포시,1,DT_0010,서귀포
961,126.9166944,33.43277778,제주도 동부,신양포구 갯바위,암,0~0.8,제주특별자치도 서귀포시,1,DT_0010,서귀포
962,126.9073889,33.39816667,제주도 동부,여마진개 갯바위,조개껍질,2.0~3.0,제주특별자치도 서귀포시,1,DT_0010,서귀포
963,126.8476667,33.33202778,제주도 동부,표선해비치해수욕장 좌측 갯바위,모래,0.4~2.0,제주특별자치도 서귀포시,1,DT_0010,서귀포
964,126.7311667,33.27825,제주도 남동부,태흥리 갯바위,암,1.9~3.8,제주특별자치도 서귀포시,1,DT_0010,서귀포
965,126.6265833,33.25044444,제주도 남동부,쇠소깍 해수욕장 우측 갯바위,모래,0.1~1.5,제주특별자치도 서귀포시,1,DT_0010,서귀포
966,126.6638889,33.23869444,제주도 남동부,가막코지 갯바위,암,0.2~1.2,제주특별자치도 서귀포시,1,DT_0010,서귀포
967,126.54825,33.23808333,제주도 남부,황우리해안 갯바위,암,0.6~7.9,제주특별자치도 서귀포시,1,DT_0010,서귀포
968,126.4976944,33.23025,제주도 남부,서건도 갯바위,암,2.8~10,제주특별자치도 서귀포시,1,DT_0010,서귀포
969,126.4618333,33.23202778,제주도 남부,세별곶,암,9.6~18.0,제주특별자치도 서귀포시,1,DT_0010,서귀포
970,126.43275,33.23336111,제주도 남부,중문단지 축구장 밑 갯바위,암,10.5~14.6,제주특별자치도 서귀포시,1,DT_0010,서귀포
971,126.3900556,33.23663889,제주도 남부,논짓물 주변,모래,5.0~10.0,제주특별자치도 서귀포시,1,DT_0010,서귀포
972,126.3705,33.2305,제주도 남부,하예마을 서측 갯바위,암,0.2~2.1,제주특별자치도 서귀포시,1,DT_0010,서귀포
973,126.3445,33.23613889,제주도 남서부·가파도·마라도,발전소 앞 갯바위,암,1.2~4.6,제주특별자치도 서귀포시,1,DT_0010,서귀포
974,126.2971389,33.22141667,제주도 남서부·가파도·마라도,사계리 체육공원 갯,모래,1.3~4.3,제주특별자치도 서귀포시,1,DT_0010,서귀포
975,126.2956667,33.21433333,제주도 남서부·가파도·마라도,송악산 낚시터,모래,0.4~2.2,제주특별자치도 서귀포시,1,DT_0010,서귀포
976,126.2916944,33.207,제주도 남서부·가파도·마라도,산이물,자갈,0.4~2.2,제주특별자치도 서귀포시,1,DT_0010,서귀포
977,126.2927222,33.20294444,제주도 남서부·가파도·마라도,송악산 올레길 갯바위,자갈,0.4~2.2,제주특별자치도 서귀포시,1,DT_0010,서귀포
978,126.2800556,33.16713889,제주도 남서부·가파도·마라도,가파도 제단 밑 갯바위,암,0.2~0.5,제주특별자치도 서귀포시,1,DT_0010,서귀포
979,126.2789444,33.1705,제주도 남서부·가파도·마라도,옹짓물 정자 아래 갯바위,암,0.2~2.0,제주특별자치도 서귀포시,1,DT_0010,서귀포
980,126.2635278,33.16919444,제주도 남서부·가파도·마라도,큰아끈여 갯바위,암,0.4~0.6,제주특별자치도 서귀포시,1,DT_0010,서귀포
981,126.26875,33.16497222,제주도 남서부·가파도·마라도,냇골챙이 정자 아래 갯바위,암,0.4~1.5,제주특별자치도 서귀포시,1,DT_0010,서귀포
982,126.2713611,33.16186111,제주도 남서부·가파도·마라도,가파도 남측 갯바위,암,1.5~2.0,제주특별자치도 서귀포시,1,DT_0010,서귀포
983,126.26675,33.12202778,제주도 남서부·가파도·마라도,할망당 아래 갯바위,"모래, 조개껍질",3.3~9.7,제주특별자치도 서귀포시,1,DT_0010,서귀포
984,126.269,33.11241667,제주도 남서부·가파도·마라도,장군바위 부근 갯바위,암,2.5~6.8,제주특별자치도 서귀포시,1,DT_0010,서귀포
985,125.1926322,34.67791694,홍도,흔들바위 상단,암,9.5~10.4,전라남도 신안군,1,DT_0028,진도
986,125.1965253,34.67478778,홍도,방구서 우측 부근,암,3.5~4.7,전라남도 신안군,1,DT_0028,진도
987,125.1926211,34.673615,홍도,방구서 좌측 부근,암,5.9~4.7,전라남도 신안군,1,DT_0028,진도
988,125.1873639,34.67256583,홍도,상금리굴 인근,암,4.1~5.9,전라남도 신안군,1,DT_0028,진도
989,125.1847186,34.66764944,홍도,병풍바위 우측,암,2.9~3.7,전라남도 신안군,1,DT_0028,진도
990,125.1809808,34.66958306,홍도,병풍바위 좌측,암,2.5~4.7,전라남도 신안군,1,DT_0028,진도
991,125.1747975,34.67429306,홍도,상연서 상단,암,3.9~9.4,전라남도 신안군,1,DT_0028,진도
992,125.1813025,34.6745725,홍도,기둥바위 인근,암,1.3~4.5,전라남도 신안군,1,DT_0028,진도
993,125.1783133,34.68285083,홍도,주전자바위 인근,암,12.1~13.5,전라남도 신안군,1,DT_0028,진도
994,125.1810861,34.68681806,홍도,단오도 우측,암,3~9.7,전라남도 신안군,1,DT_0028,진도
995,125.1834264,34.68836639,홍도,도달바위 인근,암,2.9~4.5,전라남도 신안군,1,DT_0028,진도
996,125.1923883,34.69346,홍도,거북바위 인근,암,0.8~1.7,전라남도 신안군,1,DT_0028,진도
997,125.2010672,34.70692111,홍도,탑섬 인근,암,0.3~2.7,전라남도 신안군,1,DT_0028,진도
998,125.1996256,34.71055722,홍도,석화굴 인근,암,1.1~15.2,전라남도 신안군,1,DT_0028,진도
999,125.1966142,34.7201325,홍도,모도 좌측부근,암,2.4~2.7,전라남도 신안군,1,DT_0028,진도
1000,125.2007344,34.72426722,홍도,탑서 우측,암,3.8~5.6,전라남도 신안군,1,DT_0028,진도
1001,125.2034131,34.71829639,홍도,모도 우측 섬 부근,암,0.2~3,전라남도 신안군,1,DT_0028,진도
1002,125.2085594,34.71652861,홍도,독립문 인근,암,3.3~7,전라남도 신안군,1,DT_0028,진도
1003,125.2119314,34.71355667,홍도,수력말과종바위 인근,암,2.5~15.5,전라남도 신안군,1,DT_0028,진도
1004,125.2145211,34.70523111,홍도,슬픈여 부근,암,1.1~4.8,전라남도 신안군,1,DT_0028,진도
1005,125.2125025,34.69913972,홍도,공작새바위 상단,암,0.4~7.5,전라남도 신안군,1,DT_0028,진도
1006,125.2127189,34.69544806,홍도,공작새바위 하단,암,3.6~4.9,전라남도 신안군,1,DT_0028,진도
1007,125.2093525,34.69137583,홍도,홍어굴 부근,암,0.6~2.5,전라남도 신안군,1,DT_0028,진도
1008,125.206125,34.68503611,홍도,홍어굴 하단,암,3.3~3.9,전라남도 신안군,1,DT_0028,진도
1009,125.2024206,34.680565,홍도,노적봉 하단,암,0.6~9.3,전라남도 신안군,1,DT_0028,진도
1010,125.4825364,34.20535139,만재도,남대문 부근,암,8~9.5,전라남도 신안군,1,DT_0028,진도
1011,125.4894367,34.20735306,만재도,국도 상단,암,7~10,전라남도 신안군,1,DT_0028,진도
1012,125.4911311,34.20176306,만재도,방군여 좌측,암,7~19,전라남도 신안군,1,DT_0028,진도
1013,125.4771022,34.20321222,만재도,녹섬 우측,암,13~16,전라남도 신안군,1,DT_0028,진도
1014,125.4743656,34.20498,만재도,치안센터 하단 부근,암,13~16,전라남도 신안군,1,DT_0028,진도
1015,125.4693219,34.20659139,만재도,보건소 하단 부근,암,13~16,전라남도 신안군,1,DT_0028,진도
1016,125.4690606,34.20340444,만재도,만재도 남측 해안,암,16~22,전라남도 신안군,1,DT_0028,진도
1017,125.4655261,34.20615139,만재도,내마도 하단 부근,암,10~16,전라남도 신안군,1,DT_0028,진도
1018,125.4664825,34.21007222,만재도,오동여 부근,암,10~16,전라남도 신안군,1,DT_0028,진도
1019,125.4642817,34.21053972,만재도,내마도상단,암,10.5~14,전라남도 신안군,1,DT_0028,진도
1020,125.4627858,34.2125,만재도,외마도 상단,암,10.5~14,전라남도 신안군,1,DT_0028,진도
1021,125.4721911,34.21463083,만재도,등대 밑 부근,암,10.5~14,전라남도 신안군,1,DT_0028,진도
1022,126.3043247,34.84740583,목포 부근,꼬막섬,펄,-1~-0.2,전라남도 신안군,1,DT_0007,목포
1023,126.3210533,34.86786528,목포 부근,모삼머리들,펄,-2.3~-1.9,전라남도 신안군,1,DT_0007,목포
1024,126.3575481,34.866785,목포 부근,가란도,펄,0.2~0.3,전라남도 신안군,1,DT_0007,목포
1025,126.3668697,34.86222083,목포 부근,솔섬,펄,0.2~0.3,전라남도 신안군,1,DT_0007,목포
1026,126.3670847,34.85756833,목포 부근,삼호제 북측,펄,0.2~0.3,전라남도 신안군,1,DT_0007,목포
1027,126.3866381,34.86061722,목포 부근,우도,펄,0.2~0.3,전라남도 무안군,1,DT_0007,목포
1028,126.4049444,34.84914722,목포 부근,명지식품 해안길,펄,0.2~0.3,전라남도 무안군,1,DT_0007,목포
1029,126.4002206,34.84355778,목포 부근,지중해 카페 북측,펄,0.2~0.3,전라남도 목포시,1,DT_0007,목포
1030,126.3338414,34.81824333,목포 부근,장감길 끝,펄,-4.2~3.9,전라남도 신안군,1,DT_0007,목포
1031,126.3472681,34.8149375,목포 부근,도시촌 길 남측,펄,-0.8~7.3,전라남도 신안군,1,DT_0007,목포
1032,126.3590433,34.81370472,목포 부근,정주도,펄,-3.2~6.6,전라남도 목포시,1,DT_0007,목포
1033,126.3635308,34.69694361,목포 부근,금호바닷가펜션 부근,펄,0.9~1.5,전라남도 해남군,1,DT_0007,목포
1034,126.2749344,34.71733806,화원 부근,월래경로당 앞,펄,-1.2~3,전라남도 해남군,1,DT_0028,진도
1035,126.2424569,34.70074194,화원 부근,시하도,암,-3.1~4.4,전라남도 해남군,1,DT_0028,진도
1036,126.2578156,34.68335556,화원 부근,"마리나공사장 남측
(*화원 마리나 포인트)",펄,0.7~1.5,전라남도 해남군,1,DT_0028,진도
1037,126.2510989,34.67586083,화원 부근,"닭섬
(*화원 마리나 포인트)",암,1.6~3.4,전라남도 해남군,1,DT_0028,진도
1038,126.2528061,34.66846528,화원 부근,고도,암,2.5~3.6,전라남도 해남군,1,DT_0028,진도
1039,126.2525086,34.65347194,화원 부근,우도,암,1.6~2.7,전라남도 해남군,1,DT_0028,진도
1040,126.2679961,34.64547611,화원 부근,석호앞들,펄,-0.4~0.3,전라남도 해남군,1,DT_0028,진도
1041,126.2804283,34.63025389,화원 부근,증도리 북측,펄,-0.1~0.6,전라남도 해남군,1,DT_0028,진도
1042,126.2885322,34.63600333,화원 부근,증도리회관 동측,펄,-0.1~0.6,전라남도 해남군,1,DT_0028,진도
1043,126.2931047,34.63152806,화원 부근,월낭산 서측,펄,-0.1~0.6,전라남도 해남군,1,DT_0028,진도
1044,125.9178861,34.26001389,거차수도 부근,서거차 북쪽 홈통,암,1.8~4.1,전라남도 진도군,1,DT_0028,진도
1045,125.9260161,34.25173722,거차수도 부근,상하죽도 교량 부근,암,0.3~0.9,전라남도 진도군,1,DT_0028,진도
1046,125.923135,34.244175,거차수도 부근,상어여 갯바위,암,0.9~9.2,전라남도 진도군,1,DT_0028,진도
1047,125.935785,34.24713806,거차수도 부근,동거차 둥근섬,암,1.9~2,전라남도 진도군,1,DT_0028,진도
1048,125.9539158,34.24471806,거차수도 부근,동거차 망도,암,2.7~12.8,전라남도 진도군,1,DT_0028,진도
1049,125.9338147,34.23261,거차수도 부근,동거차 해수욕장,암,2.7~5,전라남도 진도군,1,DT_0028,진도
1050,125.9267942,34.23639194,거차수도 부근,동거차 수영장,암,1.9~3.2,전라남도 진도군,1,DT_0028,진도
1051,125.9304203,34.24541944,거차수도 부근,동거차 상송도,암,2~3.4,전라남도 진도군,1,DT_0028,진도
1052,125.8492294,34.22550667,거차수도 부근,죽도 등대 부근,암,3.4~6,전라남도 진도군,1,DT_0028,진도
1053,125.8466383,34.21708917,거차수도 부근,맹골 돔바위,암,1.5~1.9,전라남도 진도군,1,DT_0028,진도
1054,126.0937208,34.277575,독거군도 부근,하조도 매동여,"펄, 조개껍질",0.1~4.1,전라남도 진도군,1,DT_0028,진도
1055,126.0964281,34.27077083,독거군도 부근,죽항 북쪽 철탑 밑,"펄, 조개껍질",1.4~6.9,전라남도 진도군,1,DT_0028,진도
1056,126.1155439,34.25757361,독거군도 부근,죽항 담추서,조개껍질,3.9~8.2,전라남도 진도군,1,DT_0028,진도
1057,126.1100136,34.26118944,독거군도 부근,죽항 남쪽 갯바위,조개껍질,1.5~6.7,전라남도 진도군,1,DT_0028,진도
1058,126.0922639,34.26829667,독거군도 부근,죽항 송도,"자갈, 조개껍질",6.1~8,전라남도 진도군,1,DT_0028,진도
1059,126.1438661,34.26570528,독거군도 부근,슬도 북쪽 넓은자리,암,3.2~5.1,전라남도 진도군,1,DT_0028,진도
1060,126.1503897,34.26623472,독거군도 부근,슬도 북단,암,3.2~4.7,전라남도 진도군,1,DT_0028,진도
1061,126.1557214,34.25975972,독거군도 부근,슬도 선창 갯바위,암,1~4.7,전라남도 진도군,1,DT_0028,진도
1062,126.1556883,34.25411583,독거군도 부근,소슬도,암,1~2.2,전라남도 진도군,1,DT_0028,진도
1063,126.1682722,34.26721056,독거군도 부근,변도,암,7.7~26,전라남도 진도군,1,DT_0028,진도
1064,126.1728669,34.26380139,독거군도 부근,구도 북단,암,10.5~11.7,전라남도 진도군,1,DT_0028,진도
1065,126.1776189,34.261485,독거군도 부근,구도 남단,암,3.3~11.7,전라남도 진도군,1,DT_0028,진도
1066,126.1824042,34.26270833,독거군도 부근,독거 북단,암,3.3~14.2,전라남도 진도군,1,DT_0028,진도
1067,126.1824703,34.25373083,독거군도 부근,독거 동쪽 선창,펄,12~12.3,전라남도 진도군,1,DT_0028,진도
1068,126.1498019,34.22117417,독거군도 부근,화단도,암,0.5~18.2,전라남도 진도군,1,DT_0028,진도
1069,126.1642486,34.22764528,독거군도 부근,초도,암,0.2~9.5,전라남도 진도군,1,DT_0028,진도
1070,126.1704825,34.23153722,독거군도 부근,간암여,암,17.6~23.5,전라남도 진도군,1,DT_0028,진도
1071,126.2844731,33.96877778,추자군도,다무래미 갯바위,암,0.8~1.1,제주특별자치도 제주시,1,DT_0021,추자도
1072,126.2944333,33.96590194,추자군도,최영장군 사당 앞,암,1.1~1.9,제주특별자치도 제주시,1,DT_0021,추자도
1073,126.3037692,33.95279501,추자군도,추자대교,암,0.1~0.2,제주특별자치도 제주시,1,DT_0021,추자도
1074,126.3128417,33.95444528,추자군도,목리 인근 갯바위,암,0.1~1.5,제주특별자치도 제주시,1,DT_0021,추자도
1075,126.3415228,33.95369889,추자군도,신대산전망터 앞,암,1.1~2.1,제주특별자치도 제주시,1,DT_0021,추자도
1076,126.3409475,33.9462475,추자군도,모정의 쉼터 부근,암,1.2~3.1,제주특별자치도 제주시,1,DT_0021,추자도
1077,126.3006625,33.95189778,추자군도,모진해수욕장 갯바위,암,1.2~4.8,제주특별자치도 제주시,1,DT_0021,추자도
1078,126.3282342,33.93523361,추자군도,석죽머리 부근,"모래, 조개껍질",0.1~1.8,제주특별자치도 제주시,1,DT_0021,추자도
1079,126.3287356,33.92980139,추자군도,오리똥여 부근,암,2.1~6.9,제주특별자치도 제주시,1,DT_0021,추자도
1080,126.3162442,33.94073389,추자군도,신양리 갯바위,암,2.5~2.2,제주특별자치도 제주시,1,DT_0021,추자도
1081,126.3093161,33.93921333,추자군도,섬생이 좌측,암,2.5~9.4,제주특별자치도 제주시,1,DT_0021,추자도
1082,126.3028403,33.95025417,추자군도,발전소 부근,암,0.2~7.1,제주특별자치도 제주시,1,DT_0021,추자도
1083,126.2858125,33.96151944,추자군도,새말 갯바위,암,0.8~1.1,제주특별자치도 제주시,1,DT_0021,추자도
1084,126.2837006,33.96428583,추자군도,청석 갯바위,암,0.8~1.1,제주특별자치도 제주시,1,DT_0021,추자도
1085,126.3060125,33.97426889,추자군도,염도 좌측,암,0.8~1.1,제주특별자치도 제주시,1,DT_0021,추자도
1086,126.3090122,33.97400194,추자군도,염도 우측,암,0.4~1.9,제주특별자치도 제주시,1,DT_0021,추자도
1087,126.3129733,33.97591917,추자군도,검둥여 부근,암,0.4~1.9,제주특별자치도 제주시,1,DT_0021,추자도
1088,126.3155947,33.97533722,추자군도,검둥여,암,0.4~1.9,제주특별자치도 제주시,1,DT_0021,추자도
1089,126.3211503,33.98575694,추자군도,추포도 남측 갯바위,암,3.0~17.1,제주특별자치도 제주시,1,DT_0021,추자도
1090,126.3237717,33.98798861,추자군도,추포도 북측 갯바위,"거친모래, 조개껍질",1.0~3.6,제주특별자치도 제주시,1,DT_0021,추자도
1091,126.3298286,34.0105625,추자군도,횡간도 좌측 끝,"거친모래, 조개껍질",2.3~2.4,제주특별자치도 제주시,1,DT_0021,추자도
1092,126.3480972,34.00397167,추자군도,횡간도 우측 끝,"거친모래, 조개껍질",3.8~6.2,제주특별자치도 제주시,1,DT_0021,추자도
1093,126.4628814,34.42705361,해남반도 부근,송평 해수욕장 죽도,"펄, 조개껍질",2.7~3.1,전라남도 해남군,1,DT_0028,진도
1094,126.4738114,34.37876556,해남반도 부근,어란리 서측,펄,0.6~1.7,전라남도 해남군,1,DT_0028,진도
1095,126.4992211,34.35814833,해남반도 부근,대성식품 길 끝,펄,0.4~0.7,전라남도 해남군,1,DT_0028,진도
1096,126.5137833,34.34329806,해남반도 부근,소죽리 죽도,펄,0.8~1.3,전라남도 해남군,1,DT_0028,진도
1097,126.5167456,34.33913917,해남반도 부근,소죽리 중도,펄,0.3~0.6,전라남도 해남군,1,DT_0028,진도
1098,126.50915,34.299315,해남반도 부근,양도,암,0.5~3.1,전라남도 완도군,1,DT_0027,완도
1099,126.6176561,34.3386825,완도 부근,연초도 갯바위,펄,-0.4~0.3,전라남도 해남군,1,DT_0027,완도
1100,126.6735803,34.41769889,완도 부근,만수리 남측 갯바위,펄,-1.1~-0.5,전라남도 해남군,1,DT_0027,완도
1101,126.6968961,34.43840917,완도 부근,방산리 해안,펄,-0.8~-0.7,전라남도 해남군,1,DT_0027,완도
1102,126.7339639,34.44581917,완도 부근,내도 갯바위,펄,-0.8~1.5,전라남도 해남군,1,DT_0027,완도
1103,126.7393953,34.46165,완도 부근,사내방조제,펄,0.2~0.4,전라남도 강진군,1,DT_0027,완도
1104,126.7006875,34.41347083,완도 부근,고마도 서측 해안,펄,-0.7~-0.5,전라남도 완도군,1,DT_0027,완도
1105,126.7108603,34.41801639,완도 부근,고마도 북측 해안,펄,-0.8~-0.7,전라남도 완도군,1,DT_0027,완도
1106,126.7248725,34.40614806,완도 부근,고마도 동측 갯바위,펄,0~2,전라남도 완도군,1,DT_0027,완도
1107,126.7327258,34.401505,완도 부근,사후도 북측 갯바위,펄,0~2,전라남도 완도군,1,DT_0027,완도
1108,126.7450819,34.39923194,완도 부근,사후도 동측 갯바위,펄,-1.0~0.1,전라남도 완도군,1,DT_0027,완도
1109,126.7429167,34.39052083,완도 부근,사후도 남측 갯바위,펄,-1.0~0.1,전라남도 완도군,1,DT_0027,완도
1110,126.7508931,34.45052944,강진만 부근,복도 갯바위,"펄, 모래",-3.4~1.2,전라남도 강진군,1,DT_0027,완도
1111,126.7574683,34.56574556,강진만 부근,만덕호 좌측,펄,0~2,전라남도 강진군,1,DT_0027,완도
1112,126.7590958,34.56968083,강진만 부근,만덕호 갈대밭,펄,0~2,전라남도 강진군,1,DT_0027,완도
1113,126.7640603,34.5675775,강진만 부근,만덕호 우측,펄,0~2,전라남도 강진군,1,DT_0027,완도
1114,126.7898617,34.53496806,강진만 부근,가우도 출렁다리 근처,펄,0~2,전라남도 강진군,1,DT_0027,완도
1115,126.7787419,34.53705889,강진만 부근,가우도 북측 갯바위,펄,0~2,전라남도 강진군,1,DT_0027,완도
1116,126.7830786,34.53031972,강진만 부근,가우도 남측 갯바위,펄,0~2,전라남도 강진군,1,DT_0027,완도
1117,126.7902369,34.46192528,강진만 부근,외호도 갯바위,"펄, 모래",0.2~0.6,전라남도 강진군,1,DT_0027,완도
1118,126.9784169,34.47162889,득량만 부근,정남진해양낚시공원,펄,0.1~1.2,전라남도 장흥군,1,DT_0026,고흥발포
1119,127.0024836,34.55758167,득량만 부근,장환마을하단,펄,1~1.4,전라남도 장흥군,1,DT_0026,고흥발포
1120,127.1434983,34.58792861,득량만 부근,신흥 부근,펄,1.2~1.9,전라남도 고흥군,1,DT_0026,고흥발포
1121,127.1190014,34.50417222,득량만 부근,남생리 부근,암,0.3~0.6,전라남도 고흥군,1,DT_0026,고흥발포
1122,127.0912769,34.59653833,득량만 부근,득량도 좌측,펄,1.8~3.5,전라남도 고흥군,1,DT_0026,고흥발포
1123,127.1102703,34.59642194,득량만 부근,득량도 우측하단끝,펄,1.4~3.1,전라남도 고흥군,1,DT_0026,고흥발포
1124,127.1077378,34.60247833,득량만 부근,득량도 우측,펄,0.5~0.8,전라남도 고흥군,1,DT_0026,고흥발포
1125,127.0116836,34.61260361,고흥호 부근,장재도 남측해안,펄,0.9~1,전라남도 장흥군,1,DT_0026,고흥발포
1126,127.1465597,34.69341778,고흥호 부근,연동부근해안,펄,0.1~0.2,전라남도 보성군,1,DT_0026,고흥발포
1127,127.2126611,34.74125389,고흥호 부근,득량만방조제,펄,0.3~0.5,전라남도 보성군,1,DT_0026,고흥발포
1128,127.3078828,34.7269725,고흥호 부근,우도 상단,펄,0.2~1.5,전라남도 고흥군,1,DT_0026,고흥발포
1129,127.2241331,34.65353861,고흥호 부근,고흥만방조제,펄,0.8~1.6,전라남도 고흥군,1,DT_0026,고흥발포
1130,127.2335617,34.47342444,거금수도 부근,한옥민박 옆,펄,2.3~2.9,전라남도 고흥군,1,DT_0026,고흥발포
1131,127.2385392,34.51649056,거금수도 부근,남촌휴양지 남측,펄,0.1~1.3,전라남도 고흥군,1,DT_0026,고흥발포
1132,127.2997408,34.44052,거금수도 부근,지죽도 북측,"펄, 조개껍질",2.1~9,전라남도 고흥군,1,DT_0026,고흥발포
1133,127.3028661,34.43345278,거금수도 부근,지죽도 남서측,"펄, 조개껍질",3.2~7.9,전라남도 고흥군,1,DT_0026,고흥발포
1134,127.3290269,34.43529583,거금수도 부근,소염도,암,2.1~3.5,전라남도 고흥군,1,DT_0026,고흥발포
1135,127.321015,34.46896667,거금수도 부근,구암리 해안길,펄,0.1~0.2,전라남도 고흥군,1,DT_0026,고흥발포
1136,127.3819767,34.47912806,거금수도 부근,추도,펄,5.3~5.5,전라남도 고흥군,1,DT_0026,고흥발포
1137,127.3876903,34.50524529,거금수도 부근,까치목골 앞,펄,1.3~1.5,전라남도 고흥군,1,DT_0026,고흥발포
1138,127.4138428,34.51118639,거금수도 부근,두리도 남측,펄,2.9~3.2,전라남도 고흥군,1,DT_0026,고흥발포
1139,127.4069633,34.51206944,거금수도 부근,달금골 동측,펄,0.5~2.7,전라남도 고흥군,1,DT_0026,고흥발포
1140,127.409725,34.5195225,거금수도 부근,남성리 해수욕장,펄,0.1~2.7,전라남도 고흥군,1,DT_0026,고흥발포
1141,127.4251453,34.51130972,거금수도 부근,성두도 남측,펄,0.9~2.8,전라남도 고흥군,1,DT_0026,고흥발포
1142,127.2414908,34.41635167,거금수도 부근,시산도 북측,펄,0.5~2.9,전라남도 고흥군,1,DT_0026,고흥발포
1143,127.2743736,34.3791975,거금수도 부근,대바래섬 북측,"펄, 모래",1.9~9,전라남도 고흥군,1,DT_0026,고흥발포
1144,127.4756111,34.63508333,낭도 부근,신기촌들 갯바위,"모래, 조개껍질",0.2~0.3,전라남도 고흥군,1,DT_0026,고흥발포
1145,127.5335167,34.62455583,낭도 부근,하과도 서측,암,2.3~8.5,전라남도 여수시,1,DT_0016,여수
1146,127.5405619,34.6232825,낭도 부근,둔병도 남측,암,6.8~17.9,전라남도 여수시,1,DT_0016,여수
1147,127.5520125,34.62741972,낭도 부근,둔병도 동측,암,4.1~11.3,전라남도 여수시,1,DT_0016,여수
1148,127.5257636,34.60265472,낭도 부근,낭도 철탑 밑,암,1.6~6.3,전라남도 여수시,1,DT_0016,여수
1149,127.5386964,34.60407333,낭도 부근,낭도 터미널 앞,암,1.1~1.8,전라남도 여수시,1,DT_0016,여수
1150,127.5576506,34.61696944,낭도 부근,낭도산 남측,"펄, 조개껍질",4.3~8.1,전라남도 여수시,1,DT_0016,여수
1151,127.5659031,34.61334111,낭도 부근,낭도산 동측,"펄, 조개껍질",10~17.5,전라남도 여수시,1,DT_0016,여수
1152,127.5575506,34.60230361,낭도 부근,낭도 해안가 옆,암,1~3,전라남도 여수시,1,DT_0016,여수
1153,127.5507717,34.60116056,낭도 부근,낭도 해안,암,1~3,전라남도 여수시,1,DT_0016,여수
1154,127.5411781,34.59603028,낭도 부근,해안길 우측,암,2.6~4.9,전라남도 여수시,1,DT_0016,여수
1155,127.5398875,34.59607139,낭도 부근,해안길 좌측,암,2.6~4.9,전라남도 여수시,1,DT_0016,여수
1156,127.5534033,34.59257306,낭도 부근,사도 서측,암,1.3~2.2,전라남도 여수시,1,DT_0016,여수
1157,127.5585831,34.58985278,낭도 부근,사도 해안길,암,0.7~5.9,전라남도 여수시,1,DT_0016,여수
1158,127.5710497,34.59062417,낭도 부근,추도 남측,암,3.8~6,전라남도 여수시,1,DT_0016,여수
1159,127.5938761,34.5970975,낭도 부근,상화도 서측,"모래, 조개껍질",1.2~8.5,전라남도 여수시,1,DT_0016,여수
1160,127.5964492,34.6001,낭도 부근,상화도 해변가,"모래, 조개껍질",2.1~13.5,전라남도 여수시,1,DT_0016,여수
1161,127.6069089,34.6040525,낭도 부근,상화도 북측,펄,3.6~8.9,전라남도 여수시,1,DT_0016,여수
1162,127.6059094,34.58881278,낭도 부근,하화도 서측,펄,4.7~10.6,전라남도 여수시,1,DT_0016,여수
1163,127.6149036,34.59239417,낭도 부근,하화도 해안길,펄,1.8~3.2,전라남도 여수시,1,DT_0016,여수
1164,127.37675,34.73588889,순천만 부근,신작 부근,펄,0.1~0.9,전라남도 고흥군,1,DT_0055,순천만
1165,127.3896111,34.75111111,순천만 부근,선정 부근,펄,0.2~1,전라남도 고흥군,1,DT_0055,순천만
1166,127.5611814,34.77526889,순천만 부근,궁항갯바위 부근,펄,1.1~2.6,전라남도 여수시,1,DT_0055,순천만
1167,127.5591578,34.77055472,순천만 부근,달천도 부근,펄,1.1~3.6,전라남도 여수시,1,DT_0055,순천만
1168,127.5592411,34.74820444,순천만 부근,대운두도 부근,펄,0.7~6.1,전라남도 여수시,1,DT_0055,순천만
1169,127.5818258,34.745235,순천만 부근,이천리갯바위 끝,펄,0.2~1,전라남도 여수시,1,DT_0055,순천만
1170,127.5067764,34.75731861,순천만 부근,교량낚시터,펄,0.4~1.2,전라남도 여수시,1,DT_0055,순천만
1171,127.5105656,34.75741472,순천만 부근,소여자도 갯바위,펄,0.4~1.1,전라남도 여수시,1,DT_0055,순천만
1172,127.5045028,34.75534611,순천만 부근,대여자도 하단,펄,1.2~1.8,전라남도 여수시,1,DT_0055,순천만
1173,127.6365472,34.71893083,여수엑스포 부근,용주마을 부근,펄,1.3~3.4,전라남도 여수시,1,DT_0016,여수
1174,127.6652281,34.74679528,여수엑스포 부근,장도 인근 다리,펄,2.4~2.7,전라남도 여수시,1,DT_0016,여수
1175,127.7254292,34.72198389,여수엑스포 부근,국동항 인근,"펄, 모래",6.3~8.4,전라남도 여수시,1,DT_0016,여수
1176,127.7425175,34.7099225,여수엑스포 부근,노도 인근,펄,1.9~7.1,전라남도 여수시,1,DT_0016,여수
1177,127.7879453,34.69410417,여수엑스포 부근,내치도 하단,펄,3.1~4.7,전라남도 여수시,1,DT_0016,여수
1178,127.7922592,34.68593917,여수엑스포 부근,혈서 상단,펄,4.5~4.9,전라남도 여수시,1,DT_0016,여수
1179,127.7506453,34.76963389,여수엑스포 부근,검은모래해변 부근,펄,0.8~9.8,전라남도 여수시,1,DT_0016,여수
1180,127.7488467,34.78075194,여수엑스포 부근,검은모래해변 부근,암,0.4~1.2,전라남도 여수시,1,DT_0016,여수
1181,127.7573658,34.79364083,여수엑스포 부근,오천동해수욕장,암,8.4~9.9,전라남도 여수시,1,DT_0016,여수
1182,127.7699492,34.81390472,여수엑스포 부근,신덕해수욕장 부근,펄,0.7~7.8,전라남도 여수시,1,DT_0016,여수
1183,127.7577739,34.95960722,광양만 부근,배알도해수욕장 부근,"펄, 모래",0~2.0,전라남도 광양시,1,DT_0049,광양
1184,127.7759444,34.940625,광양만 부근,마도 갯바위,"펄, 모래",-2.2~2.0,경상남도 하동군,1,DT_0049,광양
1185,127.8822167,34.95033806,광양만 부근,한려주유소 앞,암,0.1~6.5,경상남도 하동군,1,DT_0049,광양
1186,127.8113961,34.86272306,광양만 부근,유포마을 부근,"펄, 모래",0~3.1,경상남도 남해군,1,DT_0049,광양
1187,127.0761897,34.19593361,황제도,알매섬,암,3.1~8.2,전라남도 완도군,1,DT_0027,완도
1188,127.0808906,34.19296278,황제도,황제도 등대 밑,암,4.1~6.9,전라남도 완도군,1,DT_0027,완도
1189,127.0826119,34.18942111,황제도,땅콩여 동측,"모래, 조개껍질",6.6~16,전라남도 완도군,1,DT_0027,완도
1190,127.0752958,34.18774972,황제도,황제도 남단,암,6.2~17.1,전라남도 완도군,1,DT_0027,완도
1191,127.0698089,34.19074139,황제도,철탑,암,12.9~17.1,전라남도 완도군,1,DT_0027,완도
1192,127.1330625,34.21648583,황제도,흰여,암,17.2~21.5,전라남도 완도군,1,DT_0027,완도
1193,127.1523289,34.20391722,황제도,소마도,암,5.4~22,전라남도 완도군,1,DT_0027,완도
1194,127.1535372,34.20527861,황제도,장도 서측,암,5.2~10,전라남도 완도군,1,DT_0027,완도
1195,127.1568144,34.20352528,황제도,장도 홈통,암,20~22,전라남도 완도군,1,DT_0027,완도
1196,127.1659925,34.20248694,황제도,장도 남동측,암,20~26,전라남도 완도군,1,DT_0027,완도
1197,127.1772067,34.20785722,황제도,장도 동측,펄,23~41,전라남도 완도군,1,DT_0027,완도
1198,127.3633483,34.29337306,손죽열도 부근,반초섬 맞은편,펄,2.5~2.8,전라남도 여수시,1,DT_0016,여수
1199,127.3647981,34.29475028,손죽열도 부근,반초섬 남측,펄,2.5~2.8,전라남도 여수시,1,DT_0016,여수
1200,127.3711703,34.28720361,손죽열도 부근,손죽 동측,펄,14.9~15.4,전라남도 여수시,1,DT_0016,여수
1201,127.348325,34.284685,손죽열도 부근,손죽 서측,펄,9.1~12.7,전라남도 여수시,1,DT_0016,여수
1202,127.3484408,34.28768417,손죽열도 부근,손죽 서측 낮은 자리,펄,9.1~12.7,전라남도 여수시,1,DT_0016,여수
1203,127.3511775,34.29550722,손죽열도 부근,손죽 등대 밑,펄,8.6~26,전라남도 여수시,1,DT_0016,여수
1204,127.3544517,34.29174,손죽열도 부근,손죽 해안,펄,6.3~8.6,전라남도 여수시,1,DT_0016,여수
1205,127.3541458,34.28787611,손죽열도 부근,손죽 해수욕장,펄,2.4~2.8,전라남도 여수시,1,DT_0016,여수
1206,127.3712114,34.29544556,손죽열도 부근,잔거리 서측,펄,2.9~9.6,전라남도 여수시,1,DT_0016,여수
1207,127.3738656,34.29461528,손죽열도 부근,잔거리 넓은 자리,펄,2.9~9.6,전라남도 여수시,1,DT_0016,여수
1208,127.3804058,34.29563778,손죽열도 부근,잔거리 홈통,펄,9.6~15.3,전라남도 여수시,1,DT_0016,여수
1209,127.3819436,34.29591889,손죽열도 부근,잔거리 동측,펄,9.6~15.3,전라남도 여수시,1,DT_0016,여수
1210,127.3876569,34.2874575,손죽열도 부근,소거문 서측 인근,펄,4.7~7.6,전라남도 여수시,1,DT_0016,여수
1211,127.3858878,34.28879583,손죽열도 부근,소거문 서측,펄,4.7~7.6,전라남도 여수시,1,DT_0016,여수
1212,127.3965125,34.29760722,손죽열도 부근,소거문 북단,암,7.3~9.9,전라남도 여수시,1,DT_0016,여수
1213,127.399365,34.29607694,손죽열도 부근,소거문 계단,펄,7.9~9.9,전라남도 여수시,1,DT_0016,여수
1214,127.402755,34.29014083,손죽열도 부근,소거문 동측,펄,6.8~9.9,전라남도 여수시,1,DT_0016,여수
1215,127.3930481,34.28235139,손죽열도 부근,소거문 해안,펄,8.4~10.4,전라남도 여수시,1,DT_0016,여수
1216,127.3905842,34.27823333,손죽열도 부근,소거문 서코지,펄,10.4~20,전라남도 여수시,1,DT_0016,여수
1217,127.38793,34.28011389,손죽열도 부근,소거문 서코지 좌측,펄,7.6~20,전라남도 여수시,1,DT_0016,여수
1218,127.3883517,34.28263972,손죽열도 부근,소거문 홈통,펄,7.6~20,전라남도 여수시,1,DT_0016,여수
1219,127.4482633,34.25733111,간수제도,소평도 서측 홈통,암,12.6~18.3,전라남도 여수시,1,DT_0016,여수
1220,127.4520006,34.25831972,간수제도,소평도 계단,암,18.3~20,전라남도 여수시,1,DT_0016,여수
1221,127.4505372,34.25672694,간수제도,소평도 남측,암,18.3~20,전라남도 여수시,1,DT_0016,여수
1222,127.4490886,34.25657167,간수제도,소평도 남서측,암,12.3~18.3,전라남도 여수시,1,DT_0016,여수
1223,127.4551922,34.24682639,간수제도,평도 우측 넓은 자리,암,12.3~16.5,전라남도 여수시,1,DT_0016,여수
1224,127.5326575,34.26979083,간수제도,광도 북측,암,4.7~10.4,전라남도 여수시,1,DT_0016,여수
1225,127.5283083,34.26451889,간수제도,광도 서측 홈통,암,18.2~18.5,전라남도 여수시,1,DT_0016,여수
1226,127.5304994,34.2607225,간수제도,광도 남측,암,18.2~18.5,전라남도 여수시,1,DT_0016,여수
1227,127.3842647,34.05998333,대삼부도,노루섬 갯바위,암,0.6~14.3,전라남도 여수시,1,DT_0016,여수
1228,127.3879561,34.05950722,대삼부도,절밑 갯바위,암,2~4.7,전라남도 여수시,1,DT_0016,여수
1229,127.3860994,34.05679417,대삼부도,첫곶부리 갯바위,암,12.3~19.6,전라남도 여수시,1,DT_0016,여수
1230,127.3847653,34.05404222,대삼부도,덜섬 끝바리 부근,암,0.1~13.8,전라남도 여수시,1,DT_0016,여수
1231,127.3856456,34.05328889,대삼부도,덜섬 끝바리,암,0.1~13.8,전라남도 여수시,1,DT_0016,여수
1232,127.3877911,34.05493278,대삼부도,덜섬사이 골창여,암,1~14.5,전라남도 여수시,1,DT_0016,여수
1233,127.39162,34.05751778,대삼부도,남측 직벽,암,0.3~8.2,전라남도 여수시,1,DT_0016,여수
1234,127.39705,34.05563583,대삼부도,구멍섬 갯바위,암,0.6~0.7,전라남도 여수시,1,DT_0016,여수
1235,127.3980044,34.05547778,대삼부도,쌍굴 근처 갯바위,암,0.6~0.7,전라남도 여수시,1,DT_0016,여수
1236,127.3973139,34.05660639,대삼부도,동측 갯바위,암,0.4~0.6,전라남도 여수시,1,DT_0016,여수
1237,127.3982906,34.05720167,대삼부도,동측 갯바위,암,0.4~5.1,전라남도 여수시,1,DT_0016,여수
1238,127.3957406,34.05886389,대삼부도,똥여부근 갯바위,암,0.3~3.1,전라남도 여수시,1,DT_0016,여수
1239,127.3901678,34.06122194,대삼부도,동굴 좌측,암,0.2~0.8,전라남도 여수시,1,DT_0016,여수
1240,127.3893811,34.06110278,대삼부도,동굴 우측,암,0.2~0.8,전라남도 여수시,1,DT_0016,여수
1241,127.3872436,34.06232306,대삼부도,북동쪽 홈통,암,0.3~0.8,전라남도 여수시,1,DT_0016,여수
1242,127.3865039,34.06279917,대삼부도,북쪽 끝바리,암,0.3~0.8,전라남도 여수시,1,DT_0016,여수
1243,127.793695,34.46008833,연도,검등서 갯바위,암,2.3~2.9,전라남도 여수시,1,DT_0016,여수
1244,127.8045722,34.46111472,연도,철탑밑 갯바위,암,2.3~3.6,전라남도 여수시,1,DT_0016,여수
1245,127.8076539,34.45947861,연도,모경말 갯바위,암,2.8~3.6,전라남도 여수시,1,DT_0016,여수
1246,127.8168769,34.45117889,연도,배미말 갯바위,암,2.7~3.5,전라남도 여수시,1,DT_0016,여수
1247,127.8053581,34.42840667,연도,동부 근처 갯바위,암,0.1~9.7,전라남도 여수시,1,DT_0016,여수
1248,127.8094964,34.42493139,연도,연도 산태바위,암,0.2~1.6,전라남도 여수시,1,DT_0016,여수
1249,127.8080358,34.41719222,연도,만작굴,암,1.6~25,전라남도 여수시,1,DT_0016,여수
1250,127.8058336,34.40841139,연도,소룡단 갯바위,암,0.2~1.6,전라남도 여수시,1,DT_0016,여수
1251,127.7986967,34.40962639,연도,대룡단 갯바위,암,0.7~1.3,전라남도 여수시,1,DT_0016,여수
1252,127.7965389,34.41689417,연도,덕포 갯바위,암,0.7~1.3,전라남도 여수시,1,DT_0016,여수
1253,127.7888208,34.41282722,연도,연도 대바위,암,1.3~3.1,전라남도 여수시,1,DT_0016,여수
1254,127.7850753,34.43019,연도,절리서 근처 갯바위,암,1.1~1.5,전라남도 여수시,1,DT_0016,여수
1255,127.7941211,34.45358528,연도,역포 서측 갯바위,암,0.2~1.9,전라남도 여수시,1,DT_0016,여수
1256,127.9980314,35.03470861,사천대교 부근,조도마을 앞,펄,-1.7~-2.2,경상남도 사천시,1,DT_0061,삼천포
1257,128.0040086,35.04463194,사천대교 부근,덕진포교,펄,-1.5~-1.7,경상남도 사천시,1,DT_0061,삼천포
1258,128.0098278,35.05007083,사천대교 부근,환덕리 묵곡천,펄,-1.7~-2.1,경상남도 사천시,1,DT_0061,삼천포
1259,128.0348883,35.02311417,사천대교 부근,화곡관광농원 앞,펄,0.1~3.4,경상남도 사천시,1,DT_0061,삼천포
1260,128.0378464,35.01956444,사천대교 부근,법도 맞은편,펄,0.1~1.5,경상남도 사천시,1,DT_0061,삼천포
1261,128.0427342,35.00842972,사천대교 부근,금문들 앞,펄,0.1~1.5,경상남도 사천시,1,DT_0061,삼천포
1262,128.0321147,34.95881556,진주만 부근,"삼분갑 근처 갯바위
(*삼천포 마리나 포인트)",암,1.2~6.3,경상남도 사천시,1,DT_0061,삼천포
1263,128.0343575,34.95099028,진주만 부근,산분령 유료낚시터,암,2.0~4.0,경상남도 사천시,1,DT_0061,삼천포
1264,128.0337406,34.93505583,진주만 부근,산분령 앞 마동도,암,0.1~2.2,경상남도 사천시,1,DT_0061,삼천포
1265,128.0456964,34.92470139,진주만 부근,초양도 남동측,암,5.7~10.4,경상남도 사천시,1,DT_0061,삼천포
1266,128.04959,34.92569695,진주만 부근,삼천포대교 밑 갯바위,암,1.2~11.1,경상남도 사천시,1,DT_0061,삼천포
1267,128.1496417,34.90436944,진주만 부근,상족암 유람선 갯바위,암,1.5~3.8,경상남도 고성군,1,DT_0061,삼천포
1268,128.1496417,34.90436944,자란만 부근,상족암 유람선 뒷편,암,1.5~3.8,경상남도 고성군,1,DT_0061,삼천포
1269,128.2555833,34.93728889,자란만 부근,.솔섬 맞은편,펄,0.1~4.8,경상남도 고성군,1,DT_0061,삼천포
1270,128.3303361,34.95546111,자란만 부근,오토캠핑장 앞,펄,0.5~0.8,경상남도 고성군,1,DT_0061,삼천포
1271,128.3198361,34.90907222,자란만 부근,가오치 마을 앞,펄,0.6~2.9,경상남도 통영시,1,DT_0014,통영
1272,128.3085242,34.75579667,추도 부근,오리바위 끝,암,2.3~6.7,경상남도 통영시,1,DT_0014,통영
1273,128.3068667,34.75148111,추도 부근,농바위 끝,암,3.6~6.3,경상남도 통영시,1,DT_0014,통영
1274,128.2990758,34.7516125,추도 부근,구들빗등,암,4.3~4.5,경상남도 통영시,1,DT_0014,통영
1275,128.2926167,34.74775806,추도 부근,물선치,암,4.3~4.5,경상남도 통영시,1,DT_0014,통영
1276,128.2896158,34.75088833,추도 부근,북바위 근처,암,0.5~1.5,경상남도 통영시,1,DT_0014,통영
1277,128.2833778,34.75490611,추도 부근,용머리치 끝,암,5.0~7.8,경상남도 통영시,1,DT_0014,통영
1278,128.2865764,34.75579028,추도 부근,용두암 중앙,암,5.0~7.8,경상남도 통영시,1,DT_0014,통영
1279,128.2861844,34.75901972,추도 부근,돌 무너진 자리,암,2.5~2.9,경상남도 통영시,1,DT_0014,통영
1280,128.2942625,34.76302417,추도 부근,연등 끝,암,3.1~5.0,경상남도 통영시,1,DT_0014,통영
1281,128.2970653,34.76101556,추도 부근,높은여,암,3.1~5.0,경상남도 통영시,1,DT_0014,통영
1282,128.3511697,34.65164694,연화도 부근,연화항 인근 갯바위,암,4.4~9.7,경상남도 통영시,1,DT_0014,통영
1283,128.3533939,34.65181694,연화도 부근,연화도 반하도 골창,암,4.4~13.3,경상남도 통영시,1,DT_0014,통영
1284,128.3620775,34.64844861,연화도 부근,십리골마을 동측 갯바위,암,9.7~15.8,경상남도 통영시,1,DT_0014,통영
1285,128.3765528,34.64534667,연화도 부근,막끝 갯바위,암,8.8~10.2,경상남도 통영시,1,DT_0014,통영
1286,128.3812111,34.64056,연화도 부근,진등끝 갯바위,암,5.9~8.2,경상남도 통영시,1,DT_0014,통영
1287,128.3768089,34.63480083,연화도 부근,네바위 사이 골창,암,7.2~12.2,경상남도 통영시,1,DT_0014,통영
1288,128.3676828,34.63893333,연화도 부근,소쿠리강정 갯바위,암,7.9~10.7,경상남도 통영시,1,DT_0014,통영
1289,128.3635606,34.64180472,연화도 부근,연화리 갯바위,암,10.1~10.7,경상남도 통영시,1,DT_0014,통영
1290,128.3578814,34.64098028,연화도 부근,한숨자리 인근,암,3.9~8.4,경상남도 통영시,1,DT_0014,통영
1291,128.3561811,34.63903917,연화도 부근,진강정 갯바위,암,3.9~7.9,경상남도 통영시,1,DT_0014,통영
1292,128.3444814,34.64213194,연화도 부근,대바위 인근,암,3.8~4.6,경상남도 통영시,1,DT_0014,통영
1293,128.3431189,34.64574444,연화도 부근,촛대바위 인근,암,5.4~6.8,경상남도 통영시,1,DT_0014,통영
1294,128.3448889,34.64981528,연화도 부근,연화항 서측 끝,암,9.7~11.7,경상남도 통영시,1,DT_0014,통영
1295,128.3414964,34.65785056,연화도 부근,아랫마을 갯바위,암,2.5~2.9,경상남도 통영시,1,DT_0014,통영
1296,128.3391672,34.66442917,연화도 부근,구멍섬 갯바위,암,2.9~7.1,경상남도 통영시,1,DT_0014,통영
1297,128.3430994,34.66364333,연화도 부근,목섬 갯바위,암,6~7.1,경상남도 통영시,1,DT_0014,통영
1298,128.3481186,34.66153944,연화도 부근,가마동섬,암,1.9~3.3,경상남도 통영시,1,DT_0014,통영
1299,128.3532192,34.654255,연화도 부근,반하도 갯바위,암,1.9~4.1,경상남도 통영시,1,DT_0014,통영
1300,128.1886078,34.57240139,갈도 부근,욕지끝바리,"모래, 조개껍질",11.6~11.8,경상남도 통영시,1,DT_0014,통영
1301,128.1891831,34.57055306,갈도 부근,빗바위,"모래, 조개껍질",11.6~11.8,경상남도 통영시,1,DT_0014,통영
1302,128.1899919,34.56919444,갈도 부근,빗바위 근처,"모래, 조개껍질",11.6~11.8,경상남도 통영시,1,DT_0014,통영
1303,128.1890081,34.56888389,갈도 부근,붉은바위,"모래, 조개껍질",11.6~11.8,경상남도 통영시,1,DT_0014,통영
1304,128.1887997,34.56578722,갈도 부근,삼각여,암,3.4~8.4,경상남도 통영시,1,DT_0014,통영
1305,128.1876658,34.56216639,갈도 부근,똥여,암,3.4~13.8,경상남도 통영시,1,DT_0014,통영
1306,128.1833219,34.55880722,갈도 부근,매여 앞 갯바위,암,14.5~15.9,경상남도 통영시,1,DT_0014,통영
1307,128.1827633,34.55691028,갈도 부근,매여,암,14.5~15.9,경상남도 통영시,1,DT_0014,통영
1308,128.1814378,34.55835194,갈도 부근,미끄럼바위 근처,암,14.5~15.9,경상남도 통영시,1,DT_0014,통영
1309,128.17922,34.55842083,갈도 부근,귀신여,암,14.5~15.9,경상남도 통영시,1,DT_0014,통영
1310,128.1773106,34.55886917,갈도 부근,너부렁여 근처,암,14.5~15.9,경상남도 통영시,1,DT_0014,통영
1311,128.1763769,34.55937278,갈도 부근,너부렁여,암,14.5~15.9,경상남도 통영시,1,DT_0014,통영
1312,128.3884014,34.86259806,진해만 부근,문턱개 북측,펄,1.4~3.5,경상남도 통영시,1,DT_0014,통영
1313,128.4643606,34.90869,진해만 부근,지도 서측 해안길 끝,암,3.5~4.4,경상남도 통영시,1,DT_0014,통영
1314,128.4497353,35.07130861,당항포 부근,해상펜션 앞,모래,0.3~0.5,경상남도 고성군,1,DT_0061,삼천포
1315,128.5420408,35.10161083,진해항 부근,삼우골 서측,펄,0.6~1.1,경상남도 창원시,1,DT_0056,부산항신항
1316,128.6012261,35.1040725,진해항 부근,해돋이까페 부근,펄,1.3~2.5,경상남도 창원시,1,DT_0056,부산항신항
1317,128.5999547,35.13757722,진해항 부근,막개도,펄,1.2~8.1,경상남도 창원시,1,DT_0056,부산항신항
1318,128.6630144,35.05989694,진해항 부근,잠도 서측,펄,0.1~3.9,경상남도 창원시,1,DT_0056,부산항신항
1319,128.6876347,35.07561556,진해항 부근,초리도 서측,펄,3.8~4.6,경상남도 창원시,1,DT_0056,부산항신항
1320,128.6961678,35.09737361,진해항 부근,합포마을 남측,펄,0.1~1.7,경상남도 창원시,1,DT_0056,부산항신항
1321,129.1772533,35.15510694,수영만 부근,고두말 근처바위,암,0.3~0.1,부산광역시 해운대구,1,DT_0005,부산
1322,127.1085472,37.57921667,사진리,사진 2리 남단 영덕 무지개 폭포,바위,0.6 ~1.9,경상북도 영덕군,1,DT_0901,포항
1323,129.453,36.50875,축산항,축산 죽도산 갯바위,바위,0.9 ~1.3,경상북도 영덕군,1,DT_0901,포항
1324,129.4363889,36.45869444,석리,석리 탐조등 노물다섯짬 해안도로 갯바위1,바위,1 ~1.1,경상북도 영덕군,1,DT_0901,포항
1325,129.4356111,36.45438889,석리,석리 탐조등 노물다섯짬 해안도로 갯바위2,바위,1 ~1.1,경상북도 영덕군,1,DT_0901,포항
1326,129.3981944,36.3705,금진2리,금진 2리 마을 회관 갯바위,바위,0.1 ~0.4,경상북도 영덕군,1,DT_0901,포항
1327,129.38,36.32766667,남호리,남호 해수욕장 백사장,모래,0.3 ~2,경상북도 영덕군,1,DT_0901,포항
1328,129.3797222,36.27744444,장사리,장사해수욕장 남동쪽 갯바위,바위,0.1 ~0.4,경상북도 영덕군,1,DT_0901,포항
1329,129.3811111,36.27497222,부경리,부경리 갯바위1,바위,0.1 ~0.4,경상북도 영덕군,1,DT_0901,포항
1330,129.3799722,36.27363889,부경리,부경리 갯바위2,바위,0.1 ~0.4,경상북도 영덕군,1,DT_0901,포항
1331,129.58,36.02266667,삼정항,석병방파제 갯바위,바위,0.8 ~1.1,경상북도 포항시,1,DT_0901,포항
1332,129.5786111,36.0085,삼정3리,심정 3리 갯바위,바위,0.8 ~1.1,경상북도 포항시,1,DT_0901,포항
1333,129.5665278,35.99463889,구룡포항,구룡포 해수욕장 남측 갯바위1,바위,0.1~1.1,경상북도 포항시,1,DT_0901,포항
1334,129.5679444,35.9915,구룡포항,구룡포 해수욕장 남측 갯바위2,모래,0.1~1.1,경상북도 포항시,1,DT_0901,포항
1335,129.5659167,35.98952778,구룡포항,구룡포항 서쪽 바다 낚시터,바위,0.1~1.1,경상북도 포항시,1,DT_0901,포항
1336,129.5529722,35.97491667,장길리,구룡포항 장길리 보릿돌,바위,0.8 ~1.2,경상북도 포항시,1,DT_0901,포항
1337,129.5507778,35.95166667,장길리,장길리 복합 낚시 공원,바위,1.1 ~1.5,경상북도 포항시,1,DT_0901,포항
1338,129.5247778,35.89036111,신창리,신창 간이 해수욕장,모래,0.1 ~2,경상북도 포항시,1,DT_0901,포항
1339,129.523,35.87208333,양포항,양포항 남쪽 갯바위,바위,0.2 ~4.5,경상북도 포항시,1,DT_0901,포항
1340,129.5255278,35.85344444,계원2리,계원 2리 등대 갯바위,바위,0.1 ~4.6,경상북도 포항시,1,DT_0901,포항
1341,129.5133056,35.81688889,척사항,척사방파제 북쪽 갯바위,바위,0.2 ~1.7,경상북도 경주시,1,DT_0901,포항
1342,129.5108889,35.81261111,척사항,척사방파제 남쪽 갯바위,바위,0.2 ~1.4,경상북도 경주시,1,DT_0901,포항
1343,129.5117778,35.80655556,감포항,감포항 송대말 등대 앞 갯바위,바위,0.1 ~0.5,경상북도 경주시,1,DT_0901,포항
1344,129.4583611,35.61227778,판지항,판지항 남측 갯바위,바위     ,0.3 ~1.2,울산광역시 북구 ,1,DT_0020,울산
1345,129.4624722,35.60625,제전항,제전항 남측 갯바위,"모래, 바위",0.4 ~1.2,울산광역시 북구 ,1,DT_0020,울산
1346,129.46375,35.59247222,우가포,우가포갯바위,"모래, 바위",0.1 ~2.0,울산광역시 북구 ,1,DT_0020,울산
1347,129.4585833,35.58022222,당사해양낚시공원,당사해양낚시공원,바위     ,0.1 ~2.0,울산광역시 북구,1,DT_0020,울산
1348,129.4556944,35.56580556,주전몽돌해변,주전몽돌해변,바위     ,0.1 ~2.0,울산광역시 동구,1,DT_0020,울산
1349,129.4385556,35.48625,소바위,울산소바위,"모래, 바위",0.1 ~1.8,울산광역시 동구,1,DT_0020,울산
1350,129.4312222,35.47805556,슬도,울산 슬도,"모래, 바위",0.5 ~1.8,울산광역시 동구,1,DT_0020,울산
1351,129.3454167,35.37775,대바위공원,대바위공원,바위     ,0.1 ~1.4,울산광역시 울주군,1,DT_0020,울산
1352,129.3320278,35.34763889,신암1리,신암1리 방파제 동측 갯바위,"모래, 바위",0.7 ~2.1,울산광역시 울주군,1,DT_0020,울산
1353,129.2608611,35.2935,신평소공원,신평소공원 윷판대,바위     ,0.8 ~0.9,부산광역시 기장군,1,DT_0005,부산
1354,129.2599722,35.28313889,온정방파제,온정방파제 동측 남사암,바위     ,0.0 ~1.1,부산광역시 기장군,1,DT_0005,부산
1355,129.2384167,35.22119444,대변항,대변항 북측 갯바위,"모래, 바위",0.4 ~1.1,부산광역시 기장군 ,1,DT_0005,부산
1356,129.2283611,35.20575,원앙대,원앙대(오랑대공원),바위     ,0.1 ~4.7,부산광역시 기장군 ,1,DT_0005,부산
1357,129.2061667,35.17886111,죽도,죽도갯바위(송일정),바위     ,0.9 ~3.5,부산광역시 해운대구,1,DT_0005,부산
1358,129.4216111,36.87269444,망양휴게소,망양휴게소 갯바위,바위,0.9 ~1.6,경상북도 울진군,1,DT_0011,후포
1359,129.44975,36.82291667,사동항,사동항 남측 갯바위,"모래, 바위",0.1 ~1.7,경상북도 울진군,1,DT_0011,후포
1360,129.4696667,36.78075,봉산리,봉산리 백사장 남측 갯바위,"모래, 바위",0.1 ~1.4,경상북도 울진군,1,DT_0011,후포
1361,129.4721111,36.77583333,봉산리,봉산리 주변 갯바위1,바위,0.1 ~1.1,경상북도 울진군,1,DT_0011,후포
1362,129.4758056,36.77163889,봉산리,봉산리 주변 갯바위2,"모래, 바위",0.1 ~1.1,경상북도 울진군,1,DT_0011,후포
1363,129.4786111,36.76780556,봉산리,봉산리 주변 갯바위3,"모래, 바위",0.1 ~1.1,경상북도 울진군,1,DT_0011,후포
1364,129.4762778,36.733,직산리,직산리 주변 갯바위1,"모래, 바위",1.4 ~1.7,경상북도 울진군,1,DT_0011,후포
1365,129.4775,36.72711111,직산리,직산리 주변 갯바위2,"모래, 바위",1.4 ~1.7,경상북도 울진군,1,DT_0011,후포
1366,129.4726111,36.71866667,거일리,거일리 주변 백사장,"모래, 바위",0.1 ~1.1,경상북도 울진군,1,DT_0011,후포
1367,129.4758333,36.71094444,거일리,거일리 주변 갯바위,바위,0.1 ~1.1,경상북도 울진군,1,DT_0011,후포
1368,129.4748056,36.70422222,거일리,거일리 주변 해안도로 갯바위,"모래, 바위",1 ~1.1,경상북도 울진군,1,DT_0011,후포
1369,129.4776944,36.69927778,거일리,울진 바다목장 해상낚시 공원 및 주변 갯바위,바위,1 ~1.1,경상북도 울진군,1,DT_0011,후포
1370,129.4731944,36.697,거일리,거일리 남단 주변 갯바위,바위,0.4 ~1,경상북도 울진군,1,DT_0011,후포
1371,129.4695278,36.69544444,거일리,거일리 남단 주변 백사장,모래,0.4 ~1,경상북도 울진군,1,DT_0011,후포
1372,129.4661389,36.67952778,후포항,후포항 동쪽 갓바위,바위,1 ~1.9,경상북도 울진군,1,DT_0011,후포
1373,129.4309444,36.658,금음리,금음리 주변 갯바위1,"모래, 바위",1 ~1.2,경상북도 울진군,1,DT_0011,후포
1374,129.43025,36.65452778,금음리,금음리 주변 갯바위2,"모래, 바위",1 ~1.2,경상북도 울진군,1,DT_0011,후포
1375,129.4292778,36.65202778,금음리,금음리 주변 갯바위3,"모래, 바위",1.2 ~1.8,경상북도 울진군,1,DT_0011,후포
1376,129.4259722,36.647,금음리,금음리 주변 갯바위4,"모래, 바위",1.2 ~1.8,경상북도 울진군,1,DT_0011,후포
1377,129.4223333,36.64188889,금음리,금음 4리 주변 갯바위,바위,1.7 ~1.8,경상북도 울진군,1,DT_0011,후포
1378,129.4113611,36.59797222,병곡리,고래불 해수욕장 백사장,모래,0.3 ~0.4,경상북도 영덕군,1,DT_0901,포항
1379,129.4323611,36.56047222,대진항,대진항 북쪽 도해단 갯바위,바위,1.1 ~1.6,경상북도 영덕군,1,DT_0901,포항
1380,129.4373056,36.55508333,대진항,대진항 남단 갯바위1,바위,0.9 ~1,경상북도 영덕군,1,DT_0901,포항
1381,129.4385833,36.55366667,대진항,대진항 남단 갯바위2,바위,0.9 ~1,경상북도 영덕군,1,DT_0901,포항
1382,128.5304167,38.32780556,오호항,오호항주변 갯바위,바위,0.4 ~0.6,강원도 고성군,1,DT_0012,속초
1383,128.5498333,38.29688889,문암2리항,문암2리항 갯바위,바위,0.2 ~0.5,강원도 고성군,1,DT_0012,속초
1384,128.557,38.27447222,아야진항,아야진 방파제 갯바위,바위,0.2 ~0.6,강원도 고성군,1,DT_0012,속초
1385,128.5580833,38.27013889,아야진항,아야진항 북측 갯바위,바위,0.2 ~0.6,강원도 고성군,1,DT_0012,속초
1386,128.5586389,38.26647222,청간해변,청간해변 갯바위,바위,0.2 ~0.3,강원도 고성군,1,DT_0012,속초
1387,128.5686389,38.25277778,봉포해변,봉포해변 갯바위,바위,0.1 ~1.7,강원도 고성군,1,DT_0012,속초
1388,128.6329444,38.12413889,낙산항,낙산방파제 갯바위,바위,0.8 ~1.8,강원도 양양군,1,DT_0012,속초
1389,128.7862222,37.94691667,남애항,남애항 북측 갯바위1,바위,0.4 ~0.6,강원도 양양군,1,DT_0012,속초
1390,128.7885833,37.94491667,남애항,남애항 북측 갯바위2,바위,0.2 ~0.6,강원도 양양군,1,DT_0012,속초
1391,128.7890556,37.93980556,남애항,남애항 남측 갯바위,바위,0.1 ~0.6,강원도 양양군,1,DT_0012,속초
1392,128.8776389,37.84108333,사천진해변,사천진 바위,바위,0.1 ~0.7,강원도 강릉시,1,DT_0006,묵호
1393,129.1206389,37.56022222,어달리항,어달리항 남측 갯바위,바위,0.1 ~1.0,강원도 동해시,1,DT_0057,동해항
1394,129.1195556,37.55286111,어달리항,어달리항 북측 방조제,바위,0.1 ~0.4,강원도 동해시,1,DT_0057,동해항
1395,129.1223056,37.52838889,한섬방파제,동해기도원 갯바위,바위,0.1 ~0.8,강원도 동해시,1,DT_0057,동해항
1396,129.177,37.46422222,후진항,후진항 북측 갯바위,바위,0.1 ~1.4,강원도 삼척시,1,DT_0057,동해항
1397,129.2391667,37.38863889,덕산해수욕장,덕봉산 주변 갯바위,바위,0.1 ~0.2,강원도 삼척시,1,DT_0057,동해항
1398,129.2611389,37.34705556,대진항,대진항 내항,바위,0.1 ~2.0,강원도 삼척시,1,DT_0057,동해항
1399,129.2908056,37.30955556,초곡항,초곡항 서측 갯바위,바위,0.1 ~1.7,강원도 삼척시,1,DT_0057,동해항
1400,129.3178889,37.28916667,장호항,장호항 갯바위,바위,1.2 ~1.7,강원도 삼척시,1,DT_0057,동해항
1401,129.3236667,37.28161111,갈남항,갈남항 서측 갯바위,바위,0.1 ~1.4,강원도 삼척시,1,DT_0057,동해항
1402,129.3438611,37.19963889,노곡항,노곡항 남측 갯바위,바위,0.1 ~0.3,강원도 삼척시,1,DT_0057,동해항
1403,129.3726111,37.12558333,나곡해수욕장,나곡해수욕장 남측 갯바위,바위,0.1 ~1.8,경상북도 울진군,1,DT_0011,후포
1404,129.3796389,37.11769444,나곡해수욕장,나곡바다 낚시공원,"모래, 바위",0.1 ~1.4,경상북도 울진군,1,DT_0011,후포
1405,129.3745556,37.11019444,석호항,석호해변 갯바위,"모래, 바위",0.4 ~0.5,경상북도 울진군,1,DT_0011,후포
1406,129.3776111,37.10586111,부구해수욕장,부구해수욕장 북측 갯바위,바위,0.1 ~0.4,경상북도 울진군,1,DT_0011,후포
1407,129.4176111,37.06997222,후정해수욕장,후정해수욕장 갯바위,"모래, 바위",0.1 ~1.7,경상북도 울진군,1,DT_0011,후포
1408,129.4243611,37.06555556,봉수항,봉수항 북측 갯바위,바위,0.1 ~1.4,경상북도 울진군,1,DT_0011,후포
1409,129.4275556,37.06227778,봉수항,봉수항 남측 갯바위,바위,0.1 ~1.4,경상북도 울진군,1,DT_0011,후포
1410,129.4146111,37.05122222,죽변항,죽변항에서봉평해수욕장까지백사장,모래,0.1 ~1.7,경상북도 울진군,1,DT_0011,후포
1411,129.4108611,37.02152778,양정항,양정항 북쪽갯바위1,바위,1.4 ~1.9,경상북도 울진군,1,DT_0011,후포
1412,129.4130556,37.01652778,양정항,양정항 북쪽갯바위2,바위,0.3 ~1.4,경상북도 울진군,1,DT_0011,후포
1413,129.4160278,37.01138889,양정항,양정항에서 대나리항까지 해안도로,바위,0.1 ~1.7,경상북도 울진군,1,DT_0011,후포
1414,129.4140556,36.98808333,울진항,울진항에서 공세항 해안도로,바위,0.1 ~1.4,경상북도 울진군,1,DT_0011,후포
1415,129.4086389,36.97822222,남대천,남대천하구,모래,1.0 ~1.5,경상북도 울진군,1,DT_0011,후포
1416,129.4193333,36.95036111,산포리,산포리갯바위,바위,0.1 ~1.7,경상북도 울진군,1,DT_0011,후포
1417,129.4203611,36.94352778,산포리,산포리 백사장 갯바위,"모래, 바위",1.1 ~1.7,경상북도 울진군,1,DT_0011,후포
1418,129.4208889,36.93944444,산포리,산포리촛대바위,바위,1.1 ~1.7,경상북도 울진군,1,DT_0011,후포
1419,129.4181111,36.92727778,진복리,진복리백사장갯바위,"모래, 바위",1.1 ~1.2,경상북도 울진군,1,DT_0011,후포
1420,129.4156667,36.91452778,진복항,진복방파제 남측 갯바위,바위,0.9 ~1.1,경상북도 울진군,1,DT_0011,후포
1421,129.4204167,36.89661111,오산항,오산2리 마을회관 갯바위,바위,0.1 ~0.9,경상북도 울진군,1,DT_0011,후포
1422,129.4188611,36.87947222,덕신휴게소,덕신휴게소 부근 백사장,"모래, 바위",0.1 ~0.9,경상북도 울진군,1,DT_0011,후포
